{
"type": "FeatureCollection",
"name": "mli-imagery-years",
"crs": { "type": "name", "properties": { "name": "urn:ogc:def:crs:OGC:1.3:CRS84" } },
"xy_coordinate_resolution": 1e-05,
"features": [
{ "type": "Feature", "properties": { "year": 2007, "cell_count": 1114, "exact_cells": 1006, "inferred_cells": 108 }, "geometry": { "type": "MultiPolygon", "coordinates": [ [ [ [ -98.71497, 51.00123 ], [ -98.71469, 51.04619 ], [ -98.71442, 51.09115 ], [ -98.71414, 51.13611 ], [ -98.71386, 51.18107 ], [ -98.71358, 51.22603 ], [ -98.64198, 51.22584 ], [ -98.64163, 51.27079 ], [ -98.7133, 51.27099 ], [ -98.71302, 51.31595 ], [ -98.71274, 51.36091 ], [ -98.71246, 51.40587 ], [ -98.71218, 51.45083 ], [ -98.71189, 51.49579 ], [ -98.71161, 51.54075 ], [ -98.71133, 51.5857 ], [ -98.71104, 51.63066 ], [ -98.78328, 51.63082 ], [ -98.85552, 51.63093 ], [ -98.92776, 51.63099 ], [ -99.0, 51.63102 ], [ -99.07224, 51.63099 ], [ -99.14448, 51.63093 ], [ -99.21672, 51.63082 ], [ -99.28896, 51.63066 ], [ -99.28924, 51.67562 ], [ -99.36155, 51.67542 ], [ -99.3612, 51.63046 ], [ -99.36084, 51.5855 ], [ -99.36048, 51.54055 ], [ -99.36013, 51.49559 ], [ -99.35978, 51.45063 ], [ -99.35942, 51.40567 ], [ -99.35907, 51.36071 ], [ -99.35872, 51.31575 ], [ -99.35837, 51.27079 ], [ -99.35802, 51.22584 ], [ -99.35767, 51.18088 ], [ -99.35733, 51.13591 ], [ -99.35698, 51.09095 ], [ -99.35663, 51.04599 ], [ -99.35629, 51.00103 ], [ -99.35594, 50.95607 ], [ -99.3556, 50.91111 ], [ -99.35526, 50.86614 ], [ -99.35492, 50.82118 ], [ -99.35458, 50.77622 ], [ -99.35424, 50.73126 ], [ -99.28339, 50.73145 ], [ -99.21254, 50.7316 ], [ -99.1417, 50.73171 ], [ -99.07085, 50.73177 ], [ -99.0, 50.73179 ], [ -98.92915, 50.73177 ], [ -98.8583, 50.73171 ], [ -98.78746, 50.7316 ], [ -98.71661, 50.73145 ], [ -98.64576, 50.73126 ], [ -98.64542, 50.77622 ], [ -98.71634, 50.77641 ], [ -98.71606, 50.82138 ], [ -98.64508, 50.82118 ], [ -98.64474, 50.86615 ], [ -98.6444, 50.91111 ], [ -98.71552, 50.9113 ], [ -98.71524, 50.95626 ], [ -98.71497, 51.00123 ] ] ], [ [ [ -99.29185, 52.08021 ], [ -99.29215, 52.12517 ], [ -99.29244, 52.17012 ], [ -99.29274, 52.21507 ], [ -99.29303, 52.26002 ], [ -99.29333, 52.30498 ], [ -99.29363, 52.34993 ], [ -99.29392, 52.39488 ], [ -99.3674, 52.39467 ], [ -99.44088, 52.39442 ], [ -99.51436, 52.39413 ], [ -99.58784, 52.39378 ], [ -99.66131, 52.3934 ], [ -99.73478, 52.39296 ], [ -99.80825, 52.39248 ], [ -99.88172, 52.39196 ], [ -99.95519, 52.39139 ], [ -100.02865, 52.39077 ], [ -100.10211, 52.39011 ], [ -100.10099, 52.34516 ], [ -100.09988, 52.30022 ], [ -100.09877, 52.25528 ], [ -100.09766, 52.21033 ], [ -100.09655, 52.16539 ], [ -100.09545, 52.12044 ], [ -100.09435, 52.07549 ], [ -100.09325, 52.03055 ], [ -100.09216, 51.9856 ], [ -100.09106, 51.94065 ], [ -100.08997, 51.89571 ], [ -100.08889, 51.85076 ], [ -100.0878, 51.80581 ], [ -100.08672, 51.76086 ], [ -100.08565, 51.71591 ], [ -100.08457, 51.67097 ], [ -100.0835, 51.62602 ], [ -100.08243, 51.58107 ], [ -100.08136, 51.53612 ], [ -100.0803, 51.49117 ], [ -100.07924, 51.44621 ], [ -100.07818, 51.40126 ], [ -100.07712, 51.35631 ], [ -100.07607, 51.31136 ], [ -100.07502, 51.26641 ], [ -100.07397, 51.22146 ], [ -100.14556, 51.22078 ], [ -100.14667, 51.26573 ], [ -100.14779, 51.31068 ], [ -100.14892, 51.35563 ], [ -100.15004, 51.40058 ], [ -100.15117, 51.44553 ], [ -100.1523, 51.49048 ], [ -100.15344, 51.53543 ], [ -100.15458, 51.58038 ], [ -100.15572, 51.62533 ], [ -100.15686, 51.67028 ], [ -100.15801, 51.71522 ], [ -100.15916, 51.76017 ], [ -100.16031, 51.80512 ], [ -100.16146, 51.85007 ], [ -100.16262, 51.89501 ], [ -100.16378, 51.93996 ], [ -100.16495, 51.9849 ], [ -100.16612, 52.02985 ], [ -100.16729, 52.07479 ], [ -100.16846, 52.11974 ], [ -100.16964, 52.16468 ], [ -100.17082, 52.20963 ], [ -100.172, 52.25457 ], [ -100.17319, 52.29951 ], [ -100.17438, 52.34446 ], [ -100.17557, 52.3894 ], [ -100.24903, 52.38865 ], [ -100.32248, 52.38785 ], [ -100.39592, 52.387 ], [ -100.39451, 52.34206 ], [ -100.3931, 52.29713 ], [ -100.39169, 52.25219 ], [ -100.39028, 52.20725 ], [ -100.38888, 52.16231 ], [ -100.38748, 52.11737 ], [ -100.38609, 52.07242 ], [ -100.3847, 52.02748 ], [ -100.38331, 51.98254 ], [ -100.38193, 51.9376 ], [ -100.38055, 51.89266 ], [ -100.37918, 51.84771 ], [ -100.3778, 51.80277 ], [ -100.37644, 51.75783 ], [ -100.37507, 51.71288 ], [ -100.37371, 51.66794 ], [ -100.37235, 51.623 ], [ -100.371, 51.57805 ], [ -100.36965, 51.5331 ], [ -100.3683, 51.48816 ], [ -100.36696, 51.44321 ], [ -100.36562, 51.39827 ], [ -100.36428, 51.35332 ], [ -100.36294, 51.30837 ], [ -100.36161, 51.26342 ], [ -100.36029, 51.21848 ], [ -100.35897, 51.17353 ], [ -100.35765, 51.12858 ], [ -100.42908, 51.12773 ], [ -100.42769, 51.08278 ], [ -100.42631, 51.03783 ], [ -100.42493, 50.99288 ], [ -100.49615, 50.99199 ], [ -100.56737, 50.99106 ], [ -100.63858, 50.99008 ], [ -100.70979, 50.98906 ], [ -100.781, 50.988 ], [ -100.78272, 51.03294 ], [ -100.85399, 51.03183 ], [ -100.8522, 50.98689 ], [ -100.9234, 50.98574 ], [ -100.99459, 50.98455 ], [ -101.06577, 50.98331 ], [ -101.06378, 50.93837 ], [ -101.06179, 50.89344 ], [ -101.05981, 50.84851 ], [ -101.13079, 50.84723 ], [ -101.20176, 50.84591 ], [ -101.27272, 50.84455 ], [ -101.34368, 50.84315 ], [ -101.41464, 50.8417 ], [ -101.41232, 50.79678 ], [ -101.4832, 50.79529 ], [ -101.48559, 50.84021 ], [ -101.55653, 50.83868 ], [ -101.55408, 50.79376 ], [ -101.55163, 50.74884 ], [ -101.54919, 50.70392 ], [ -101.54676, 50.659 ], [ -101.54433, 50.61408 ], [ -101.54191, 50.56915 ], [ -101.53949, 50.52423 ], [ -101.53708, 50.47931 ], [ -101.53468, 50.43439 ], [ -101.53228, 50.38947 ], [ -101.52989, 50.34454 ], [ -101.52751, 50.29962 ], [ -101.52513, 50.25469 ], [ -101.52275, 50.20977 ], [ -101.52039, 50.16484 ], [ -101.51803, 50.11992 ], [ -101.51567, 50.07499 ], [ -101.51332, 50.03007 ], [ -101.51098, 49.98514 ], [ -101.50864, 49.94021 ], [ -101.50631, 49.89528 ], [ -101.50398, 49.85035 ], [ -101.50166, 49.80543 ], [ -101.43224, 49.8069 ], [ -101.36281, 49.80834 ], [ -101.29338, 49.80974 ], [ -101.22394, 49.81109 ], [ -101.15449, 49.8124 ], [ -101.08504, 49.81367 ], [ -101.08698, 49.85862 ], [ -101.08891, 49.90356 ], [ -101.09086, 49.9485 ], [ -101.09281, 49.99344 ], [ -101.09476, 50.03838 ], [ -101.09672, 50.08332 ], [ -101.09868, 50.12826 ], [ -101.10065, 50.1732 ], [ -101.10262, 50.21814 ], [ -101.1046, 50.26307 ], [ -101.0345, 50.26432 ], [ -101.03258, 50.21938 ], [ -101.03068, 50.17444 ], [ -101.02877, 50.1295 ], [ -101.02688, 50.08456 ], [ -101.02498, 50.03962 ], [ -101.02309, 49.99468 ], [ -101.02121, 49.94973 ], [ -101.01933, 49.90479 ], [ -101.01746, 49.85985 ], [ -101.01559, 49.8149 ], [ -100.94613, 49.81609 ], [ -100.87666, 49.81724 ], [ -100.8784, 49.86218 ], [ -100.88015, 49.90713 ], [ -100.8819, 49.95208 ], [ -100.88365, 49.99702 ], [ -100.88541, 50.04197 ], [ -100.88717, 50.08692 ], [ -100.88894, 50.13186 ], [ -100.89071, 50.1768 ], [ -100.89249, 50.22175 ], [ -100.89427, 50.26669 ], [ -100.89606, 50.31164 ], [ -100.89785, 50.35658 ], [ -100.8276, 50.3577 ], [ -100.82587, 50.31276 ], [ -100.75568, 50.31384 ], [ -100.75403, 50.26889 ], [ -100.75238, 50.22395 ], [ -100.75073, 50.179 ], [ -100.74909, 50.13405 ], [ -100.74746, 50.0891 ], [ -100.74582, 50.04415 ], [ -100.74419, 49.99921 ], [ -100.74257, 49.95426 ], [ -100.74095, 49.90931 ], [ -100.73933, 49.86436 ], [ -100.73772, 49.8194 ], [ -100.66824, 49.82043 ], [ -100.59876, 49.8214 ], [ -100.52928, 49.82234 ], [ -100.45979, 49.82324 ], [ -100.3903, 49.82409 ], [ -100.3208, 49.82491 ], [ -100.2513, 49.82568 ], [ -100.1818, 49.82641 ], [ -100.1123, 49.82709 ], [ -100.11333, 49.87206 ], [ -100.11437, 49.91702 ], [ -100.11541, 49.96198 ], [ -100.11645, 50.00694 ], [ -100.11749, 50.05191 ], [ -100.11853, 50.09687 ], [ -100.11958, 50.14183 ], [ -100.12063, 50.18679 ], [ -100.05061, 50.18744 ], [ -100.05159, 50.2324 ], [ -100.12169, 50.23175 ], [ -100.12274, 50.27671 ], [ -100.05258, 50.27736 ], [ -99.98242, 50.27798 ], [ -99.91226, 50.27855 ], [ -99.84209, 50.27908 ], [ -99.77193, 50.27957 ], [ -99.70176, 50.28001 ], [ -99.63159, 50.28041 ], [ -99.56141, 50.28077 ], [ -99.56194, 50.32574 ], [ -99.56247, 50.37071 ], [ -99.56301, 50.41567 ], [ -99.56354, 50.46064 ], [ -99.56408, 50.5056 ], [ -99.56461, 50.55056 ], [ -99.56515, 50.59553 ], [ -99.49451, 50.59585 ], [ -99.49498, 50.64081 ], [ -99.49545, 50.68578 ], [ -99.49593, 50.73074 ], [ -99.4964, 50.7757 ], [ -99.49688, 50.82066 ], [ -99.49736, 50.86563 ], [ -99.49784, 50.91059 ], [ -99.49832, 50.95555 ], [ -99.4988, 51.00051 ], [ -99.49928, 51.04547 ], [ -99.49976, 51.09043 ], [ -99.50025, 51.13539 ], [ -99.57171, 51.13506 ], [ -99.64317, 51.13469 ], [ -99.71463, 51.13428 ], [ -99.78608, 51.13382 ], [ -99.78685, 51.17878 ], [ -99.78761, 51.22373 ], [ -99.78838, 51.26869 ], [ -99.78915, 51.31365 ], [ -99.78993, 51.3586 ], [ -99.7907, 51.40356 ], [ -99.79148, 51.44851 ], [ -99.79225, 51.49347 ], [ -99.79303, 51.53842 ], [ -99.79382, 51.58337 ], [ -99.7946, 51.62833 ], [ -99.79539, 51.67328 ], [ -99.79618, 51.71823 ], [ -99.79697, 51.76319 ], [ -99.79776, 51.80814 ], [ -99.79855, 51.85309 ], [ -99.79935, 51.89804 ], [ -99.80015, 51.94299 ], [ -99.80095, 51.98794 ], [ -99.80175, 52.03289 ], [ -99.80256, 52.07784 ], [ -99.7296, 52.07832 ], [ -99.72887, 52.03337 ], [ -99.72814, 51.98841 ], [ -99.72741, 51.94346 ], [ -99.72669, 51.89851 ], [ -99.72596, 51.85356 ], [ -99.72524, 51.80861 ], [ -99.72452, 51.76365 ], [ -99.7238, 51.7187 ], [ -99.65143, 51.71912 ], [ -99.65207, 51.76408 ], [ -99.65272, 51.80903 ], [ -99.5802, 51.80941 ], [ -99.50768, 51.80975 ], [ -99.50819, 51.8547 ], [ -99.50869, 51.89966 ], [ -99.43603, 51.89995 ], [ -99.43559, 51.85499 ], [ -99.43516, 51.81004 ], [ -99.43472, 51.76508 ], [ -99.36227, 51.76533 ], [ -99.36191, 51.72037 ], [ -99.28953, 51.72057 ], [ -99.28982, 51.76553 ], [ -99.29011, 51.81049 ], [ -99.2904, 51.85544 ], [ -99.29069, 51.9004 ], [ -99.29098, 51.94535 ], [ -99.29127, 51.99031 ], [ -99.29156, 52.03526 ], [ -99.29185, 52.08021 ] ] ] ] } },
{ "type": "Feature", "properties": { "year": 2008, "cell_count": 738, "exact_cells": 696, "inferred_cells": 42 }, "geometry": { "type": "MultiPolygon", "coordinates": [ [ [ [ -101.09086, 49.9485 ], [ -101.08891, 49.90356 ], [ -101.08698, 49.85862 ], [ -101.08504, 49.81367 ], [ -101.01559, 49.8149 ], [ -101.01746, 49.85985 ], [ -101.01933, 49.90479 ], [ -101.02121, 49.94973 ], [ -101.02309, 49.99468 ], [ -101.02498, 50.03962 ], [ -101.02688, 50.08456 ], [ -101.02877, 50.1295 ], [ -101.03068, 50.17444 ], [ -101.03258, 50.21938 ], [ -101.0345, 50.26432 ], [ -101.1046, 50.26307 ], [ -101.10262, 50.21814 ], [ -101.10065, 50.1732 ], [ -101.09868, 50.12826 ], [ -101.09672, 50.08332 ], [ -101.09476, 50.03838 ], [ -101.09281, 49.99344 ], [ -101.09086, 49.9485 ] ] ], [ [ [ -100.82587, 50.31276 ], [ -100.8276, 50.3577 ], [ -100.89785, 50.35658 ], [ -100.89606, 50.31164 ], [ -100.89427, 50.26669 ], [ -100.89249, 50.22175 ], [ -100.89071, 50.1768 ], [ -100.88894, 50.13186 ], [ -100.88717, 50.08692 ], [ -100.88541, 50.04197 ], [ -100.88365, 49.99702 ], [ -100.8819, 49.95208 ], [ -100.88015, 49.90713 ], [ -100.8784, 49.86218 ], [ -100.87666, 49.81724 ], [ -100.80719, 49.81834 ], [ -100.73772, 49.8194 ], [ -100.73933, 49.86436 ], [ -100.74095, 49.90931 ], [ -100.74257, 49.95426 ], [ -100.74419, 49.99921 ], [ -100.74582, 50.04415 ], [ -100.74746, 50.0891 ], [ -100.74909, 50.13405 ], [ -100.75073, 50.179 ], [ -100.75238, 50.22395 ], [ -100.75403, 50.26889 ], [ -100.75568, 50.31384 ], [ -100.82587, 50.31276 ] ] ], [ [ [ -100.36161, 51.26342 ], [ -100.36294, 51.30837 ], [ -100.36428, 51.35332 ], [ -100.36562, 51.39827 ], [ -100.36696, 51.44321 ], [ -100.3683, 51.48816 ], [ -100.36965, 51.5331 ], [ -100.371, 51.57805 ], [ -100.37235, 51.623 ], [ -100.37371, 51.66794 ], [ -100.37507, 51.71288 ], [ -100.37644, 51.75783 ], [ -100.3778, 51.80277 ], [ -100.37918, 51.84771 ], [ -100.38055, 51.89266 ], [ -100.38193, 51.9376 ], [ -100.38331, 51.98254 ], [ -100.3847, 52.02748 ], [ -100.38609, 52.07242 ], [ -100.38748, 52.11737 ], [ -100.38888, 52.16231 ], [ -100.39028, 52.20725 ], [ -100.39169, 52.25219 ], [ -100.3931, 52.29713 ], [ -100.39451, 52.34206 ], [ -100.39592, 52.387 ], [ -100.46937, 52.38611 ], [ -100.54281, 52.38518 ], [ -100.61624, 52.3842 ], [ -100.68968, 52.38317 ], [ -100.7631, 52.3821 ], [ -100.83653, 52.38098 ], [ -100.90994, 52.37981 ], [ -100.98336, 52.3786 ], [ -101.05676, 52.37735 ], [ -101.13017, 52.37605 ], [ -101.20356, 52.3747 ], [ -101.27695, 52.37331 ], [ -101.35034, 52.37187 ], [ -101.42371, 52.37039 ], [ -101.49708, 52.36886 ], [ -101.57045, 52.36729 ], [ -101.64381, 52.36567 ], [ -101.71716, 52.364 ], [ -101.7144, 52.3191 ], [ -101.71166, 52.2742 ], [ -101.70892, 52.2293 ], [ -101.63579, 52.23095 ], [ -101.63313, 52.18605 ], [ -101.63048, 52.14114 ], [ -101.62784, 52.09624 ], [ -101.6252, 52.05133 ], [ -101.62257, 52.00642 ], [ -101.61995, 51.96151 ], [ -101.61733, 51.91661 ], [ -101.61472, 51.8717 ], [ -101.61212, 51.82679 ], [ -101.60952, 51.78188 ], [ -101.60693, 51.73697 ], [ -101.60435, 51.69206 ], [ -101.60178, 51.64715 ], [ -101.59921, 51.60224 ], [ -101.59664, 51.55732 ], [ -101.59409, 51.51241 ], [ -101.59154, 51.4675 ], [ -101.589, 51.42259 ], [ -101.58646, 51.37767 ], [ -101.58393, 51.33276 ], [ -101.58141, 51.28784 ], [ -101.57889, 51.24293 ], [ -101.57638, 51.19801 ], [ -101.57388, 51.1531 ], [ -101.57138, 51.10818 ], [ -101.56889, 51.06327 ], [ -101.5664, 51.01835 ], [ -101.56393, 50.97343 ], [ -101.56145, 50.92851 ], [ -101.55899, 50.8836 ], [ -101.55653, 50.83868 ], [ -101.48559, 50.84021 ], [ -101.4832, 50.79529 ], [ -101.41232, 50.79678 ], [ -101.41464, 50.8417 ], [ -101.34368, 50.84315 ], [ -101.27272, 50.84455 ], [ -101.20176, 50.84591 ], [ -101.13079, 50.84723 ], [ -101.05981, 50.84851 ], [ -101.06179, 50.89344 ], [ -101.06378, 50.93837 ], [ -101.06577, 50.98331 ], [ -100.99459, 50.98455 ], [ -100.9234, 50.98574 ], [ -100.8522, 50.98689 ], [ -100.85399, 51.03183 ], [ -100.78272, 51.03294 ], [ -100.781, 50.988 ], [ -100.70979, 50.98906 ], [ -100.63858, 50.99008 ], [ -100.56737, 50.99106 ], [ -100.49615, 50.99199 ], [ -100.42493, 50.99288 ], [ -100.42631, 51.03783 ], [ -100.42769, 51.08278 ], [ -100.42908, 51.12773 ], [ -100.35765, 51.12858 ], [ -100.35897, 51.17353 ], [ -100.36029, 51.21848 ], [ -100.36161, 51.26342 ] ] ], [ [ [ -100.14556, 51.22078 ], [ -100.07397, 51.22146 ], [ -100.07502, 51.26641 ], [ -100.07607, 51.31136 ], [ -100.07712, 51.35631 ], [ -100.07818, 51.40126 ], [ -100.07924, 51.44621 ], [ -100.0803, 51.49117 ], [ -100.08136, 51.53612 ], [ -100.08243, 51.58107 ], [ -100.0835, 51.62602 ], [ -100.08457, 51.67097 ], [ -100.08565, 51.71591 ], [ -100.08672, 51.76086 ], [ -100.0878, 51.80581 ], [ -100.08889, 51.85076 ], [ -100.08997, 51.89571 ], [ -100.09106, 51.94065 ], [ -100.09216, 51.9856 ], [ -100.09325, 52.03055 ], [ -100.09435, 52.07549 ], [ -100.09545, 52.12044 ], [ -100.09655, 52.16539 ], [ -100.09766, 52.21033 ], [ -100.09877, 52.25528 ], [ -100.09988, 52.30022 ], [ -100.10099, 52.34516 ], [ -100.10211, 52.39011 ], [ -100.17557, 52.3894 ], [ -100.17438, 52.34446 ], [ -100.17319, 52.29951 ], [ -100.172, 52.25457 ], [ -100.17082, 52.20963 ], [ -100.16964, 52.16468 ], [ -100.16846, 52.11974 ], [ -100.16729, 52.07479 ], [ -100.16612, 52.02985 ], [ -100.16495, 51.9849 ], [ -100.16378, 51.93996 ], [ -100.16262, 51.89501 ], [ -100.16146, 51.85007 ], [ -100.16031, 51.80512 ], [ -100.15916, 51.76017 ], [ -100.15801, 51.71522 ], [ -100.15686, 51.67028 ], [ -100.15572, 51.62533 ], [ -100.15458, 51.58038 ], [ -100.15344, 51.53543 ], [ -100.1523, 51.49048 ], [ -100.15117, 51.44553 ], [ -100.15004, 51.40058 ], [ -100.14892, 51.35563 ], [ -100.14779, 51.31068 ], [ -100.14667, 51.26573 ], [ -100.14556, 51.22078 ] ] ], [ [ [ -99.35802, 51.22584 ], [ -99.35837, 51.27079 ], [ -99.35872, 51.31575 ], [ -99.35907, 51.36071 ], [ -99.35942, 51.40567 ], [ -99.35978, 51.45063 ], [ -99.36013, 51.49559 ], [ -99.36048, 51.54055 ], [ -99.36084, 51.5855 ], [ -99.3612, 51.63046 ], [ -99.36155, 51.67542 ], [ -99.28924, 51.67562 ], [ -99.28953, 51.72057 ], [ -99.36191, 51.72037 ], [ -99.36227, 51.76533 ], [ -99.43472, 51.76508 ], [ -99.43516, 51.81004 ], [ -99.43559, 51.85499 ], [ -99.43603, 51.89995 ], [ -99.50869, 51.89966 ], [ -99.50819, 51.8547 ], [ -99.50768, 51.80975 ], [ -99.5802, 51.80941 ], [ -99.65272, 51.80903 ], [ -99.65207, 51.76408 ], [ -99.65143, 51.71912 ], [ -99.7238, 51.7187 ], [ -99.72452, 51.76365 ], [ -99.72524, 51.80861 ], [ -99.72596, 51.85356 ], [ -99.72669, 51.89851 ], [ -99.72741, 51.94346 ], [ -99.72814, 51.98841 ], [ -99.72887, 52.03337 ], [ -99.7296, 52.07832 ], [ -99.80256, 52.07784 ], [ -99.80175, 52.03289 ], [ -99.80095, 51.98794 ], [ -99.80015, 51.94299 ], [ -99.79935, 51.89804 ], [ -99.79855, 51.85309 ], [ -99.79776, 51.80814 ], [ -99.79697, 51.76319 ], [ -99.79618, 51.71823 ], [ -99.79539, 51.67328 ], [ -99.7946, 51.62833 ], [ -99.79382, 51.58337 ], [ -99.79303, 51.53842 ], [ -99.79225, 51.49347 ], [ -99.79148, 51.44851 ], [ -99.7907, 51.40356 ], [ -99.78993, 51.3586 ], [ -99.78915, 51.31365 ], [ -99.78838, 51.26869 ], [ -99.78761, 51.22373 ], [ -99.78685, 51.17878 ], [ -99.78608, 51.13382 ], [ -99.71463, 51.13428 ], [ -99.64317, 51.13469 ], [ -99.57171, 51.13506 ], [ -99.50025, 51.13539 ], [ -99.49976, 51.09043 ], [ -99.49928, 51.04547 ], [ -99.4988, 51.00051 ], [ -99.49832, 50.95555 ], [ -99.49784, 50.91059 ], [ -99.49736, 50.86563 ], [ -99.49688, 50.82066 ], [ -99.4964, 50.7757 ], [ -99.49593, 50.73074 ], [ -99.49545, 50.68578 ], [ -99.49498, 50.64081 ], [ -99.49451, 50.59585 ], [ -99.56515, 50.59553 ], [ -99.56461, 50.55056 ], [ -99.56408, 50.5056 ], [ -99.56354, 50.46064 ], [ -99.56301, 50.41567 ], [ -99.56247, 50.37071 ], [ -99.56194, 50.32574 ], [ -99.56141, 50.28077 ], [ -99.49124, 50.28109 ], [ -99.42107, 50.28137 ], [ -99.42146, 50.32633 ], [ -99.42186, 50.3713 ], [ -99.42226, 50.41627 ], [ -99.42266, 50.46123 ], [ -99.42306, 50.5062 ], [ -99.42346, 50.55116 ], [ -99.42387, 50.59613 ], [ -99.42427, 50.64109 ], [ -99.42468, 50.68606 ], [ -99.42508, 50.73102 ], [ -99.35424, 50.73126 ], [ -99.35458, 50.77622 ], [ -99.35492, 50.82118 ], [ -99.35526, 50.86614 ], [ -99.3556, 50.91111 ], [ -99.35594, 50.95607 ], [ -99.35629, 51.00103 ], [ -99.35663, 51.04599 ], [ -99.35698, 51.09095 ], [ -99.35733, 51.13591 ], [ -99.35767, 51.18088 ], [ -99.35802, 51.22584 ] ] ] ] } },
{ "type": "Feature", "properties": { "year": 2009, "cell_count": 2542, "exact_cells": 2298, "inferred_cells": 244 }, "geometry": { "type": "MultiPolygon", "coordinates": [ [ [ [ -96.40725, 50.20823 ], [ -96.33725, 50.20664 ], [ -96.33475, 50.25156 ], [ -96.40481, 50.25315 ], [ -96.47487, 50.25469 ], [ -96.54495, 50.2562 ], [ -96.61503, 50.25766 ], [ -96.68511, 50.25907 ], [ -96.7552, 50.26045 ], [ -96.8253, 50.26178 ], [ -96.8954, 50.26307 ], [ -96.9655, 50.26432 ], [ -97.03561, 50.26553 ], [ -97.10573, 50.26669 ], [ -97.17585, 50.26781 ], [ -97.24597, 50.26889 ], [ -97.3161, 50.26993 ], [ -97.38623, 50.27093 ], [ -97.45637, 50.27188 ], [ -97.52651, 50.27279 ], [ -97.59665, 50.27366 ], [ -97.6668, 50.27448 ], [ -97.73695, 50.27527 ], [ -97.8071, 50.27601 ], [ -97.87726, 50.27671 ], [ -97.87831, 50.23175 ], [ -97.87937, 50.18679 ], [ -97.80934, 50.18609 ], [ -97.73932, 50.18535 ], [ -97.6693, 50.18457 ], [ -97.59929, 50.18375 ], [ -97.52928, 50.18288 ], [ -97.45927, 50.18198 ], [ -97.45782, 50.22693 ], [ -97.38775, 50.22598 ], [ -97.38926, 50.18103 ], [ -97.31926, 50.18003 ], [ -97.24927, 50.179 ], [ -97.17927, 50.17792 ], [ -97.10929, 50.1768 ], [ -97.0393, 50.17564 ], [ -96.96932, 50.17444 ], [ -96.89935, 50.1732 ], [ -96.82938, 50.17191 ], [ -96.75942, 50.17058 ], [ -96.68946, 50.16921 ], [ -96.6195, 50.1678 ], [ -96.54956, 50.16634 ], [ -96.47961, 50.16484 ], [ -96.40968, 50.1633 ], [ -96.40725, 50.20823 ] ] ], [ [ [ -97.29062, 49.01022 ], [ -97.28908, 49.05518 ], [ -97.28754, 49.10014 ], [ -97.356, 49.10113 ], [ -97.35452, 49.14609 ], [ -97.28599, 49.1451 ], [ -97.21746, 49.14406 ], [ -97.14894, 49.14298 ], [ -97.08042, 49.14186 ], [ -97.01191, 49.1407 ], [ -96.9434, 49.1395 ], [ -96.94153, 49.18445 ], [ -96.87297, 49.18321 ], [ -96.80441, 49.18192 ], [ -96.73585, 49.1806 ], [ -96.6673, 49.17923 ], [ -96.66941, 49.13429 ], [ -96.60092, 49.13289 ], [ -96.53244, 49.13144 ], [ -96.46397, 49.12996 ], [ -96.46626, 49.08503 ], [ -96.53467, 49.08651 ], [ -96.53689, 49.04157 ], [ -96.46854, 49.04009 ], [ -96.4002, 49.03857 ], [ -96.33186, 49.03701 ], [ -96.32945, 49.08194 ], [ -96.32704, 49.12687 ], [ -96.3955, 49.12843 ], [ -96.39314, 49.17337 ], [ -96.32462, 49.1718 ], [ -96.32219, 49.21672 ], [ -96.31976, 49.26165 ], [ -96.38841, 49.26322 ], [ -96.45706, 49.26476 ], [ -96.52572, 49.26625 ], [ -96.52347, 49.31118 ], [ -96.45475, 49.30969 ], [ -96.38603, 49.30815 ], [ -96.31732, 49.30658 ], [ -96.31488, 49.3515 ], [ -96.31243, 49.39643 ], [ -96.30997, 49.44136 ], [ -96.30751, 49.48628 ], [ -96.30504, 49.5312 ], [ -96.30257, 49.57613 ], [ -96.37165, 49.57772 ], [ -96.36924, 49.62264 ], [ -96.30009, 49.62105 ], [ -96.2976, 49.66597 ], [ -96.29511, 49.7109 ], [ -96.29261, 49.75582 ], [ -96.2901, 49.80074 ], [ -96.28759, 49.84566 ], [ -96.28507, 49.89058 ], [ -96.3546, 49.89219 ], [ -96.35214, 49.93711 ], [ -96.34968, 49.98204 ], [ -96.3472, 50.02696 ], [ -96.34472, 50.07188 ], [ -96.27493, 50.07026 ], [ -96.27238, 50.11518 ], [ -96.34224, 50.1168 ], [ -96.4121, 50.11838 ], [ -96.48197, 50.11992 ], [ -96.55185, 50.12141 ], [ -96.62173, 50.12287 ], [ -96.69162, 50.12428 ], [ -96.76151, 50.12565 ], [ -96.83141, 50.12697 ], [ -96.90132, 50.12826 ], [ -96.97123, 50.1295 ], [ -97.04114, 50.1307 ], [ -97.11106, 50.13186 ], [ -97.18098, 50.13298 ], [ -97.25091, 50.13405 ], [ -97.32084, 50.13508 ], [ -97.39077, 50.13607 ], [ -97.46071, 50.13702 ], [ -97.53066, 50.13793 ], [ -97.6006, 50.13879 ], [ -97.67055, 50.13961 ], [ -97.7405, 50.14039 ], [ -97.81046, 50.14113 ], [ -97.88042, 50.14183 ], [ -97.95038, 50.14248 ], [ -98.02034, 50.14309 ], [ -98.09031, 50.14366 ], [ -98.16028, 50.14419 ], [ -98.23025, 50.14467 ], [ -98.30022, 50.14512 ], [ -98.37019, 50.14552 ], [ -98.44017, 50.14588 ], [ -98.51014, 50.14619 ], [ -98.58012, 50.14647 ], [ -98.6501, 50.1467 ], [ -98.72008, 50.14689 ], [ -98.71981, 50.19186 ], [ -98.64977, 50.19167 ], [ -98.57973, 50.19143 ], [ -98.50968, 50.19116 ], [ -98.43964, 50.19084 ], [ -98.3696, 50.19048 ], [ -98.29956, 50.19008 ], [ -98.22952, 50.18964 ], [ -98.15949, 50.18915 ], [ -98.08945, 50.18862 ], [ -98.01942, 50.18805 ], [ -98.0185, 50.23302 ], [ -98.01758, 50.27798 ], [ -97.94742, 50.27736 ], [ -97.87726, 50.27671 ], [ -97.8762, 50.32167 ], [ -97.80598, 50.32097 ], [ -97.73576, 50.32022 ], [ -97.66554, 50.31944 ], [ -97.59533, 50.31861 ], [ -97.52512, 50.31774 ], [ -97.45491, 50.31683 ], [ -97.38471, 50.31588 ], [ -97.31451, 50.31488 ], [ -97.24432, 50.31384 ], [ -97.17413, 50.31276 ], [ -97.10394, 50.31164 ], [ -97.03376, 50.31047 ], [ -96.96358, 50.30926 ], [ -96.89341, 50.30801 ], [ -96.82325, 50.30672 ], [ -96.75308, 50.30538 ], [ -96.68293, 50.304 ], [ -96.61278, 50.30258 ], [ -96.54263, 50.30112 ], [ -96.47249, 50.29962 ], [ -96.40236, 50.29807 ], [ -96.33223, 50.29648 ], [ -96.26211, 50.29485 ], [ -96.25953, 50.33977 ], [ -96.32972, 50.3414 ], [ -96.39991, 50.34299 ], [ -96.47011, 50.34454 ], [ -96.54031, 50.34605 ], [ -96.61053, 50.34751 ], [ -96.68074, 50.34894 ], [ -96.75096, 50.35032 ], [ -96.74884, 50.39525 ], [ -96.81913, 50.39659 ], [ -96.88943, 50.39789 ], [ -96.95973, 50.39914 ], [ -97.03004, 50.40035 ], [ -97.10036, 50.40152 ], [ -97.17068, 50.40265 ], [ -97.241, 50.40373 ], [ -97.31133, 50.40478 ], [ -97.38166, 50.40578 ], [ -97.45199, 50.40673 ], [ -97.52233, 50.40765 ], [ -97.59267, 50.40852 ], [ -97.66302, 50.40935 ], [ -97.73337, 50.41014 ], [ -97.80372, 50.41088 ], [ -97.87407, 50.41158 ], [ -97.94443, 50.41224 ], [ -98.01479, 50.41286 ], [ -98.08515, 50.41344 ], [ -98.15552, 50.41397 ], [ -98.22588, 50.41446 ], [ -98.29625, 50.4149 ], [ -98.36662, 50.41531 ], [ -98.43699, 50.41567 ], [ -98.50737, 50.41599 ], [ -98.57774, 50.41627 ], [ -98.64812, 50.4165 ], [ -98.71849, 50.41669 ], [ -98.78887, 50.41684 ], [ -98.85924, 50.41695 ], [ -98.92962, 50.41701 ], [ -99.0, 50.41703 ], [ -99.07038, 50.41701 ], [ -99.14076, 50.41695 ], [ -99.21113, 50.41684 ], [ -99.28151, 50.41669 ], [ -99.35188, 50.4165 ], [ -99.42226, 50.41627 ], [ -99.42186, 50.3713 ], [ -99.42146, 50.32633 ], [ -99.35122, 50.32657 ], [ -99.28098, 50.32676 ], [ -99.21073, 50.32691 ], [ -99.14049, 50.32701 ], [ -99.07024, 50.32708 ], [ -99.0, 50.3271 ], [ -98.92976, 50.32708 ], [ -98.85951, 50.32701 ], [ -98.78927, 50.32691 ], [ -98.71902, 50.32676 ], [ -98.64878, 50.32657 ], [ -98.57854, 50.32633 ], [ -98.5083, 50.32606 ], [ -98.50876, 50.28109 ], [ -98.57893, 50.28137 ], [ -98.64911, 50.2816 ], [ -98.71929, 50.28179 ], [ -98.78946, 50.28194 ], [ -98.85964, 50.28205 ], [ -98.92982, 50.28211 ], [ -99.0, 50.28213 ], [ -99.0, 50.23716 ], [ -99.07011, 50.23714 ], [ -99.14022, 50.23708 ], [ -99.21034, 50.23697 ], [ -99.21053, 50.28194 ], [ -99.28071, 50.28179 ], [ -99.35089, 50.2816 ], [ -99.42107, 50.28137 ], [ -99.49124, 50.28109 ], [ -99.56141, 50.28077 ], [ -99.63159, 50.28041 ], [ -99.70176, 50.28001 ], [ -99.77193, 50.27957 ], [ -99.84209, 50.27908 ], [ -99.91226, 50.27855 ], [ -99.98242, 50.27798 ], [ -100.05258, 50.27736 ], [ -100.12274, 50.27671 ], [ -100.12169, 50.23175 ], [ -100.05159, 50.2324 ], [ -100.05061, 50.18744 ], [ -100.12063, 50.18679 ], [ -100.11958, 50.14183 ], [ -100.11853, 50.09687 ], [ -100.11749, 50.05191 ], [ -100.11645, 50.00694 ], [ -100.11541, 49.96198 ], [ -100.11437, 49.91702 ], [ -100.11333, 49.87206 ], [ -100.1123, 49.82709 ], [ -100.1818, 49.82641 ], [ -100.2513, 49.82568 ], [ -100.3208, 49.82491 ], [ -100.3903, 49.82409 ], [ -100.45979, 49.82324 ], [ -100.52928, 49.82234 ], [ -100.59876, 49.8214 ], [ -100.66824, 49.82043 ], [ -100.73772, 49.8194 ], [ -100.80719, 49.81834 ], [ -100.87666, 49.81724 ], [ -100.94613, 49.81609 ], [ -101.01559, 49.8149 ], [ -101.08504, 49.81367 ], [ -101.15449, 49.8124 ], [ -101.22394, 49.81109 ], [ -101.29338, 49.80974 ], [ -101.36281, 49.80834 ], [ -101.43224, 49.8069 ], [ -101.42999, 49.76197 ], [ -101.42775, 49.71704 ], [ -101.42551, 49.67211 ], [ -101.42328, 49.62718 ], [ -101.42105, 49.58224 ], [ -101.41883, 49.53731 ], [ -101.41661, 49.49238 ], [ -101.4144, 49.44744 ], [ -101.41219, 49.40251 ], [ -101.40999, 49.35757 ], [ -101.4078, 49.31264 ], [ -101.40561, 49.2677 ], [ -101.40343, 49.22276 ], [ -101.40125, 49.17783 ], [ -101.39908, 49.13289 ], [ -101.39691, 49.08795 ], [ -101.39475, 49.04301 ], [ -101.39259, 48.99807 ], [ -101.39044, 48.95314 ], [ -101.3222, 48.95453 ], [ -101.25396, 48.95588 ], [ -101.18571, 48.9572 ], [ -101.11746, 48.95847 ], [ -101.0492, 48.95971 ], [ -100.98093, 48.9609 ], [ -100.91267, 48.96205 ], [ -100.8444, 48.96316 ], [ -100.77612, 48.96423 ], [ -100.70784, 48.96527 ], [ -100.63956, 48.96626 ], [ -100.57127, 48.96721 ], [ -100.50298, 48.96812 ], [ -100.43468, 48.96899 ], [ -100.36639, 48.96982 ], [ -100.29809, 48.97061 ], [ -100.22978, 48.97135 ], [ -100.16148, 48.97206 ], [ -100.09317, 48.97273 ], [ -100.02486, 48.97336 ], [ -99.95654, 48.97394 ], [ -99.88823, 48.97449 ], [ -99.81991, 48.975 ], [ -99.75159, 48.97546 ], [ -99.68327, 48.97589 ], [ -99.61495, 48.97627 ], [ -99.54662, 48.97661 ], [ -99.4783, 48.97692 ], [ -99.40997, 48.97718 ], [ -99.34164, 48.9774 ], [ -99.27332, 48.97758 ], [ -99.20499, 48.97773 ], [ -99.13666, 48.97783 ], [ -99.06833, 48.97789 ], [ -99.0, 48.97791 ], [ -98.93167, 48.97789 ], [ -98.86334, 48.97783 ], [ -98.79501, 48.97773 ], [ -98.72668, 48.97758 ], [ -98.65836, 48.9774 ], [ -98.59003, 48.97718 ], [ -98.5217, 48.97692 ], [ -98.45338, 48.97661 ], [ -98.38505, 48.97627 ], [ -98.31673, 48.97589 ], [ -98.24841, 48.97546 ], [ -98.18009, 48.975 ], [ -98.11177, 48.97449 ], [ -98.04346, 48.97394 ], [ -98.0426, 49.01891 ], [ -97.97422, 49.01833 ], [ -97.90585, 49.0177 ], [ -97.90683, 48.97273 ], [ -97.83852, 48.97206 ], [ -97.77022, 48.97135 ], [ -97.70191, 48.97061 ], [ -97.63361, 48.96982 ], [ -97.56532, 48.96899 ], [ -97.49702, 48.96812 ], [ -97.42873, 48.96721 ], [ -97.36044, 48.96626 ], [ -97.29216, 48.96527 ], [ -97.29062, 49.01022 ] ], [ [ -99.83195, 49.69453 ], [ -99.83272, 49.7395 ], [ -99.83349, 49.78446 ], [ -99.83426, 49.82943 ], [ -99.83504, 49.8744 ], [ -99.83581, 49.91936 ], [ -99.76617, 49.91984 ], [ -99.69652, 49.92028 ], [ -99.62687, 49.92068 ], [ -99.55723, 49.92104 ], [ -99.48758, 49.92135 ], [ -99.41792, 49.92162 ], [ -99.34827, 49.92185 ], [ -99.27862, 49.92204 ], [ -99.20896, 49.92219 ], [ -99.13931, 49.92229 ], [ -99.13918, 49.87732 ], [ -99.06959, 49.87738 ], [ -99.06953, 49.83241 ], [ -99.06946, 49.78744 ], [ -99.0694, 49.74247 ], [ -99.06933, 49.69749 ], [ -99.06927, 49.65252 ], [ -99.0, 49.65254 ], [ -99.0, 49.60757 ], [ -99.06921, 49.60755 ], [ -99.13841, 49.60749 ], [ -99.13828, 49.56251 ], [ -99.20742, 49.56241 ], [ -99.20723, 49.51744 ], [ -99.27631, 49.51729 ], [ -99.34539, 49.51711 ], [ -99.41446, 49.51688 ], [ -99.48354, 49.51661 ], [ -99.55261, 49.5163 ], [ -99.62169, 49.51595 ], [ -99.62226, 49.56092 ], [ -99.69139, 49.56053 ], [ -99.69203, 49.6055 ], [ -99.76122, 49.60507 ], [ -99.83042, 49.60459 ], [ -99.83118, 49.64956 ], [ -99.83195, 49.69453 ] ], [ [ -97.9601, 49.69285 ], [ -97.89078, 49.6922 ], [ -97.82147, 49.69152 ], [ -97.75216, 49.69079 ], [ -97.68286, 49.69003 ], [ -97.61355, 49.68922 ], [ -97.61227, 49.73418 ], [ -97.68164, 49.73499 ], [ -97.75101, 49.73575 ], [ -97.82038, 49.73648 ], [ -97.88976, 49.73717 ], [ -97.95913, 49.73781 ], [ -97.95817, 49.78278 ], [ -97.88873, 49.78213 ], [ -97.81929, 49.78144 ], [ -97.74985, 49.78072 ], [ -97.68042, 49.77995 ], [ -97.61099, 49.77913 ], [ -97.54156, 49.77828 ], [ -97.54021, 49.82324 ], [ -97.47072, 49.82234 ], [ -97.40124, 49.8214 ], [ -97.33176, 49.82043 ], [ -97.26228, 49.8194 ], [ -97.19281, 49.81834 ], [ -97.12334, 49.81724 ], [ -97.05387, 49.81609 ], [ -96.98441, 49.8149 ], [ -96.91496, 49.81367 ], [ -96.84551, 49.8124 ], [ -96.77606, 49.81109 ], [ -96.77812, 49.76615 ], [ -96.8475, 49.76746 ], [ -96.91689, 49.76873 ], [ -96.98628, 49.76996 ], [ -97.05567, 49.77115 ], [ -97.12508, 49.77229 ], [ -97.19448, 49.77339 ], [ -97.26389, 49.77445 ], [ -97.3333, 49.77547 ], [ -97.40272, 49.77645 ], [ -97.47214, 49.77739 ], [ -97.47355, 49.73243 ], [ -97.40419, 49.7315 ], [ -97.33484, 49.73052 ], [ -97.26549, 49.7295 ], [ -97.19615, 49.72844 ], [ -97.12681, 49.72734 ], [ -97.12854, 49.68239 ], [ -97.05926, 49.68125 ], [ -97.06105, 49.63631 ], [ -96.99185, 49.63513 ], [ -96.92265, 49.6339 ], [ -96.85345, 49.63264 ], [ -96.85543, 49.5877 ], [ -96.92456, 49.58896 ], [ -96.99369, 49.59018 ], [ -97.06283, 49.59136 ], [ -97.13198, 49.59249 ], [ -97.20113, 49.59359 ], [ -97.27028, 49.59464 ], [ -97.33944, 49.59566 ], [ -97.4086, 49.59663 ], [ -97.47777, 49.59756 ], [ -97.54693, 49.59845 ], [ -97.61611, 49.5993 ], [ -97.68528, 49.6001 ], [ -97.68407, 49.64506 ], [ -97.75331, 49.64583 ], [ -97.82256, 49.64656 ], [ -97.8918, 49.64724 ], [ -97.96105, 49.64788 ], [ -97.9601, 49.69285 ] ], [ [ -97.95527, 49.91767 ], [ -97.95429, 49.96263 ], [ -97.88459, 49.96198 ], [ -97.8149, 49.96129 ], [ -97.7452, 49.96056 ], [ -97.67551, 49.95978 ], [ -97.60582, 49.95897 ], [ -97.53614, 49.95811 ], [ -97.46645, 49.95721 ], [ -97.39678, 49.95627 ], [ -97.3271, 49.95528 ], [ -97.25743, 49.95426 ], [ -97.18776, 49.95319 ], [ -97.1181, 49.95208 ], [ -97.04844, 49.95093 ], [ -96.97879, 49.94973 ], [ -96.90914, 49.9485 ], [ -96.8395, 49.94722 ], [ -96.76986, 49.9459 ], [ -96.77193, 49.90097 ], [ -96.84151, 49.90228 ], [ -96.91109, 49.90356 ], [ -96.98067, 49.90479 ], [ -97.05026, 49.90598 ], [ -97.11985, 49.90713 ], [ -97.18945, 49.90824 ], [ -97.25905, 49.90931 ], [ -97.32866, 49.91033 ], [ -97.39827, 49.91131 ], [ -97.46788, 49.91225 ], [ -97.5375, 49.91315 ], [ -97.60712, 49.91401 ], [ -97.67674, 49.91482 ], [ -97.74637, 49.9156 ], [ -97.816, 49.91633 ], [ -97.88563, 49.91702 ], [ -97.95527, 49.91767 ] ], [ [ -98.08774, 50.27855 ], [ -98.15791, 50.27908 ], [ -98.15711, 50.32404 ], [ -98.08688, 50.32351 ], [ -98.08774, 50.27855 ] ], [ [ -96.66093, 49.31405 ], [ -96.66306, 49.26911 ], [ -96.73174, 49.27048 ], [ -96.80042, 49.27181 ], [ -96.8691, 49.2731 ], [ -96.87104, 49.22815 ], [ -96.93967, 49.2294 ], [ -97.0083, 49.2306 ], [ -97.00649, 49.27555 ], [ -97.00468, 49.3205 ], [ -96.93592, 49.31929 ], [ -96.86716, 49.31804 ], [ -96.79842, 49.31675 ], [ -96.72967, 49.31542 ], [ -96.66093, 49.31405 ] ], [ [ -97.76128, 49.33109 ], [ -97.83008, 49.3318 ], [ -97.89889, 49.33248 ], [ -97.96769, 49.33311 ], [ -97.96675, 49.37808 ], [ -97.89788, 49.37745 ], [ -97.82902, 49.37677 ], [ -97.76015, 49.37605 ], [ -97.76128, 49.33109 ] ], [ [ -97.55093, 49.46357 ], [ -97.48195, 49.46269 ], [ -97.41297, 49.46176 ], [ -97.344, 49.46079 ], [ -97.27503, 49.45978 ], [ -97.27661, 49.41483 ], [ -97.34552, 49.41584 ], [ -97.41442, 49.4168 ], [ -97.48334, 49.41773 ], [ -97.55225, 49.41861 ], [ -97.55093, 49.46357 ] ] ], [ [ [ -96.40254, 48.99364 ], [ -96.47082, 48.99516 ], [ -96.4731, 48.95023 ], [ -96.40487, 48.94871 ], [ -96.33666, 48.94715 ], [ -96.33426, 48.99208 ], [ -96.40254, 48.99364 ] ] ], [ [ [ -97.08561, 49.007 ], [ -97.15394, 49.00812 ], [ -97.1556, 48.96316 ], [ -97.08733, 48.96205 ], [ -97.01907, 48.9609 ], [ -96.9508, 48.95971 ], [ -96.88254, 48.95847 ], [ -96.81429, 48.9572 ], [ -96.74604, 48.95588 ], [ -96.74401, 49.00083 ], [ -96.81232, 49.00214 ], [ -96.88064, 49.00342 ], [ -96.94896, 49.00465 ], [ -97.01728, 49.00585 ], [ -97.08561, 49.007 ] ] ], [ [ [ -98.71442, 51.09115 ], [ -98.71469, 51.04619 ], [ -98.71497, 51.00123 ], [ -98.71524, 50.95626 ], [ -98.71552, 50.9113 ], [ -98.6444, 50.91111 ], [ -98.64474, 50.86615 ], [ -98.57369, 50.86591 ], [ -98.50264, 50.86563 ], [ -98.43159, 50.8653 ], [ -98.43214, 50.82034 ], [ -98.50312, 50.82066 ], [ -98.5741, 50.82094 ], [ -98.64508, 50.82118 ], [ -98.71606, 50.82138 ], [ -98.71634, 50.77641 ], [ -98.64542, 50.77622 ], [ -98.64576, 50.73126 ], [ -98.71661, 50.73145 ], [ -98.78746, 50.7316 ], [ -98.8583, 50.73171 ], [ -98.92915, 50.73177 ], [ -99.0, 50.73179 ], [ -99.07085, 50.73177 ], [ -99.1417, 50.73171 ], [ -99.21254, 50.7316 ], [ -99.28339, 50.73145 ], [ -99.35424, 50.73126 ], [ -99.42508, 50.73102 ], [ -99.42468, 50.68606 ], [ -99.42427, 50.64109 ], [ -99.42387, 50.59613 ], [ -99.35322, 50.59636 ], [ -99.28258, 50.59656 ], [ -99.21194, 50.59671 ], [ -99.21173, 50.55174 ], [ -99.28231, 50.55159 ], [ -99.35289, 50.5514 ], [ -99.42346, 50.55116 ], [ -99.42306, 50.5062 ], [ -99.42266, 50.46123 ], [ -99.35222, 50.46147 ], [ -99.28178, 50.46166 ], [ -99.21133, 50.46181 ], [ -99.14089, 50.46191 ], [ -99.07044, 50.46198 ], [ -99.0, 50.462 ], [ -98.92956, 50.46198 ], [ -98.85911, 50.46191 ], [ -98.78867, 50.46181 ], [ -98.71822, 50.46166 ], [ -98.64778, 50.46147 ], [ -98.57734, 50.46123 ], [ -98.5069, 50.46096 ], [ -98.43646, 50.46064 ], [ -98.36602, 50.46027 ], [ -98.29558, 50.45987 ], [ -98.22515, 50.45942 ], [ -98.15472, 50.45893 ], [ -98.08428, 50.4584 ], [ -98.01386, 50.45782 ], [ -97.94343, 50.4572 ], [ -97.87301, 50.45654 ], [ -97.80258, 50.45584 ], [ -97.73217, 50.45509 ], [ -97.66175, 50.45431 ], [ -97.59134, 50.45347 ], [ -97.52093, 50.4526 ], [ -97.45052, 50.45168 ], [ -97.38012, 50.45073 ], [ -97.30973, 50.44972 ], [ -97.23933, 50.44868 ], [ -97.16894, 50.44759 ], [ -97.16721, 50.49254 ], [ -97.09675, 50.49141 ], [ -97.02631, 50.49023 ], [ -96.95587, 50.48902 ], [ -96.88543, 50.48776 ], [ -96.815, 50.48646 ], [ -96.74457, 50.48511 ], [ -96.74243, 50.53004 ], [ -96.74028, 50.57497 ], [ -96.66972, 50.57358 ], [ -96.59917, 50.57215 ], [ -96.52863, 50.57067 ], [ -96.45809, 50.56915 ], [ -96.38756, 50.56759 ], [ -96.38507, 50.61251 ], [ -96.31448, 50.61091 ], [ -96.31192, 50.65582 ], [ -96.24127, 50.65417 ], [ -96.23863, 50.69908 ], [ -96.23599, 50.74399 ], [ -96.23334, 50.78891 ], [ -96.23068, 50.83382 ], [ -96.22802, 50.87873 ], [ -96.29901, 50.88039 ], [ -96.37001, 50.88202 ], [ -96.44101, 50.8836 ], [ -96.51202, 50.88513 ], [ -96.58304, 50.88662 ], [ -96.65406, 50.88807 ], [ -96.72509, 50.88948 ], [ -96.7229, 50.93441 ], [ -96.794, 50.93577 ], [ -96.86511, 50.9371 ], [ -96.93622, 50.93837 ], [ -97.00734, 50.93961 ], [ -97.07846, 50.9408 ], [ -97.0766, 50.98574 ], [ -97.1478, 50.98689 ], [ -97.219, 50.988 ], [ -97.29021, 50.98906 ], [ -97.36142, 50.99008 ], [ -97.43263, 50.99106 ], [ -97.50385, 50.99199 ], [ -97.5024, 51.03694 ], [ -97.57369, 51.03783 ], [ -97.57231, 51.08278 ], [ -97.64367, 51.08363 ], [ -97.71504, 51.08444 ], [ -97.78641, 51.0852 ], [ -97.85778, 51.08592 ], [ -97.92915, 51.08659 ], [ -98.00053, 51.08723 ], [ -97.99956, 51.13218 ], [ -97.99859, 51.17714 ], [ -97.92707, 51.1765 ], [ -97.85556, 51.17582 ], [ -97.78405, 51.1751 ], [ -97.71254, 51.17434 ], [ -97.64103, 51.17353 ], [ -97.56953, 51.17268 ], [ -97.49804, 51.17178 ], [ -97.49657, 51.21673 ], [ -97.56814, 51.21762 ], [ -97.63971, 51.21848 ], [ -97.71129, 51.21929 ], [ -97.78286, 51.22005 ], [ -97.85444, 51.22078 ], [ -97.92603, 51.22146 ], [ -97.99761, 51.22209 ], [ -98.0692, 51.22268 ], [ -98.14079, 51.22323 ], [ -98.21239, 51.22373 ], [ -98.28398, 51.22419 ], [ -98.35558, 51.22461 ], [ -98.42718, 51.22498 ], [ -98.42662, 51.26994 ], [ -98.42606, 51.3149 ], [ -98.35432, 51.31452 ], [ -98.28258, 51.31411 ], [ -98.21085, 51.31365 ], [ -98.13911, 51.31314 ], [ -98.06738, 51.31259 ], [ -98.06647, 51.35754 ], [ -97.99467, 51.35695 ], [ -97.92288, 51.35631 ], [ -97.85108, 51.35563 ], [ -97.77929, 51.3549 ], [ -97.70751, 51.35413 ], [ -97.70877, 51.30919 ], [ -97.63706, 51.30837 ], [ -97.56534, 51.30752 ], [ -97.49364, 51.30662 ], [ -97.42193, 51.30567 ], [ -97.35024, 51.30468 ], [ -97.27854, 51.30365 ], [ -97.20685, 51.30257 ], [ -97.13516, 51.30145 ], [ -97.06348, 51.30029 ], [ -96.99181, 51.29908 ], [ -96.92014, 51.29783 ], [ -96.92216, 51.2529 ], [ -96.92419, 51.20797 ], [ -96.99572, 51.20922 ], [ -97.06726, 51.21042 ], [ -97.06914, 51.16549 ], [ -96.99767, 51.16428 ], [ -96.99961, 51.11935 ], [ -96.92822, 51.11811 ], [ -96.85683, 51.11682 ], [ -96.85891, 51.07189 ], [ -96.86098, 51.02696 ], [ -96.78973, 51.02563 ], [ -96.79187, 50.9807 ], [ -96.7207, 50.97933 ], [ -96.64953, 50.97792 ], [ -96.57837, 50.97647 ], [ -96.50722, 50.97497 ], [ -96.43607, 50.97343 ], [ -96.36493, 50.97185 ], [ -96.2938, 50.97022 ], [ -96.22267, 50.96855 ], [ -96.21999, 51.01346 ], [ -96.2173, 51.05837 ], [ -96.2146, 51.10328 ], [ -96.28593, 51.10496 ], [ -96.2833, 51.14987 ], [ -96.28066, 51.19478 ], [ -96.27801, 51.23969 ], [ -96.27535, 51.2846 ], [ -96.27269, 51.32951 ], [ -96.27002, 51.37441 ], [ -96.19827, 51.37272 ], [ -96.19552, 51.41763 ], [ -96.26734, 51.41932 ], [ -96.33917, 51.42098 ], [ -96.411, 51.42259 ], [ -96.48285, 51.42415 ], [ -96.48037, 51.46907 ], [ -96.47789, 51.51398 ], [ -96.40591, 51.51241 ], [ -96.40336, 51.55732 ], [ -96.40079, 51.60224 ], [ -96.47292, 51.60381 ], [ -96.54505, 51.60534 ], [ -96.61718, 51.60683 ], [ -96.61483, 51.65175 ], [ -96.68704, 51.65319 ], [ -96.75926, 51.65459 ], [ -96.75704, 51.69952 ], [ -96.82934, 51.70088 ], [ -96.90164, 51.70219 ], [ -96.97395, 51.70346 ], [ -97.04626, 51.70468 ], [ -97.11858, 51.70587 ], [ -97.1909, 51.707 ], [ -97.26323, 51.70809 ], [ -97.33556, 51.70914 ], [ -97.4079, 51.71014 ], [ -97.48024, 51.7111 ], [ -97.55258, 51.71201 ], [ -97.62493, 51.71288 ], [ -97.69728, 51.71371 ], [ -97.76964, 51.71449 ], [ -97.84199, 51.71522 ], [ -97.91435, 51.71591 ], [ -97.98672, 51.71656 ], [ -98.05908, 51.71716 ], [ -98.13145, 51.71772 ], [ -98.20382, 51.71823 ], [ -98.2762, 51.7187 ], [ -98.34857, 51.71912 ], [ -98.42095, 51.7195 ], [ -98.49333, 51.71984 ], [ -98.56571, 51.72013 ], [ -98.63809, 51.72037 ], [ -98.71047, 51.72057 ], [ -98.71076, 51.67562 ], [ -98.71104, 51.63066 ], [ -98.71133, 51.5857 ], [ -98.71161, 51.54075 ], [ -98.71189, 51.49579 ], [ -98.71218, 51.45083 ], [ -98.64022, 51.45063 ], [ -98.56827, 51.45039 ], [ -98.49632, 51.4501 ], [ -98.42437, 51.44977 ], [ -98.42493, 51.40481 ], [ -98.35305, 51.40444 ], [ -98.28118, 51.40402 ], [ -98.28188, 51.35906 ], [ -98.35369, 51.35948 ], [ -98.4255, 51.35986 ], [ -98.4973, 51.36019 ], [ -98.56912, 51.36047 ], [ -98.64093, 51.36071 ], [ -98.71274, 51.36091 ], [ -98.71302, 51.31595 ], [ -98.7133, 51.27099 ], [ -98.64163, 51.27079 ], [ -98.64198, 51.22584 ], [ -98.71358, 51.22603 ], [ -98.71386, 51.18107 ], [ -98.64233, 51.18088 ], [ -98.57079, 51.18063 ], [ -98.49926, 51.18035 ], [ -98.42773, 51.18002 ], [ -98.3562, 51.17965 ], [ -98.28468, 51.17924 ], [ -98.21315, 51.17878 ], [ -98.21392, 51.13382 ], [ -98.28537, 51.13428 ], [ -98.28607, 51.08932 ], [ -98.35745, 51.08973 ], [ -98.42884, 51.0901 ], [ -98.50024, 51.09043 ], [ -98.57163, 51.09071 ], [ -98.64302, 51.09095 ], [ -98.64267, 51.13591 ], [ -98.71414, 51.13611 ], [ -98.71442, 51.09115 ] ], [ [ -98.57573, 50.64109 ], [ -98.64644, 50.64133 ], [ -98.71715, 50.64152 ], [ -98.78786, 50.64167 ], [ -98.85857, 50.64178 ], [ -98.92929, 50.64184 ], [ -98.92922, 50.68681 ], [ -98.85844, 50.68674 ], [ -98.78766, 50.68664 ], [ -98.71688, 50.68648 ], [ -98.6461, 50.68629 ], [ -98.57532, 50.68606 ], [ -98.57573, 50.64109 ] ], [ [ -98.92929, 50.64184 ], [ -98.92935, 50.59688 ], [ -99.0, 50.5969 ], [ -99.07065, 50.59688 ], [ -99.14129, 50.59681 ], [ -99.21194, 50.59671 ], [ -99.21214, 50.64167 ], [ -99.14143, 50.64178 ], [ -99.07071, 50.64184 ], [ -99.0, 50.64186 ], [ -98.92929, 50.64184 ] ], [ [ -98.29155, 50.72964 ], [ -98.22071, 50.72919 ], [ -98.21996, 50.77415 ], [ -98.14906, 50.77365 ], [ -98.07815, 50.77312 ], [ -98.00725, 50.77253 ], [ -98.0082, 50.72758 ], [ -97.93737, 50.72695 ], [ -97.93636, 50.77191 ], [ -97.86546, 50.77124 ], [ -97.86655, 50.72628 ], [ -97.79572, 50.72557 ], [ -97.79687, 50.68062 ], [ -97.86763, 50.68133 ], [ -97.93839, 50.68199 ], [ -98.00915, 50.68262 ], [ -98.07992, 50.6832 ], [ -98.15068, 50.68373 ], [ -98.22145, 50.68423 ], [ -98.29222, 50.68468 ], [ -98.29155, 50.72964 ] ], [ [ -98.13743, 51.40305 ], [ -98.13658, 51.448 ], [ -98.20852, 51.44851 ], [ -98.28047, 51.44897 ], [ -98.27976, 51.49393 ], [ -98.20775, 51.49347 ], [ -98.13573, 51.49296 ], [ -98.06372, 51.4924 ], [ -97.99171, 51.49181 ], [ -97.9197, 51.49117 ], [ -97.8477, 51.49048 ], [ -97.84883, 51.44553 ], [ -97.92076, 51.44621 ], [ -97.92182, 51.40126 ], [ -97.99369, 51.4019 ], [ -98.06556, 51.4025 ], [ -98.13743, 51.40305 ] ], [ [ -96.61718, 51.60683 ], [ -96.61953, 51.56191 ], [ -96.62188, 51.51699 ], [ -96.69388, 51.51843 ], [ -96.76588, 51.51982 ], [ -96.8379, 51.52117 ], [ -96.90991, 51.52248 ], [ -96.91197, 51.47755 ], [ -96.98392, 51.47881 ], [ -96.9859, 51.43388 ], [ -97.05779, 51.43509 ], [ -97.12968, 51.43626 ], [ -97.20158, 51.43739 ], [ -97.27348, 51.43847 ], [ -97.34538, 51.43951 ], [ -97.41729, 51.4405 ], [ -97.48921, 51.44145 ], [ -97.56112, 51.44235 ], [ -97.55971, 51.4873 ], [ -97.48772, 51.48639 ], [ -97.41574, 51.48544 ], [ -97.34376, 51.48445 ], [ -97.27178, 51.48341 ], [ -97.19981, 51.48232 ], [ -97.12784, 51.4812 ], [ -97.126, 51.52613 ], [ -97.05396, 51.52496 ], [ -97.05205, 51.56989 ], [ -96.97995, 51.56867 ], [ -96.90785, 51.56741 ], [ -96.83576, 51.5661 ], [ -96.83363, 51.61103 ], [ -96.76147, 51.60967 ], [ -96.68933, 51.60827 ], [ -96.61718, 51.60683 ] ] ] ] } },
{ "type": "Feature", "properties": { "year": 2010, "cell_count": 536, "exact_cells": 494, "inferred_cells": 42 }, "geometry": { "type": "MultiPolygon", "coordinates": [ [ [ [ -99.28258, 50.59656 ], [ -99.35322, 50.59636 ], [ -99.42387, 50.59613 ], [ -99.42346, 50.55116 ], [ -99.35289, 50.5514 ], [ -99.28231, 50.55159 ], [ -99.21173, 50.55174 ], [ -99.21194, 50.59671 ], [ -99.28258, 50.59656 ] ] ], [ [ [ -98.64508, 50.82118 ], [ -98.5741, 50.82094 ], [ -98.50312, 50.82066 ], [ -98.43214, 50.82034 ], [ -98.43159, 50.8653 ], [ -98.50264, 50.86563 ], [ -98.57369, 50.86591 ], [ -98.64474, 50.86615 ], [ -98.64508, 50.82118 ] ] ], [ [ [ -97.86655, 50.72628 ], [ -97.86546, 50.77124 ], [ -97.93636, 50.77191 ], [ -97.93737, 50.72695 ], [ -98.0082, 50.72758 ], [ -98.00725, 50.77253 ], [ -98.07815, 50.77312 ], [ -98.14906, 50.77365 ], [ -98.21996, 50.77415 ], [ -98.22071, 50.72919 ], [ -98.29155, 50.72964 ], [ -98.29222, 50.68468 ], [ -98.22145, 50.68423 ], [ -98.15068, 50.68373 ], [ -98.07992, 50.6832 ], [ -98.00915, 50.68262 ], [ -97.93839, 50.68199 ], [ -97.86763, 50.68133 ], [ -97.79687, 50.68062 ], [ -97.79572, 50.72557 ], [ -97.86655, 50.72628 ] ] ], [ [ [ -99.21194, 50.59671 ], [ -99.14129, 50.59681 ], [ -99.07065, 50.59688 ], [ -99.0, 50.5969 ], [ -98.92935, 50.59688 ], [ -98.92929, 50.64184 ], [ -99.0, 50.64186 ], [ -99.07071, 50.64184 ], [ -99.14143, 50.64178 ], [ -99.21214, 50.64167 ], [ -99.21194, 50.59671 ] ] ], [ [ [ -98.92929, 50.64184 ], [ -98.85857, 50.64178 ], [ -98.78786, 50.64167 ], [ -98.71715, 50.64152 ], [ -98.64644, 50.64133 ], [ -98.57573, 50.64109 ], [ -98.57532, 50.68606 ], [ -98.6461, 50.68629 ], [ -98.71688, 50.68648 ], [ -98.78766, 50.68664 ], [ -98.85844, 50.68674 ], [ -98.92922, 50.68681 ], [ -98.92929, 50.64184 ] ] ], [ [ [ -99.0, 50.28213 ], [ -98.92982, 50.28211 ], [ -98.85964, 50.28205 ], [ -98.78946, 50.28194 ], [ -98.71929, 50.28179 ], [ -98.64911, 50.2816 ], [ -98.57893, 50.28137 ], [ -98.50876, 50.28109 ], [ -98.5083, 50.32606 ], [ -98.57854, 50.32633 ], [ -98.64878, 50.32657 ], [ -98.71902, 50.32676 ], [ -98.78927, 50.32691 ], [ -98.85951, 50.32701 ], [ -98.92976, 50.32708 ], [ -99.0, 50.3271 ], [ -99.07024, 50.32708 ], [ -99.14049, 50.32701 ], [ -99.21073, 50.32691 ], [ -99.28098, 50.32676 ], [ -99.35122, 50.32657 ], [ -99.42146, 50.32633 ], [ -99.42107, 50.28137 ], [ -99.35089, 50.2816 ], [ -99.28071, 50.28179 ], [ -99.21053, 50.28194 ], [ -99.21034, 50.23697 ], [ -99.14022, 50.23708 ], [ -99.07011, 50.23714 ], [ -99.0, 50.23716 ], [ -99.0, 50.28213 ] ] ], [ [ [ -98.01386, 50.45782 ], [ -98.08428, 50.4584 ], [ -98.15472, 50.45893 ], [ -98.22515, 50.45942 ], [ -98.29558, 50.45987 ], [ -98.36602, 50.46027 ], [ -98.43646, 50.46064 ], [ -98.5069, 50.46096 ], [ -98.57734, 50.46123 ], [ -98.64778, 50.46147 ], [ -98.71822, 50.46166 ], [ -98.78867, 50.46181 ], [ -98.85911, 50.46191 ], [ -98.92956, 50.46198 ], [ -99.0, 50.462 ], [ -99.07044, 50.46198 ], [ -99.14089, 50.46191 ], [ -99.21133, 50.46181 ], [ -99.28178, 50.46166 ], [ -99.35222, 50.46147 ], [ -99.42266, 50.46123 ], [ -99.42226, 50.41627 ], [ -99.35188, 50.4165 ], [ -99.28151, 50.41669 ], [ -99.21113, 50.41684 ], [ -99.14076, 50.41695 ], [ -99.07038, 50.41701 ], [ -99.0, 50.41703 ], [ -98.92962, 50.41701 ], [ -98.85924, 50.41695 ], [ -98.78887, 50.41684 ], [ -98.71849, 50.41669 ], [ -98.64812, 50.4165 ], [ -98.57774, 50.41627 ], [ -98.50737, 50.41599 ], [ -98.43699, 50.41567 ], [ -98.36662, 50.41531 ], [ -98.29625, 50.4149 ], [ -98.22588, 50.41446 ], [ -98.15552, 50.41397 ], [ -98.08515, 50.41344 ], [ -98.01479, 50.41286 ], [ -97.94443, 50.41224 ], [ -97.87407, 50.41158 ], [ -97.80372, 50.41088 ], [ -97.73337, 50.41014 ], [ -97.66302, 50.40935 ], [ -97.59267, 50.40852 ], [ -97.52233, 50.40765 ], [ -97.45199, 50.40673 ], [ -97.38166, 50.40578 ], [ -97.31133, 50.40478 ], [ -97.241, 50.40373 ], [ -97.17068, 50.40265 ], [ -97.10036, 50.40152 ], [ -97.03004, 50.40035 ], [ -96.95973, 50.39914 ], [ -96.88943, 50.39789 ], [ -96.81913, 50.39659 ], [ -96.74884, 50.39525 ], [ -96.75096, 50.35032 ], [ -96.68074, 50.34894 ], [ -96.61053, 50.34751 ], [ -96.54031, 50.34605 ], [ -96.47011, 50.34454 ], [ -96.39991, 50.34299 ], [ -96.32972, 50.3414 ], [ -96.25953, 50.33977 ], [ -96.25694, 50.38468 ], [ -96.25435, 50.4296 ], [ -96.25174, 50.47451 ], [ -96.24913, 50.51943 ], [ -96.24652, 50.56434 ], [ -96.2439, 50.60926 ], [ -96.24127, 50.65417 ], [ -96.31192, 50.65582 ], [ -96.31448, 50.61091 ], [ -96.38507, 50.61251 ], [ -96.38756, 50.56759 ], [ -96.45809, 50.56915 ], [ -96.52863, 50.57067 ], [ -96.59917, 50.57215 ], [ -96.66972, 50.57358 ], [ -96.74028, 50.57497 ], [ -96.74243, 50.53004 ], [ -96.74457, 50.48511 ], [ -96.815, 50.48646 ], [ -96.88543, 50.48776 ], [ -96.95587, 50.48902 ], [ -97.02631, 50.49023 ], [ -97.09675, 50.49141 ], [ -97.16721, 50.49254 ], [ -97.16894, 50.44759 ], [ -97.23933, 50.44868 ], [ -97.30973, 50.44972 ], [ -97.38012, 50.45073 ], [ -97.45052, 50.45168 ], [ -97.52093, 50.4526 ], [ -97.59134, 50.45347 ], [ -97.66175, 50.45431 ], [ -97.73217, 50.45509 ], [ -97.80258, 50.45584 ], [ -97.87301, 50.45654 ], [ -97.94343, 50.4572 ], [ -98.01386, 50.45782 ] ] ], [ [ [ -98.28537, 51.13428 ], [ -98.21392, 51.13382 ], [ -98.21315, 51.17878 ], [ -98.28468, 51.17924 ], [ -98.3562, 51.17965 ], [ -98.42773, 51.18002 ], [ -98.49926, 51.18035 ], [ -98.57079, 51.18063 ], [ -98.64233, 51.18088 ], [ -98.71386, 51.18107 ], [ -98.71414, 51.13611 ], [ -98.64267, 51.13591 ], [ -98.64302, 51.09095 ], [ -98.57163, 51.09071 ], [ -98.50024, 51.09043 ], [ -98.42884, 51.0901 ], [ -98.35745, 51.08973 ], [ -98.28607, 51.08932 ], [ -98.28537, 51.13428 ] ] ], [ [ [ -97.57231, 51.08278 ], [ -97.57369, 51.03783 ], [ -97.5024, 51.03694 ], [ -97.50385, 50.99199 ], [ -97.43263, 50.99106 ], [ -97.36142, 50.99008 ], [ -97.29021, 50.98906 ], [ -97.219, 50.988 ], [ -97.1478, 50.98689 ], [ -97.0766, 50.98574 ], [ -97.07846, 50.9408 ], [ -97.00734, 50.93961 ], [ -96.93622, 50.93837 ], [ -96.86511, 50.9371 ], [ -96.794, 50.93577 ], [ -96.7229, 50.93441 ], [ -96.72509, 50.88948 ], [ -96.65406, 50.88807 ], [ -96.58304, 50.88662 ], [ -96.51202, 50.88513 ], [ -96.44101, 50.8836 ], [ -96.37001, 50.88202 ], [ -96.29901, 50.88039 ], [ -96.22802, 50.87873 ], [ -96.22535, 50.92364 ], [ -96.22267, 50.96855 ], [ -96.2938, 50.97022 ], [ -96.36493, 50.97185 ], [ -96.43607, 50.97343 ], [ -96.50722, 50.97497 ], [ -96.57837, 50.97647 ], [ -96.64953, 50.97792 ], [ -96.7207, 50.97933 ], [ -96.79187, 50.9807 ], [ -96.78973, 51.02563 ], [ -96.86098, 51.02696 ], [ -96.85891, 51.07189 ], [ -96.85683, 51.11682 ], [ -96.92822, 51.11811 ], [ -96.99961, 51.11935 ], [ -96.99767, 51.16428 ], [ -97.06914, 51.16549 ], [ -97.06726, 51.21042 ], [ -96.99572, 51.20922 ], [ -96.92419, 51.20797 ], [ -96.92216, 51.2529 ], [ -96.92014, 51.29783 ], [ -96.99181, 51.29908 ], [ -97.06348, 51.30029 ], [ -97.13516, 51.30145 ], [ -97.20685, 51.30257 ], [ -97.27854, 51.30365 ], [ -97.35024, 51.30468 ], [ -97.42193, 51.30567 ], [ -97.49364, 51.30662 ], [ -97.56534, 51.30752 ], [ -97.63706, 51.30837 ], [ -97.70877, 51.30919 ], [ -97.70751, 51.35413 ], [ -97.77929, 51.3549 ], [ -97.85108, 51.35563 ], [ -97.92288, 51.35631 ], [ -97.99467, 51.35695 ], [ -98.06647, 51.35754 ], [ -98.06738, 51.31259 ], [ -98.13911, 51.31314 ], [ -98.21085, 51.31365 ], [ -98.28258, 51.31411 ], [ -98.35432, 51.31452 ], [ -98.42606, 51.3149 ], [ -98.42662, 51.26994 ], [ -98.42718, 51.22498 ], [ -98.35558, 51.22461 ], [ -98.28398, 51.22419 ], [ -98.21239, 51.22373 ], [ -98.14079, 51.22323 ], [ -98.0692, 51.22268 ], [ -97.99761, 51.22209 ], [ -97.92603, 51.22146 ], [ -97.85444, 51.22078 ], [ -97.78286, 51.22005 ], [ -97.71129, 51.21929 ], [ -97.63971, 51.21848 ], [ -97.56814, 51.21762 ], [ -97.49657, 51.21673 ], [ -97.49804, 51.17178 ], [ -97.56953, 51.17268 ], [ -97.64103, 51.17353 ], [ -97.71254, 51.17434 ], [ -97.78405, 51.1751 ], [ -97.85556, 51.17582 ], [ -97.92707, 51.1765 ], [ -97.99859, 51.17714 ], [ -97.99956, 51.13218 ], [ -98.00053, 51.08723 ], [ -97.92915, 51.08659 ], [ -97.85778, 51.08592 ], [ -97.78641, 51.0852 ], [ -97.71504, 51.08444 ], [ -97.64367, 51.08363 ], [ -97.57231, 51.08278 ] ] ], [ [ [ -96.3955, 49.12843 ], [ -96.32704, 49.12687 ], [ -96.32462, 49.1718 ], [ -96.39314, 49.17337 ], [ -96.3955, 49.12843 ] ] ], [ [ [ -96.37165, 49.57772 ], [ -96.30257, 49.57613 ], [ -96.30009, 49.62105 ], [ -96.36924, 49.62264 ], [ -96.37165, 49.57772 ] ] ], [ [ [ -97.48195, 49.46269 ], [ -97.55093, 49.46357 ], [ -97.55225, 49.41861 ], [ -97.48334, 49.41773 ], [ -97.41442, 49.4168 ], [ -97.34552, 49.41584 ], [ -97.27661, 49.41483 ], [ -97.27503, 49.45978 ], [ -97.344, 49.46079 ], [ -97.41297, 49.46176 ], [ -97.48195, 49.46269 ] ] ], [ [ [ -96.45475, 49.30969 ], [ -96.52347, 49.31118 ], [ -96.52572, 49.26625 ], [ -96.45706, 49.26476 ], [ -96.38841, 49.26322 ], [ -96.31976, 49.26165 ], [ -96.31732, 49.30658 ], [ -96.38603, 49.30815 ], [ -96.45475, 49.30969 ] ] ], [ [ [ -97.89788, 49.37745 ], [ -97.96675, 49.37808 ], [ -97.96769, 49.33311 ], [ -97.89889, 49.33248 ], [ -97.83008, 49.3318 ], [ -97.76128, 49.33109 ], [ -97.76015, 49.37605 ], [ -97.82902, 49.37677 ], [ -97.89788, 49.37745 ] ] ], [ [ [ -96.86716, 49.31804 ], [ -96.93592, 49.31929 ], [ -97.00468, 49.3205 ], [ -97.00649, 49.27555 ], [ -97.0083, 49.2306 ], [ -96.93967, 49.2294 ], [ -96.87104, 49.22815 ], [ -96.8691, 49.2731 ], [ -96.80042, 49.27181 ], [ -96.73174, 49.27048 ], [ -96.66306, 49.26911 ], [ -96.66093, 49.31405 ], [ -96.72967, 49.31542 ], [ -96.79842, 49.31675 ], [ -96.86716, 49.31804 ] ] ], [ [ [ -97.97422, 49.01833 ], [ -98.0426, 49.01891 ], [ -98.04346, 48.97394 ], [ -97.97514, 48.97336 ], [ -97.90683, 48.97273 ], [ -97.90585, 49.0177 ], [ -97.97422, 49.01833 ] ] ], [ [ [ -95.37581, 49.01092 ], [ -95.44405, 49.01305 ], [ -95.5123, 49.01513 ], [ -95.58056, 49.01718 ], [ -95.64882, 49.01918 ], [ -95.7171, 49.02115 ], [ -95.78538, 49.02307 ], [ -95.85366, 49.02495 ], [ -95.92196, 49.0268 ], [ -95.99026, 49.0286 ], [ -95.99297, 48.98369 ], [ -96.06121, 48.98545 ], [ -96.12947, 48.98717 ], [ -96.19772, 48.98885 ], [ -96.1952, 49.03377 ], [ -96.19267, 49.07869 ], [ -96.26106, 49.08034 ], [ -96.32945, 49.08194 ], [ -96.33186, 49.03701 ], [ -96.4002, 49.03857 ], [ -96.46854, 49.04009 ], [ -96.53689, 49.04157 ], [ -96.53467, 49.08651 ], [ -96.46626, 49.08503 ], [ -96.46397, 49.12996 ], [ -96.53244, 49.13144 ], [ -96.60092, 49.13289 ], [ -96.66941, 49.13429 ], [ -96.6673, 49.17923 ], [ -96.73585, 49.1806 ], [ -96.80441, 49.18192 ], [ -96.87297, 49.18321 ], [ -96.94153, 49.18445 ], [ -96.9434, 49.1395 ], [ -97.01191, 49.1407 ], [ -97.08042, 49.14186 ], [ -97.14894, 49.14298 ], [ -97.21746, 49.14406 ], [ -97.28599, 49.1451 ], [ -97.35452, 49.14609 ], [ -97.356, 49.10113 ], [ -97.28754, 49.10014 ], [ -97.28908, 49.05518 ], [ -97.29062, 49.01022 ], [ -97.29216, 48.96527 ], [ -97.22388, 48.96423 ], [ -97.1556, 48.96316 ], [ -97.15394, 49.00812 ], [ -97.08561, 49.007 ], [ -97.01728, 49.00585 ], [ -96.94896, 49.00465 ], [ -96.88064, 49.00342 ], [ -96.81232, 49.00214 ], [ -96.74401, 49.00083 ], [ -96.74604, 48.95588 ], [ -96.6778, 48.95453 ], [ -96.60956, 48.95314 ], [ -96.54132, 48.9517 ], [ -96.4731, 48.95023 ], [ -96.47082, 48.99516 ], [ -96.40254, 48.99364 ], [ -96.33426, 48.99208 ], [ -96.33666, 48.94715 ], [ -96.26845, 48.94556 ], [ -96.20024, 48.94392 ], [ -96.13204, 48.94224 ], [ -96.06385, 48.94053 ], [ -95.99567, 48.93877 ], [ -95.92749, 48.93697 ], [ -95.85932, 48.93513 ], [ -95.79115, 48.93326 ], [ -95.72299, 48.93134 ], [ -95.65484, 48.92938 ], [ -95.5867, 48.92738 ], [ -95.51856, 48.92534 ], [ -95.45044, 48.92326 ], [ -95.38232, 48.92114 ], [ -95.31421, 48.91898 ], [ -95.2461, 48.91678 ], [ -95.24273, 48.96167 ], [ -95.17457, 48.95942 ], [ -95.17113, 49.0043 ], [ -95.23935, 49.00655 ], [ -95.30757, 49.00875 ], [ -95.37581, 49.01092 ] ] ], [ [ [ -98.15791, 50.27908 ], [ -98.08774, 50.27855 ], [ -98.08688, 50.32351 ], [ -98.15711, 50.32404 ], [ -98.15791, 50.27908 ] ] ], [ [ [ -96.26982, 50.1601 ], [ -96.26726, 50.20502 ], [ -96.26469, 50.24993 ], [ -96.26211, 50.29485 ], [ -96.33223, 50.29648 ], [ -96.40236, 50.29807 ], [ -96.47249, 50.29962 ], [ -96.54263, 50.30112 ], [ -96.61278, 50.30258 ], [ -96.68293, 50.304 ], [ -96.75308, 50.30538 ], [ -96.82325, 50.30672 ], [ -96.89341, 50.30801 ], [ -96.96358, 50.30926 ], [ -97.03376, 50.31047 ], [ -97.10394, 50.31164 ], [ -97.17413, 50.31276 ], [ -97.24432, 50.31384 ], [ -97.31451, 50.31488 ], [ -97.38471, 50.31588 ], [ -97.45491, 50.31683 ], [ -97.52512, 50.31774 ], [ -97.59533, 50.31861 ], [ -97.66554, 50.31944 ], [ -97.73576, 50.32022 ], [ -97.80598, 50.32097 ], [ -97.8762, 50.32167 ], [ -97.87726, 50.27671 ], [ -97.94742, 50.27736 ], [ -98.01758, 50.27798 ], [ -98.0185, 50.23302 ], [ -98.01942, 50.18805 ], [ -98.08945, 50.18862 ], [ -98.15949, 50.18915 ], [ -98.22952, 50.18964 ], [ -98.29956, 50.19008 ], [ -98.3696, 50.19048 ], [ -98.43964, 50.19084 ], [ -98.50968, 50.19116 ], [ -98.57973, 50.19143 ], [ -98.64977, 50.19167 ], [ -98.71981, 50.19186 ], [ -98.72008, 50.14689 ], [ -98.6501, 50.1467 ], [ -98.58012, 50.14647 ], [ -98.51014, 50.14619 ], [ -98.44017, 50.14588 ], [ -98.37019, 50.14552 ], [ -98.30022, 50.14512 ], [ -98.23025, 50.14467 ], [ -98.16028, 50.14419 ], [ -98.09031, 50.14366 ], [ -98.02034, 50.14309 ], [ -97.95038, 50.14248 ], [ -97.88042, 50.14183 ], [ -97.81046, 50.14113 ], [ -97.7405, 50.14039 ], [ -97.67055, 50.13961 ], [ -97.6006, 50.13879 ], [ -97.53066, 50.13793 ], [ -97.46071, 50.13702 ], [ -97.39077, 50.13607 ], [ -97.32084, 50.13508 ], [ -97.25091, 50.13405 ], [ -97.18098, 50.13298 ], [ -97.11106, 50.13186 ], [ -97.04114, 50.1307 ], [ -96.97123, 50.1295 ], [ -96.90132, 50.12826 ], [ -96.83141, 50.12697 ], [ -96.76151, 50.12565 ], [ -96.69162, 50.12428 ], [ -96.62173, 50.12287 ], [ -96.55185, 50.12141 ], [ -96.48197, 50.11992 ], [ -96.4121, 50.11838 ], [ -96.34224, 50.1168 ], [ -96.27238, 50.11518 ], [ -96.26982, 50.1601 ] ], [ [ -96.47961, 50.16484 ], [ -96.54956, 50.16634 ], [ -96.6195, 50.1678 ], [ -96.68946, 50.16921 ], [ -96.75942, 50.17058 ], [ -96.82938, 50.17191 ], [ -96.89935, 50.1732 ], [ -96.96932, 50.17444 ], [ -97.0393, 50.17564 ], [ -97.10929, 50.1768 ], [ -97.17927, 50.17792 ], [ -97.24927, 50.179 ], [ -97.31926, 50.18003 ], [ -97.38926, 50.18103 ], [ -97.38775, 50.22598 ], [ -97.45782, 50.22693 ], [ -97.45927, 50.18198 ], [ -97.52928, 50.18288 ], [ -97.59929, 50.18375 ], [ -97.6693, 50.18457 ], [ -97.73932, 50.18535 ], [ -97.80934, 50.18609 ], [ -97.87937, 50.18679 ], [ -97.87831, 50.23175 ], [ -97.87726, 50.27671 ], [ -97.8071, 50.27601 ], [ -97.73695, 50.27527 ], [ -97.6668, 50.27448 ], [ -97.59665, 50.27366 ], [ -97.52651, 50.27279 ], [ -97.45637, 50.27188 ], [ -97.38623, 50.27093 ], [ -97.3161, 50.26993 ], [ -97.24597, 50.26889 ], [ -97.17585, 50.26781 ], [ -97.10573, 50.26669 ], [ -97.03561, 50.26553 ], [ -96.9655, 50.26432 ], [ -96.8954, 50.26307 ], [ -96.8253, 50.26178 ], [ -96.7552, 50.26045 ], [ -96.68511, 50.25907 ], [ -96.61503, 50.25766 ], [ -96.54495, 50.2562 ], [ -96.47487, 50.25469 ], [ -96.40481, 50.25315 ], [ -96.33475, 50.25156 ], [ -96.33725, 50.20664 ], [ -96.40725, 50.20823 ], [ -96.40968, 50.1633 ], [ -96.47961, 50.16484 ] ] ], [ [ [ -97.26228, 49.8194 ], [ -97.33176, 49.82043 ], [ -97.40124, 49.8214 ], [ -97.47072, 49.82234 ], [ -97.54021, 49.82324 ], [ -97.54156, 49.77828 ], [ -97.61099, 49.77913 ], [ -97.68042, 49.77995 ], [ -97.74985, 49.78072 ], [ -97.81929, 49.78144 ], [ -97.88873, 49.78213 ], [ -97.95817, 49.78278 ], [ -97.95913, 49.73781 ], [ -97.88976, 49.73717 ], [ -97.82038, 49.73648 ], [ -97.75101, 49.73575 ], [ -97.68164, 49.73499 ], [ -97.61227, 49.73418 ], [ -97.61355, 49.68922 ], [ -97.68286, 49.69003 ], [ -97.75216, 49.69079 ], [ -97.82147, 49.69152 ], [ -97.89078, 49.6922 ], [ -97.9601, 49.69285 ], [ -97.96105, 49.64788 ], [ -97.8918, 49.64724 ], [ -97.82256, 49.64656 ], [ -97.75331, 49.64583 ], [ -97.68407, 49.64506 ], [ -97.68528, 49.6001 ], [ -97.61611, 49.5993 ], [ -97.54693, 49.59845 ], [ -97.47777, 49.59756 ], [ -97.4086, 49.59663 ], [ -97.33944, 49.59566 ], [ -97.27028, 49.59464 ], [ -97.20113, 49.59359 ], [ -97.13198, 49.59249 ], [ -97.06283, 49.59136 ], [ -96.99369, 49.59018 ], [ -96.92456, 49.58896 ], [ -96.85543, 49.5877 ], [ -96.85345, 49.63264 ], [ -96.92265, 49.6339 ], [ -96.99185, 49.63513 ], [ -97.06105, 49.63631 ], [ -97.05926, 49.68125 ], [ -97.12854, 49.68239 ], [ -97.12681, 49.72734 ], [ -97.19615, 49.72844 ], [ -97.26549, 49.7295 ], [ -97.33484, 49.73052 ], [ -97.40419, 49.7315 ], [ -97.47355, 49.73243 ], [ -97.47214, 49.77739 ], [ -97.40272, 49.77645 ], [ -97.3333, 49.77547 ], [ -97.26389, 49.77445 ], [ -97.19448, 49.77339 ], [ -97.12508, 49.77229 ], [ -97.05567, 49.77115 ], [ -96.98628, 49.76996 ], [ -96.91689, 49.76873 ], [ -96.8475, 49.76746 ], [ -96.77812, 49.76615 ], [ -96.77606, 49.81109 ], [ -96.84551, 49.8124 ], [ -96.91496, 49.81367 ], [ -96.98441, 49.8149 ], [ -97.05387, 49.81609 ], [ -97.12334, 49.81724 ], [ -97.19281, 49.81834 ], [ -97.26228, 49.8194 ] ] ], [ [ [ -97.04844, 49.95093 ], [ -97.1181, 49.95208 ], [ -97.18776, 49.95319 ], [ -97.25743, 49.95426 ], [ -97.3271, 49.95528 ], [ -97.39678, 49.95627 ], [ -97.46645, 49.95721 ], [ -97.53614, 49.95811 ], [ -97.60582, 49.95897 ], [ -97.67551, 49.95978 ], [ -97.7452, 49.96056 ], [ -97.8149, 49.96129 ], [ -97.88459, 49.96198 ], [ -97.95429, 49.96263 ], [ -97.95527, 49.91767 ], [ -97.88563, 49.91702 ], [ -97.816, 49.91633 ], [ -97.74637, 49.9156 ], [ -97.67674, 49.91482 ], [ -97.60712, 49.91401 ], [ -97.5375, 49.91315 ], [ -97.46788, 49.91225 ], [ -97.39827, 49.91131 ], [ -97.32866, 49.91033 ], [ -97.25905, 49.90931 ], [ -97.18945, 49.90824 ], [ -97.11985, 49.90713 ], [ -97.05026, 49.90598 ], [ -96.98067, 49.90479 ], [ -96.91109, 49.90356 ], [ -96.84151, 49.90228 ], [ -96.77193, 49.90097 ], [ -96.76986, 49.9459 ], [ -96.8395, 49.94722 ], [ -96.90914, 49.9485 ], [ -96.97879, 49.94973 ], [ -97.04844, 49.95093 ] ] ], [ [ [ -97.92076, 51.44621 ], [ -97.84883, 51.44553 ], [ -97.8477, 51.49048 ], [ -97.9197, 51.49117 ], [ -97.99171, 51.49181 ], [ -98.06372, 51.4924 ], [ -98.13573, 51.49296 ], [ -98.20775, 51.49347 ], [ -98.27976, 51.49393 ], [ -98.28047, 51.44897 ], [ -98.20852, 51.44851 ], [ -98.13658, 51.448 ], [ -98.13743, 51.40305 ], [ -98.06556, 51.4025 ], [ -97.99369, 51.4019 ], [ -97.92182, 51.40126 ], [ -97.92076, 51.44621 ] ] ], [ [ [ -96.33656, 51.46589 ], [ -96.33394, 51.5108 ], [ -96.40591, 51.51241 ], [ -96.47789, 51.51398 ], [ -96.48037, 51.46907 ], [ -96.48285, 51.42415 ], [ -96.411, 51.42259 ], [ -96.33917, 51.42098 ], [ -96.33656, 51.46589 ] ] ], [ [ [ -97.19981, 51.48232 ], [ -97.27178, 51.48341 ], [ -97.34376, 51.48445 ], [ -97.41574, 51.48544 ], [ -97.48772, 51.48639 ], [ -97.55971, 51.4873 ], [ -97.56112, 51.44235 ], [ -97.48921, 51.44145 ], [ -97.41729, 51.4405 ], [ -97.34538, 51.43951 ], [ -97.27348, 51.43847 ], [ -97.20158, 51.43739 ], [ -97.12968, 51.43626 ], [ -97.05779, 51.43509 ], [ -96.9859, 51.43388 ], [ -96.98392, 51.47881 ], [ -96.91197, 51.47755 ], [ -96.90991, 51.52248 ], [ -96.8379, 51.52117 ], [ -96.76588, 51.51982 ], [ -96.69388, 51.51843 ], [ -96.62188, 51.51699 ], [ -96.61953, 51.56191 ], [ -96.61718, 51.60683 ], [ -96.68933, 51.60827 ], [ -96.76147, 51.60967 ], [ -96.83363, 51.61103 ], [ -96.83576, 51.5661 ], [ -96.90785, 51.56741 ], [ -96.97995, 51.56867 ], [ -97.05205, 51.56989 ], [ -97.05396, 51.52496 ], [ -97.126, 51.52613 ], [ -97.12784, 51.4812 ], [ -97.19981, 51.48232 ] ] ], [ [ [ -98.64022, 51.45063 ], [ -98.71218, 51.45083 ], [ -98.71246, 51.40587 ], [ -98.71274, 51.36091 ], [ -98.64093, 51.36071 ], [ -98.56912, 51.36047 ], [ -98.4973, 51.36019 ], [ -98.4255, 51.35986 ], [ -98.35369, 51.35948 ], [ -98.28188, 51.35906 ], [ -98.28118, 51.40402 ], [ -98.35305, 51.40444 ], [ -98.42493, 51.40481 ], [ -98.42437, 51.44977 ], [ -98.49632, 51.4501 ], [ -98.56827, 51.45039 ], [ -98.64022, 51.45063 ] ] ] ] } },
{ "type": "Feature", "properties": { "year": 2011, "cell_count": 644, "exact_cells": 644, "inferred_cells": 0 }, "geometry": { "type": "MultiPolygon", "coordinates": [ [ [ [ -96.19001, 51.50744 ], [ -96.18724, 51.55234 ], [ -96.18446, 51.59724 ], [ -96.18168, 51.64215 ], [ -96.17889, 51.68705 ], [ -96.25114, 51.68876 ], [ -96.24841, 51.73367 ], [ -96.24568, 51.77857 ], [ -96.31807, 51.78025 ], [ -96.32074, 51.73534 ], [ -96.39307, 51.73697 ], [ -96.39565, 51.69206 ], [ -96.46791, 51.69364 ], [ -96.54019, 51.69518 ], [ -96.53775, 51.74009 ], [ -96.6101, 51.74158 ], [ -96.68245, 51.74303 ], [ -96.68475, 51.69811 ], [ -96.75704, 51.69952 ], [ -96.75926, 51.65459 ], [ -96.68704, 51.65319 ], [ -96.61483, 51.65175 ], [ -96.61718, 51.60683 ], [ -96.54505, 51.60534 ], [ -96.47292, 51.60381 ], [ -96.40079, 51.60224 ], [ -96.40336, 51.55732 ], [ -96.40591, 51.51241 ], [ -96.33394, 51.5108 ], [ -96.33656, 51.46589 ], [ -96.33917, 51.42098 ], [ -96.26734, 51.41932 ], [ -96.19552, 51.41763 ], [ -96.19277, 51.46253 ], [ -96.19001, 51.50744 ] ] ], [ [ [ -96.28593, 51.10496 ], [ -96.2146, 51.10328 ], [ -96.2119, 51.14818 ], [ -96.20918, 51.19309 ], [ -96.20647, 51.238 ], [ -96.20374, 51.28291 ], [ -96.20101, 51.32781 ], [ -96.19827, 51.37272 ], [ -96.27002, 51.37441 ], [ -96.27269, 51.32951 ], [ -96.27535, 51.2846 ], [ -96.27801, 51.23969 ], [ -96.28066, 51.19478 ], [ -96.2833, 51.14987 ], [ -96.28593, 51.10496 ] ] ], [ [ [ -96.16441, 49.57282 ], [ -96.1618, 49.61774 ], [ -96.15919, 49.66266 ], [ -96.15657, 49.70758 ], [ -96.15394, 49.75249 ], [ -96.15131, 49.79741 ], [ -96.14867, 49.84233 ], [ -96.14602, 49.88724 ], [ -96.14337, 49.93216 ], [ -96.14071, 49.97707 ], [ -96.13804, 50.02199 ], [ -96.20775, 50.02369 ], [ -96.20515, 50.0686 ], [ -96.20253, 50.11352 ], [ -96.19991, 50.15843 ], [ -96.19728, 50.20335 ], [ -96.19464, 50.24826 ], [ -96.192, 50.29318 ], [ -96.18935, 50.33809 ], [ -96.1867, 50.383 ], [ -96.18403, 50.42792 ], [ -96.18136, 50.47283 ], [ -96.17869, 50.51774 ], [ -96.17601, 50.56265 ], [ -96.17332, 50.60756 ], [ -96.17062, 50.65247 ], [ -96.16792, 50.69738 ], [ -96.16521, 50.74229 ], [ -96.16249, 50.7872 ], [ -96.15977, 50.83211 ], [ -96.15703, 50.87702 ], [ -96.1543, 50.92193 ], [ -96.15155, 50.96683 ], [ -96.1488, 51.01174 ], [ -96.14604, 51.05665 ], [ -96.14327, 51.10155 ], [ -96.2146, 51.10328 ], [ -96.2173, 51.05837 ], [ -96.21999, 51.01346 ], [ -96.22267, 50.96855 ], [ -96.22535, 50.92364 ], [ -96.22802, 50.87873 ], [ -96.23068, 50.83382 ], [ -96.23334, 50.78891 ], [ -96.23599, 50.74399 ], [ -96.23863, 50.69908 ], [ -96.24127, 50.65417 ], [ -96.2439, 50.60926 ], [ -96.24652, 50.56434 ], [ -96.24913, 50.51943 ], [ -96.25174, 50.47451 ], [ -96.25435, 50.4296 ], [ -96.25694, 50.38468 ], [ -96.25953, 50.33977 ], [ -96.26211, 50.29485 ], [ -96.26469, 50.24993 ], [ -96.26726, 50.20502 ], [ -96.26982, 50.1601 ], [ -96.27238, 50.11518 ], [ -96.27493, 50.07026 ], [ -96.34472, 50.07188 ], [ -96.3472, 50.02696 ], [ -96.34968, 49.98204 ], [ -96.35214, 49.93711 ], [ -96.3546, 49.89219 ], [ -96.28507, 49.89058 ], [ -96.28759, 49.84566 ], [ -96.2901, 49.80074 ], [ -96.29261, 49.75582 ], [ -96.29511, 49.7109 ], [ -96.2976, 49.66597 ], [ -96.30009, 49.62105 ], [ -96.30257, 49.57613 ], [ -96.30504, 49.5312 ], [ -96.30751, 49.48628 ], [ -96.30997, 49.44136 ], [ -96.31243, 49.39643 ], [ -96.31488, 49.3515 ], [ -96.31732, 49.30658 ], [ -96.31976, 49.26165 ], [ -96.32219, 49.21672 ], [ -96.32462, 49.1718 ], [ -96.32704, 49.12687 ], [ -96.32945, 49.08194 ], [ -96.26106, 49.08034 ], [ -96.19267, 49.07869 ], [ -96.19013, 49.12362 ], [ -96.18759, 49.16854 ], [ -96.18504, 49.21346 ], [ -96.18248, 49.25838 ], [ -96.17992, 49.3033 ], [ -96.17735, 49.34823 ], [ -96.17478, 49.39315 ], [ -96.1722, 49.43807 ], [ -96.16961, 49.48299 ], [ -96.16701, 49.5279 ], [ -96.16441, 49.57282 ] ] ], [ [ [ -95.12561, 49.58766 ], [ -95.12204, 49.63253 ], [ -95.11847, 49.6774 ], [ -95.11489, 49.72227 ], [ -95.1113, 49.76714 ], [ -95.1077, 49.81201 ], [ -95.10409, 49.85688 ], [ -95.10047, 49.90174 ], [ -95.09685, 49.94661 ], [ -95.09321, 49.99148 ], [ -95.08957, 50.03634 ], [ -95.08591, 50.08121 ], [ -95.08225, 50.12607 ], [ -95.15204, 50.12841 ], [ -95.14843, 50.17328 ], [ -95.14482, 50.21814 ], [ -95.14119, 50.26301 ], [ -95.13756, 50.30787 ], [ -95.13391, 50.35274 ], [ -95.13026, 50.3976 ], [ -95.1266, 50.44247 ], [ -95.12292, 50.48733 ], [ -95.11924, 50.5322 ], [ -95.11555, 50.57706 ], [ -95.11185, 50.62192 ], [ -95.10814, 50.66678 ], [ -95.10442, 50.71164 ], [ -95.10069, 50.7565 ], [ -95.09696, 50.80136 ], [ -95.09321, 50.84622 ], [ -95.08945, 50.89108 ], [ -95.08569, 50.93594 ], [ -95.08191, 50.9808 ], [ -95.15297, 50.98316 ], [ -95.14926, 51.02802 ], [ -95.14553, 51.07288 ], [ -95.14179, 51.11774 ], [ -95.13804, 51.1626 ], [ -95.13429, 51.20746 ], [ -95.13052, 51.25232 ], [ -95.12675, 51.29718 ], [ -95.12296, 51.34204 ], [ -95.11917, 51.38689 ], [ -95.11536, 51.43175 ], [ -95.11155, 51.4766 ], [ -95.10772, 51.52146 ], [ -95.10389, 51.56631 ], [ -95.10004, 51.61117 ], [ -95.09619, 51.65602 ], [ -95.09232, 51.70087 ], [ -95.08845, 51.74573 ], [ -95.08456, 51.79058 ], [ -95.15689, 51.79297 ], [ -95.15307, 51.83782 ], [ -95.22548, 51.84017 ], [ -95.29791, 51.84248 ], [ -95.29422, 51.88734 ], [ -95.29052, 51.9322 ], [ -95.28681, 51.97706 ], [ -95.35945, 51.97933 ], [ -95.43211, 51.98156 ], [ -95.43568, 51.93669 ], [ -95.50827, 51.93887 ], [ -95.51175, 51.894 ], [ -95.51523, 51.84912 ], [ -95.51869, 51.80425 ], [ -95.52215, 51.75938 ], [ -95.5256, 51.7145 ], [ -95.52903, 51.66963 ], [ -95.53246, 51.62475 ], [ -95.53588, 51.57988 ], [ -95.5393, 51.535 ], [ -95.5427, 51.49012 ], [ -95.54609, 51.44525 ], [ -95.54948, 51.40037 ], [ -95.55285, 51.35549 ], [ -95.55622, 51.31061 ], [ -95.55958, 51.26573 ], [ -95.48805, 51.26361 ], [ -95.49147, 51.21873 ], [ -95.49488, 51.17385 ], [ -95.49828, 51.12898 ], [ -95.50168, 51.0841 ], [ -95.50506, 51.03922 ], [ -95.50844, 50.99434 ], [ -95.5118, 50.94946 ], [ -95.51516, 50.90458 ], [ -95.51851, 50.8597 ], [ -95.52185, 50.81482 ], [ -95.5927, 50.81692 ], [ -95.59597, 50.77203 ], [ -95.59922, 50.72715 ], [ -95.60247, 50.68226 ], [ -95.60571, 50.63737 ], [ -95.60895, 50.59249 ], [ -95.61217, 50.5476 ], [ -95.61539, 50.50271 ], [ -95.6186, 50.45782 ], [ -95.6218, 50.41294 ], [ -95.62499, 50.36805 ], [ -95.62817, 50.32316 ], [ -95.69829, 50.32517 ], [ -95.76842, 50.32714 ], [ -95.77146, 50.28225 ], [ -95.7745, 50.23735 ], [ -95.77753, 50.19245 ], [ -95.78055, 50.14756 ], [ -95.71068, 50.1456 ], [ -95.71376, 50.1007 ], [ -95.71683, 50.05581 ], [ -95.7199, 50.01091 ], [ -95.72295, 49.96601 ], [ -95.726, 49.92112 ], [ -95.72904, 49.87622 ], [ -95.79852, 49.87816 ], [ -95.868, 49.88006 ], [ -95.87091, 49.83515 ], [ -95.94034, 49.83701 ], [ -95.94317, 49.7921 ], [ -95.946, 49.74719 ], [ -95.94881, 49.70229 ], [ -95.95163, 49.65738 ], [ -95.95443, 49.61247 ], [ -95.95723, 49.56756 ], [ -95.96002, 49.52265 ], [ -95.9628, 49.47774 ], [ -95.96558, 49.43282 ], [ -95.96835, 49.38791 ], [ -95.97111, 49.343 ], [ -95.97387, 49.29809 ], [ -95.97661, 49.25317 ], [ -95.97936, 49.20826 ], [ -95.98209, 49.16335 ], [ -95.98482, 49.11843 ], [ -95.98754, 49.07352 ], [ -95.99026, 49.0286 ], [ -95.92196, 49.0268 ], [ -95.85366, 49.02495 ], [ -95.78538, 49.02307 ], [ -95.7171, 49.02115 ], [ -95.64882, 49.01918 ], [ -95.58056, 49.01718 ], [ -95.5123, 49.01513 ], [ -95.44405, 49.01305 ], [ -95.37581, 49.01092 ], [ -95.30757, 49.00875 ], [ -95.23935, 49.00655 ], [ -95.17113, 49.0043 ], [ -95.16768, 49.04918 ], [ -95.09941, 49.04689 ], [ -95.09589, 49.09176 ], [ -95.09236, 49.13663 ], [ -95.08883, 49.1815 ], [ -95.08528, 49.22638 ], [ -95.08173, 49.27125 ], [ -95.07816, 49.31612 ], [ -95.1468, 49.31843 ], [ -95.14329, 49.3633 ], [ -95.13977, 49.40818 ], [ -95.13624, 49.45305 ], [ -95.13271, 49.49792 ], [ -95.12916, 49.54279 ], [ -95.12561, 49.58766 ] ] ] ] } },
{ "type": "Feature", "properties": { "year": 2012, "cell_count": 91, "exact_cells": 91, "inferred_cells": 0 }, "geometry": { "type": "MultiPolygon", "coordinates": [ [ [ [ -99.20742, 49.56241 ], [ -99.13828, 49.56251 ], [ -99.13841, 49.60749 ], [ -99.06921, 49.60755 ], [ -99.0, 49.60757 ], [ -99.0, 49.65254 ], [ -99.06927, 49.65252 ], [ -99.06933, 49.69749 ], [ -99.0694, 49.74247 ], [ -99.06946, 49.78744 ], [ -99.06953, 49.83241 ], [ -99.06959, 49.87738 ], [ -99.13918, 49.87732 ], [ -99.13931, 49.92229 ], [ -99.20896, 49.92219 ], [ -99.27862, 49.92204 ], [ -99.34827, 49.92185 ], [ -99.41792, 49.92162 ], [ -99.48758, 49.92135 ], [ -99.55723, 49.92104 ], [ -99.62687, 49.92068 ], [ -99.69652, 49.92028 ], [ -99.76617, 49.91984 ], [ -99.83581, 49.91936 ], [ -99.83504, 49.8744 ], [ -99.83426, 49.82943 ], [ -99.83349, 49.78446 ], [ -99.83272, 49.7395 ], [ -99.83195, 49.69453 ], [ -99.83118, 49.64956 ], [ -99.83042, 49.60459 ], [ -99.76122, 49.60507 ], [ -99.69203, 49.6055 ], [ -99.69139, 49.56053 ], [ -99.62226, 49.56092 ], [ -99.62169, 49.51595 ], [ -99.55261, 49.5163 ], [ -99.48354, 49.51661 ], [ -99.41446, 49.51688 ], [ -99.34539, 49.51711 ], [ -99.27631, 49.51729 ], [ -99.20723, 49.51744 ], [ -99.20742, 49.56241 ] ] ] ] } },
{ "type": "Feature", "properties": { "year": 2013, "cell_count": 444, "exact_cells": 444, "inferred_cells": 0 }, "geometry": { "type": "MultiPolygon", "coordinates": [ [ [ [ -96.1543, 50.92193 ], [ -96.15703, 50.87702 ], [ -96.15977, 50.83211 ], [ -96.16249, 50.7872 ], [ -96.16521, 50.74229 ], [ -96.16792, 50.69738 ], [ -96.17062, 50.65247 ], [ -96.17332, 50.60756 ], [ -96.17601, 50.56265 ], [ -96.17869, 50.51774 ], [ -96.18136, 50.47283 ], [ -96.18403, 50.42792 ], [ -96.1867, 50.383 ], [ -96.18935, 50.33809 ], [ -96.192, 50.29318 ], [ -96.19464, 50.24826 ], [ -96.19728, 50.20335 ], [ -96.19991, 50.15843 ], [ -96.20253, 50.11352 ], [ -96.20515, 50.0686 ], [ -96.20775, 50.02369 ], [ -96.13804, 50.02199 ], [ -96.14071, 49.97707 ], [ -96.14337, 49.93216 ], [ -96.14602, 49.88724 ], [ -96.14867, 49.84233 ], [ -96.15131, 49.79741 ], [ -96.15394, 49.75249 ], [ -96.15657, 49.70758 ], [ -96.15919, 49.66266 ], [ -96.1618, 49.61774 ], [ -96.16441, 49.57282 ], [ -96.16701, 49.5279 ], [ -96.16961, 49.48299 ], [ -96.1722, 49.43807 ], [ -96.17478, 49.39315 ], [ -96.17735, 49.34823 ], [ -96.17992, 49.3033 ], [ -96.18248, 49.25838 ], [ -96.18504, 49.21346 ], [ -96.18759, 49.16854 ], [ -96.19013, 49.12362 ], [ -96.19267, 49.07869 ], [ -96.1952, 49.03377 ], [ -96.19772, 48.98885 ], [ -96.12947, 48.98717 ], [ -96.06121, 48.98545 ], [ -95.99297, 48.98369 ], [ -95.99026, 49.0286 ], [ -95.98754, 49.07352 ], [ -95.98482, 49.11843 ], [ -95.98209, 49.16335 ], [ -95.97936, 49.20826 ], [ -95.97661, 49.25317 ], [ -95.97387, 49.29809 ], [ -95.97111, 49.343 ], [ -95.96835, 49.38791 ], [ -95.96558, 49.43282 ], [ -95.9628, 49.47774 ], [ -95.96002, 49.52265 ], [ -95.95723, 49.56756 ], [ -95.95443, 49.61247 ], [ -95.95163, 49.65738 ], [ -95.94881, 49.70229 ], [ -95.946, 49.74719 ], [ -95.94317, 49.7921 ], [ -95.94034, 49.83701 ], [ -95.87091, 49.83515 ], [ -95.868, 49.88006 ], [ -95.79852, 49.87816 ], [ -95.72904, 49.87622 ], [ -95.726, 49.92112 ], [ -95.72295, 49.96601 ], [ -95.7199, 50.01091 ], [ -95.71683, 50.05581 ], [ -95.71376, 50.1007 ], [ -95.71068, 50.1456 ], [ -95.78055, 50.14756 ], [ -95.77753, 50.19245 ], [ -95.7745, 50.23735 ], [ -95.77146, 50.28225 ], [ -95.76842, 50.32714 ], [ -95.69829, 50.32517 ], [ -95.62817, 50.32316 ], [ -95.62499, 50.36805 ], [ -95.6218, 50.41294 ], [ -95.6186, 50.45782 ], [ -95.61539, 50.50271 ], [ -95.61217, 50.5476 ], [ -95.60895, 50.59249 ], [ -95.60571, 50.63737 ], [ -95.60247, 50.68226 ], [ -95.59922, 50.72715 ], [ -95.59597, 50.77203 ], [ -95.5927, 50.81692 ], [ -95.52185, 50.81482 ], [ -95.51851, 50.8597 ], [ -95.51516, 50.90458 ], [ -95.5118, 50.94946 ], [ -95.50844, 50.99434 ], [ -95.50506, 51.03922 ], [ -95.50168, 51.0841 ], [ -95.49828, 51.12898 ], [ -95.49488, 51.17385 ], [ -95.49147, 51.21873 ], [ -95.48805, 51.26361 ], [ -95.55958, 51.26573 ], [ -95.55622, 51.31061 ], [ -95.55285, 51.35549 ], [ -95.54948, 51.40037 ], [ -95.54609, 51.44525 ], [ -95.5427, 51.49012 ], [ -95.5393, 51.535 ], [ -95.53588, 51.57988 ], [ -95.53246, 51.62475 ], [ -95.52903, 51.66963 ], [ -95.5256, 51.7145 ], [ -95.52215, 51.75938 ], [ -95.51869, 51.80425 ], [ -95.51523, 51.84912 ], [ -95.51175, 51.894 ], [ -95.58428, 51.89613 ], [ -95.65682, 51.89821 ], [ -95.72937, 51.90025 ], [ -95.72611, 51.94513 ], [ -95.79873, 51.94713 ], [ -95.87137, 51.94909 ], [ -95.94402, 51.951 ], [ -96.01667, 51.95286 ], [ -96.08933, 51.95468 ], [ -96.162, 51.95646 ], [ -96.15916, 52.00136 ], [ -96.23191, 52.00309 ], [ -96.22913, 52.04799 ], [ -96.30196, 52.04968 ], [ -96.3748, 52.05133 ], [ -96.44764, 52.05293 ], [ -96.4502, 52.00802 ], [ -96.45275, 51.96311 ], [ -96.38005, 51.96151 ], [ -96.30736, 51.95987 ], [ -96.31005, 51.91497 ], [ -96.23744, 51.91328 ], [ -96.16483, 51.91156 ], [ -96.09224, 51.90978 ], [ -96.01965, 51.90797 ], [ -96.02262, 51.86307 ], [ -95.95011, 51.86121 ], [ -95.95314, 51.81632 ], [ -96.02558, 51.81818 ], [ -96.09803, 51.81999 ], [ -96.17048, 51.82176 ], [ -96.17329, 51.77685 ], [ -96.24568, 51.77857 ], [ -96.24841, 51.73367 ], [ -96.25114, 51.68876 ], [ -96.17889, 51.68705 ], [ -96.18168, 51.64215 ], [ -96.18446, 51.59724 ], [ -96.18724, 51.55234 ], [ -96.19001, 51.50744 ], [ -96.19277, 51.46253 ], [ -96.19552, 51.41763 ], [ -96.19827, 51.37272 ], [ -96.20101, 51.32781 ], [ -96.20374, 51.28291 ], [ -96.20647, 51.238 ], [ -96.20918, 51.19309 ], [ -96.2119, 51.14818 ], [ -96.2146, 51.10328 ], [ -96.14327, 51.10155 ], [ -96.14604, 51.05665 ], [ -96.1488, 51.01174 ], [ -96.15155, 50.96683 ], [ -96.1543, 50.92193 ] ] ] ] } }
]
}
