{"type":"FeatureCollection","features":[{"type":"Feature","properties":{"code":"RRVDFA"},"geometry":{"type":"Polygon","coordinates":[[[-97.1361279818975,49.74882845258035],[-97.13870029568268,49.74690886161142],[-97.1436155427649,49.74506277329368],[-97.145219017629,49.74378415627334],[-97.14697824471132,49.7391437940787],[-97.14791221004454,49.73794437826238],[-97.14935337298093,49.73727478418676],[-97.16094090314606,49.7332765937944],[-97.16266355315815,49.73249436670671],[-97.16364238434475,49.730827784771265],[-97.16363846868668,49.726519006673314],[-97.16417003355552,49.72456647339776],[-97.1656072141807,49.72361776269266],[-97.16918521480386,49.72219017227648],[-97.16962960272204,49.72107279264521],[-97.16957610899968,49.717329927327306],[-97.16968995065486,49.71134988757118],[-97.17039762162648,49.71023666497118],[-97.17174466218742,49.70945736418268],[-97.1847168332621,49.70492096299381],[-97.18595495085216,49.70407682279936],[-97.1861595913755,49.70342337574989],[-97.18612412557316,49.67979225793219],[-97.186152023033,49.6678649400523],[-97.1872833960905,49.666137573373646],[-97.18838312362124,49.6656330611725],[-97.19018152894508,49.66534635579494],[-97.2225374901966,49.665829689516386],[-97.24869289672723,49.66532880163012],[-97.25185447224544,49.66489084374989],[-97.25348176291796,49.6635661182989],[-97.25378031692507,49.66219434831035],[-97.25384458679083,49.61819038525263],[-97.25392674767798,49.60310646238241],[-97.25394030750414,49.59381447651147],[-97.25475041689162,49.59244141381154],[-97.2558667464577,49.59179258900544],[-97.25741471408352,49.59145609646299],[-97.2674067815396,49.59141723506705],[-97.281091216531,49.59144141282575],[-97.30191844624068,49.59138910199041],[-97.3144965514273,49.59139308792537],[-97.33735819963046,49.59132802919916],[-97.33832359593876,49.59142285382502],[-97.36728414505733,49.59145728789559],[-97.38175877468014,49.59143572562842],[-97.3911706802783,49.59136006858871],[-97.4125935411749,49.59127811932322],[-97.43790042761924,49.59132565453223],[-97.45573821304426,49.5912772184261],[-97.48193141297082,49.59129995896477],[-97.49702813400992,49.59129012302645],[-97.50451247829427,49.59134210812268],[-97.53363888497042,49.59137301832517],[-97.55115530603982,49.591422734304814],[-97.56546275287502,49.59143006453359],[-97.59575175323882,49.59150107192392],[-97.61835370650434,49.59152592568123],[-97.61840712103864,49.57684903514686],[-97.6071784169309,49.57677714314491],[-97.60716501061393,49.56942467595237],[-97.59586158834809,49.56937487222942],[-97.59575544342694,49.56198435784762],[-97.5957562093504,49.532210990361854],[-97.59479120735148,49.53220397120248],[-97.59480157203734,49.51737692964996],[-97.58375157669904,49.51732854701311],[-97.58376360070376,49.50258016975442],[-97.59483082552076,49.50261403408712],[-97.59483868344488,49.48787103065483],[-97.59491554618502,49.4584080092248],[-97.59497485129742,49.44358081523965],[-97.59496171456684,49.42879755941285],[-97.58377771115453,49.428814025419776],[-97.58368072367988,49.40660841811354],[-97.57259007195414,49.40656646425961],[-97.56108004328432,49.406576697544686],[-97.56107063721792,49.39914987455455],[-97.54977185236596,49.3991674148859],[-97.54975820717112,49.39179764934088],[-97.53836538136412,49.3917821027506],[-97.53836917764984,49.37696663149853],[-97.5270762631528,49.37696076036954],[-97.52705273660771,49.35484576364571],[-97.52708191156736,49.34003501345454],[-97.5157351490225,49.340024288553266],[-97.51574527746972,49.33265877612055],[-97.50448091231404,49.33265537931046],[-97.50451981933666,49.31046005463147],[-97.49321939406836,49.310432459807096],[-97.49312132335906,49.29568178783188],[-97.48184689826633,49.29565882162118],[-97.48184464050097,49.28828623038623],[-97.45934410026602,49.28826290827954],[-97.45943411928614,49.26606151937648],[-97.45947942118346,49.24428952618048],[-97.4494031799979,49.24378312709895],[-97.44906429466174,49.228611778141534],[-97.43778044096518,49.228023646676895],[-97.43761138846092,49.22063007672883],[-97.43704132731114,49.19101605747347],[-97.43687805651577,49.18364442785329],[-97.41432941586469,49.18375484517456],[-97.40280175133846,49.18383884480569],[-97.40254914104426,49.17754807774815],[-97.39228870463668,49.17753194714645],[-97.392241203119,49.17015943439093],[-97.38093265597702,49.17017540621587],[-97.380922812024,49.16275025989812],[-97.36967936822144,49.162773811738475],[-97.36961509851406,49.148019670810434],[-97.36959427130054,49.13326256277467],[-97.36951300976308,49.11853395830246],[-97.36947727347984,49.103738696253856],[-97.35825575258816,49.103732196979216],[-97.35819281937192,49.08889530294261],[-97.35825938749694,49.08165896465724],[-97.3806908435392,49.081589079431986],[-97.3807368628188,49.07440534419784],[-97.414404772599,49.07439348529768],[-97.4144856257864,49.059624192399],[-97.41460914156052,49.044875246402974],[-97.41462323136788,49.037501034316335],[-97.43723933637436,49.03753268970295],[-97.45962500430164,49.03752984576211],[-97.45965022860744,49.015375478391434],[-97.3921749915458,49.015349139380355],[-97.39225473334898,49.00048608814079],[-97.37166086317676,49.0004704933388],[-97.32762745966755,49.00047022678252],[-97.30562724065098,49.00048652000642],[-97.28362819930588,49.0004671457122],[-97.21757495439653,49.00044594368507],[-97.17391819884928,49.00041528133457],[-97.12942707216575,49.0003905425042],[-97.111071326407,49.0003872436237],[-97.11110379594273,49.01525040844719],[-97.13354111461813,49.015269220875666],[-97.13354141959732,49.02266446226714],[-97.12231108828772,49.0226566554684],[-97.12248373545862,49.059567505577725],[-97.10002819921267,49.05953320477186],[-97.10008654554504,49.08925242535303],[-97.12262376332006,49.08927049956191],[-97.12267160967713,49.10397981377512],[-97.14523898284683,49.10395431202675],[-97.14527597628113,49.12606790264121],[-97.12269881471876,49.126082899253454],[-97.12283032004436,49.17038170224591],[-97.13406244997978,49.170371527837645],[-97.1340569389754,49.177734041093295],[-97.14243418600564,49.177734554705154],[-97.14247167442689,49.20719923935174],[-97.14256491918826,49.221932985857535],[-97.16506070987596,49.22195025482583],[-97.16508794846216,49.25143021228628],[-97.16521083645615,49.258807727076245],[-97.16518966743666,49.26620493340488],[-97.127548741844,49.26620176124581],[-97.12010428356224,49.26621615560777],[-97.12008242133513,49.28088905258403],[-97.14266568583844,49.28094681804009],[-97.1426648604762,49.28831588937338],[-97.15393925846516,49.288299505936635],[-97.15396302585312,49.303057572180485],[-97.12008106387827,49.303027481412904],[-97.12018864164534,49.33991564253831],[-97.10883215559792,49.3399097782839],[-97.1088721266886,49.35480444708241],[-97.12020091020428,49.3548223897894],[-97.12028250970396,49.36942403396508],[-97.10944220010654,49.369425304005034],[-97.1094307530752,49.37684525069113],[-97.09812580433996,49.37681117188337],[-97.09812709977768,49.384184497277815],[-97.10941944687758,49.38418713598042],[-97.10944255816976,49.39159398718576],[-97.09813259149716,49.39155527726684],[-97.09817091929544,49.39892931602292],[-97.09812876393624,49.406339525686384],[-97.1094270333051,49.4063782260324],[-97.10938808489544,49.41370731381799],[-97.12072554465206,49.41378312414073],[-97.14319039949535,49.41365630057633],[-97.1431669364808,49.421117476035214],[-97.13213780537475,49.42113607051701],[-97.13224837493853,49.4283703857333],[-97.1320524887632,49.43586511375736],[-97.12075679217207,49.43585145615202],[-97.12054530981264,49.4432246476075],[-97.1204939904696,49.45060687695459],[-97.1091218008747,49.45061856177091],[-97.10902548806212,49.46537885569701],[-97.12042291123976,49.46539969199435],[-97.12036996817378,49.48014895841795],[-97.13168531706226,49.48015819221137],[-97.13167107000092,49.48753546360981],[-97.14299960527224,49.487539727195376],[-97.14296479997029,49.49494141134043],[-97.09782524267963,49.494880730124095],[-97.07537255555864,49.49497701066425],[-97.06373440283974,49.49484419479443],[-97.0413370084454,49.494738970106184],[-97.04130664148774,49.50243573060269],[-97.04141823775466,49.51706031946837],[-97.04125849549852,49.52444445579575],[-97.04133670787914,49.532000400519905],[-97.03724151724704,49.53205052354418],[-97.03698126658124,49.54674921627271],[-97.0370732621658,49.576310221138],[-97.03720981381566,49.605763900811745],[-97.03737053044368,49.620668143036085],[-97.02601483862723,49.620673174679496],[-97.02614860377696,49.65009310692023],[-97.0147191379623,49.65010574496112],[-97.01480746645778,49.67961471210919],[-97.00345034594324,49.67959851940147],[-97.00352743697496,49.71666268998019],[-96.99222484249538,49.7165539560146],[-96.99238330244552,49.731295643382765],[-96.98098722205242,49.731248764041325],[-96.98116798380396,49.75345331280504],[-96.98110244792495,49.78277397448241],[-96.98104687930996,49.79747649563141],[-96.9582223079763,49.79746076400293],[-96.95846943327604,49.81210650233948],[-96.95856468517847,49.82440752511744],[-97.0061056292465,49.80420872361927],[-97.02035150282272,49.798459950676744],[-97.04116596071904,49.78975593030187],[-97.04308189999884,49.7896833545404],[-97.04518318234612,49.78822843453885],[-97.04969331514394,49.78653067230931],[-97.05541107510491,49.78381393431127],[-97.07100922236492,49.77698461461601],[-97.08298357647648,49.771920028298354],[-97.10519313476487,49.76258740999577],[-97.11010660654988,49.76040060608171],[-97.11676271958606,49.75754922447908],[-97.1177994267335,49.75692583623387],[-97.1189430363512,49.75563244758583],[-97.12366002740416,49.744451815342615],[-97.12465251626642,49.744037331034825],[-97.12644336949354,49.743849599355016],[-97.12709870562712,49.74573235270324],[-97.12877497319596,49.748165673806184],[-97.1312938851437,49.75035170627883],[-97.1331184547042,49.75092084482845],[-97.1361279818975,49.74882845258035]]]}},{"type":"Feature","properties":{"code":"LRDFA"},"geometry":{"type":"Polygon","coordinates":[[[-96.80090109336084,50.40212738924696],[-96.94055821211587,50.402703510299936],[-96.94036464440032,50.387954373177784],[-96.94048185884128,50.31430161975817],[-96.9287977418604,50.314261373250865],[-96.9286812026028,50.29950835369909],[-96.94040479547937,50.2995596556528],[-96.94047085091144,50.306804215206384],[-96.97474231308026,50.30692719700825],[-96.97478400388724,50.31414445135229],[-96.99783790127314,50.314235276679085],[-96.9977951539596,50.30697096892118],[-96.986481710706,50.30692985877267],[-96.98641366728754,50.29941710995217],[-96.97464025876822,50.299390162080286],[-96.9746396333502,50.292187733176696],[-96.9633774368999,50.292159792643034],[-96.96337599051677,50.27738039131677],[-96.9746382516914,50.277433961570054],[-96.97465572854873,50.26989519924368],[-96.98641639078512,50.26994222159506],[-96.9863456670904,50.26269670492592],[-96.96336969518106,50.2626555595937],[-96.96342653182305,50.24782872256739],[-96.92871781769408,50.24775214050989],[-96.92867611702984,50.240503436499495],[-96.932741313727,50.24025365990068],[-96.93289119932624,50.22551096419595],[-96.88396011250212,50.225293218609345],[-96.84054749032408,50.20765506889638],[-96.83904937870928,50.20305510197473],[-96.84391166230056,50.19324519096042],[-96.84533019991508,50.18189459998237],[-96.85796130025852,50.176353500214354],[-96.86615207400394,50.16562169658017],[-96.86423147124178,50.16201176695307],[-96.86415114050033,50.14787831063764],[-96.87319045916382,50.13952649515124],[-96.87864633037142,50.12852961145351],[-96.8868193246814,50.12786016761011],[-96.90493806234907,50.12124938967471],[-96.91133762456448,50.1170814596356],[-96.92307116164568,50.115610538993245],[-96.93173582089554,50.11056733268523],[-96.93759701044112,50.103598972350525],[-96.94131280334337,50.09584786553579],[-96.9392048078791,50.089517892052875],[-96.94124336420624,50.0804988021853],[-96.95462022784484,50.0745080274131],[-96.95473258326544,50.0689165506313],[-96.96627897237929,50.065397926716955],[-96.9748217354392,50.06631888103554],[-96.98048497275114,50.064142880348584],[-96.98963663888826,50.05266313509488],[-96.98894971870465,50.042576951688595],[-96.9932218755698,50.03977257081187],[-97.00826268555772,50.04079471895678],[-97.01108546814218,50.03326865060614],[-97.02354778984451,50.034528131120474],[-97.0325952151333,50.032077520033056],[-97.03778378466248,50.02781735616957],[-97.03817442995587,50.02352596526125],[-97.04500552410362,50.01902782333721],[-97.044310910541,50.00806868890258],[-97.0423098401244,50.0017833462957],[-97.0426329082685,49.99455633364172],[-97.05113803695887,49.99164561298689],[-97.0587790179884,49.98558313783703],[-97.05844049520918,49.98133339318644],[-97.06867304316192,49.97458320932513],[-97.0672809474833,49.96953108601572],[-97.07121254615792,49.96386989329505],[-97.06765877755466,49.96266289161322],[-97.0611336015161,49.97444917814303],[-97.05197117404288,49.98062794203961],[-97.049517567744,49.98766864537172],[-97.03983376017987,49.992017942235975],[-97.03755970311674,49.99636990298062],[-97.04106187433132,50.01919492868595],[-97.03692812862737,50.02038295766489],[-97.029254059802,50.02926032010825],[-97.02377215577964,50.03149774019293],[-97.00698712721308,50.031468225731174],[-96.99992888749486,50.03741055718557],[-96.99399894710024,50.03697760487551],[-96.98559130805144,50.040118920840406],[-96.98679900978308,50.05190550010241],[-96.97947443093912,50.060695356575096],[-96.95995720314266,50.06409116162426],[-96.95231513031936,50.06737621250795],[-96.94854719990904,50.072968764284056],[-96.93887913102942,50.07589336424584],[-96.937346900802,50.08429951105907],[-96.93358348594116,50.09104767441896],[-96.93862209807172,50.09601212517941],[-96.93643517868072,50.10096002928622],[-96.92744429685284,50.11138367616874],[-96.920606699386,50.11411545794088],[-96.90475897658538,50.115515273752465],[-96.90115132751752,50.11914839754933],[-96.8897370911304,50.12444890010566],[-96.88073938184716,50.12463516568126],[-96.87412996027956,50.121167439545125],[-96.86018159960727,50.12256870001396],[-96.85588216009722,50.12457457553576],[-96.85315008599612,50.13039486585579],[-96.85591340298548,50.1338610505661],[-96.85514469142906,50.139750468135624],[-96.83815017534612,50.15257735792544],[-96.84126355978437,50.15368437542311],[-96.83946704600118,50.15972420204557],[-96.84303352576248,50.162495809236155],[-96.83851524951682,50.1699625889065],[-96.84137577179229,50.17638062349236],[-96.83778907884177,50.183956163751525],[-96.83995694857502,50.19167792019796],[-96.83210697481444,50.19505645520073],[-96.82804367981494,50.203527116210466],[-96.8279956847379,50.2079362471303],[-96.8318139180062,50.21598529460321],[-96.8235956112316,50.22410775723851],[-96.804946404203,50.22263508114388],[-96.80385225916535,50.226474502775254],[-96.79306055317508,50.226518559899645],[-96.7922939769185,50.22995259852969],[-96.801614296195,50.23313913336904],[-96.8100233545794,50.23275891388535],[-96.81671629944852,50.23875357007184],[-96.81525687439408,50.2502381093652],[-96.81226535756537,50.2545672661293],[-96.78880605290928,50.25452095092168],[-96.78883418527576,50.24699897912402],[-96.7429077844897,50.246950135569016],[-96.7428570008616,50.25418673970815],[-96.7316727428022,50.2542239827015],[-96.73172916132027,50.261730906474874],[-96.74325425547492,50.26170404698522],[-96.74324140248892,50.268942001891986],[-96.75460886834036,50.268955287539754],[-96.7545835764682,50.27647730190776],[-96.74321439422684,50.2764457432455],[-96.74330920994106,50.291203875705314],[-96.73165172379365,50.29126948542938],[-96.73177265199632,50.2987948105147],[-96.70882810235396,50.298876887434055],[-96.7092337135408,50.39483428140974],[-96.7890765870364,50.39491636808712],[-96.78906750410046,50.38775722607332],[-96.8009260273476,50.387846926484286],[-96.80090109336084,50.40212738924696]]]}}]}