{"type":"FeatureCollection","features":[{"type":"Feature","properties":{"code":"SMA"},"geometry":{"type":"Polygon","coordinates":[[[-97.6840948842408,49.00076324132351],[-96.96518007829314,49.00048662627106],[-97.0101533936666,49.0299052807742],[-97.01047758715951,49.16281037951184],[-96.98419634979663,49.17785593055859],[-96.9848655485118,49.362105695547754],[-96.91680245588836,49.45810545100824],[-96.80424502430026,49.53210187604608],[-96.59385172831554,49.6038193238137],[-96.6167304206554,49.70748636993768],[-96.61490711524264,49.855225620957434],[-96.66018580165698,49.92904045531887],[-96.52180071684003,49.95801065444042],[-96.52116315845704,50.032304237436975],[-96.58964875456137,50.10604360756002],[-96.72659234391703,50.1065426058325],[-96.7260805173915,50.16563592296499],[-96.60464242278051,50.281627299299736],[-96.60555086563149,50.35501490313782],[-96.65449468508572,50.392470280577534],[-96.88462966051809,50.39880950215997],[-96.94729730342496,50.432425897289406],[-97.0906684911987,50.4330561916566],[-97.15951106349694,50.34438639674877],[-97.11357518762708,50.32938482393602],[-97.0941339929946,50.15199434292279],[-97.13847832343968,50.04911730924041],[-97.2756276867074,50.063803873922694],[-97.2761393125499,50.181898150718276],[-97.36780161333157,50.167032592678126],[-97.4136859149218,50.12272148365082],[-97.57428108578964,50.12288000826851],[-97.59718852795486,50.152481717504315],[-97.78106252738148,50.09330867066718],[-97.8956415039984,50.108040808477384],[-98.21644496220269,50.09321441599087],[-98.21575026666729,49.88709727704673],[-98.16469675427102,49.85710132406837],[-97.91419934351316,49.56191334456612],[-97.93398219989348,49.2957073925454],[-97.91096092536064,49.25151296363405],[-97.7303361420254,49.26633102696753],[-97.68462916303922,49.14802093372472],[-97.6840948842408,49.00076324132351]]]}}]}