{"type":"FeatureCollection","features":[{"type":"Feature","properties":{"code":"WWCR"},"geometry":{"type":"MultiPolygon","coordinates":[[[[-97.04354369662398,49.77782789652328],[-97.04342558708016,49.777865712660095],[-97.04348602471684,49.782035834339865],[-97.04388678829088,49.782372475544015],[-97.0435,49.783],[-97.04712263906444,49.78306472649501],[-97.04728871965813,49.78228750141648],[-97.04701699315731,49.78183503287546],[-97.04642710758702,49.78134551131892],[-97.04666809477818,49.781034963576175],[-97.04675800548692,49.78046827600495],[-97.04651972911338,49.779953165001125],[-97.04616918573424,49.77970848980582],[-97.04640695745692,49.77906479170438],[-97.04611867631549,49.77842806763905],[-97.0455198338134,49.77798663717543],[-97.04473617952968,49.77776934214296],[-97.04354369662398,49.77782789652328]]],[[[-97.05443767578345,49.79670443299048],[-97.0540971420961,49.79636817499887],[-97.05329815115056,49.795946779475855],[-97.05327019946516,49.795220437727686],[-97.05305709656348,49.79494872036546],[-97.05241151331644,49.79455755547918],[-97.0512957137414,49.79418459295718],[-97.05128696354554,49.79382491173803],[-97.05186298265475,49.79362610740151],[-97.0524360048631,49.793162381613506],[-97.05272488572176,49.792719299176895],[-97.05281786607785,49.79226396408164],[-97.05245489056124,49.79159955235172],[-97.0519998119326,49.79131535670534],[-97.0514823963782,49.79118672468799],[-97.05046406062498,49.791132871258455],[-97.0491,49.79150843492565],[-97.0491,49.7928],[-97.04767412045868,49.79342479282127],[-97.04833193034294,49.79348927377489],[-97.04808586765571,49.79455834105058],[-97.04831358620038,49.79521233909404],[-97.04916226772625,49.79588273150195],[-97.04899268770896,49.79625368053032],[-97.04903841754894,49.796772582341184],[-97.04962946436424,49.797299300482635],[-97.05058363530944,49.797597873563774],[-97.05171949975244,49.79760097161167],[-97.05160564073132,49.79811180999393],[-97.05170884345075,49.79868396872606],[-97.051885460826,49.79895759282635],[-97.0525687847241,49.7994410967577],[-97.0544500127672,49.80011526568029],[-97.05507433396444,49.80017305497126],[-97.05514453940503,49.800538030556304],[-97.05543042388936,49.80099703208701],[-97.0558192914938,49.80125866721279],[-97.0565147448436,49.80150641504131],[-97.05812292526768,49.801500983840306],[-97.05835119385664,49.80214788759462],[-97.05875255339424,49.802460886936345],[-97.05875673306345,49.80305190422797],[-97.059025809904,49.80341313012025],[-97.06010405599471,49.803886311000745],[-97.06031856451342,49.80432205263662],[-97.06101191880072,49.804772893699166],[-97.06154291970871,49.80537101344601],[-97.06239013981175,49.80558599975493],[-97.0630894438117,49.80552938621019],[-97.06304905535744,49.80640488585609],[-97.06318790494716,49.80716047300724],[-97.06348536871428,49.807492270261115],[-97.06332495503692,49.80795013491862],[-97.0634324033584,49.80828784200011],[-97.06400495466094,49.80876524917934],[-97.06449057637082,49.80893081288578],[-97.06479924757562,49.809336252831216],[-97.06480657425348,49.809760948175665],[-97.06500182708466,49.810153628139574],[-97.0654289150444,49.81051456381594],[-97.0656041600731,49.8109304001742],[-97.06608763477304,49.81132616555829],[-97.066519778378,49.8118569860725],[-97.06655753321316,49.81228571758456],[-97.06713022016096,49.81295465607823],[-97.06681241214407,49.81326873571914],[-97.06668223722674,49.81387480179781],[-97.06691585361834,49.81429699497557],[-97.0673838715004,49.81462336511538],[-97.06805266305729,49.81486594205474],[-97.06901969652864,49.81500729183868],[-97.0697812948768,49.814972566073706],[-97.06998764122548,49.815340376885416],[-97.06995271615376,49.8158603427148],[-97.07014023748948,49.81618189966044],[-97.07115226272025,49.81692427809463],[-97.07187969970984,49.8176513257679],[-97.07279321157844,49.81799554404222],[-97.07364367577698,49.81797392509069],[-97.0742803099212,49.818479188345485],[-97.07482403939092,49.81860598717591],[-97.07476303011386,49.81895741446341],[-97.075290279324,49.819865576339275],[-97.0756384939485,49.82026238298914],[-97.07560146006077,49.8206789757809],[-97.07613475766284,49.82130305750774],[-97.07607346522768,49.82183872090577],[-97.07637374538469,49.82234167125084],[-97.07671338579,49.8226030121949],[-97.0774059272729,49.82285887248307],[-97.07801497408435,49.82292941855464],[-97.079110334139,49.82290385622148],[-97.07875532807948,49.82324876687976],[-97.07857030811115,49.82385776423383],[-97.07866818562768,49.82415352280435],[-97.0791242306022,49.824557701580346],[-97.08011049088292,49.82490487450934],[-97.07918313253424,49.82618344990644],[-97.07906182493616,49.82668949328223],[-97.07923991840008,49.82712908144707],[-97.08011094698718,49.82780450479241],[-97.07991549354242,49.82849753222653],[-97.08019109740096,49.828916253843666],[-97.08086715893032,49.82932488015349],[-97.0816760373327,49.82941162666528],[-97.0819852517666,49.82996959882402],[-97.08275776814928,49.83039275826347],[-97.0836000287906,49.83049462089808],[-97.08327450014542,49.83097753954563],[-97.08274405275124,49.83135357126723],[-97.0824968836152,49.831863854448905],[-97.08260240992956,49.83227688480198],[-97.08239403797128,49.832589317153314],[-97.08236397969588,49.833080037246496],[-97.08256276877376,49.833453050363495],[-97.08318747633332,49.83402165750791],[-97.08393788234784,49.83422722972682],[-97.0838966971583,49.83465099838692],[-97.084113857222,49.835106948846374],[-97.08456327329166,49.83544994847238],[-97.08470866360084,49.83609628508235],[-97.08525588400572,49.83660518690369],[-97.0855487118536,49.837205356556424],[-97.08592753180926,49.83750633073644],[-97.08696962033532,49.837881617401685],[-97.08751288535665,49.83797914387748],[-97.087132049555,49.839858309640135],[-97.0874072659944,49.8403767958284],[-97.0879326590492,49.84067271679],[-97.0885304495509,49.84078031200992],[-97.08935653635184,49.84065747843405],[-97.08982163499856,49.84039183896621],[-97.09009442772562,49.839977233910574],[-97.09049977451808,49.83808081033336],[-97.09049890042732,49.83742336239469],[-97.09093406859252,49.836868347998546],[-97.09099945166162,49.836508604946744],[-97.09078884340872,49.836021380682226],[-97.0904517911851,49.83574901238247],[-97.08959282383162,49.83550973123522],[-97.08977912420596,49.83507522057098],[-97.08969866693278,49.83456552894122],[-97.08904401089218,49.83397364978614],[-97.08934337298636,49.833583829401235],[-97.08939993350924,49.83314265359778],[-97.08914312309584,49.832650363646145],[-97.0884716047318,49.83221736826842],[-97.08775727315933,49.832030566683095],[-97.08679601687544,49.83200896995008],[-97.08647011877775,49.83160238636572],[-97.08724091170984,49.831146972953746],[-97.0875802865168,49.830498303606866],[-97.08735770257786,49.83002526488697],[-97.08664413334594,49.829530485587576],[-97.086086213772,49.82877770408419],[-97.0852418180775,49.82821894281851],[-97.0842727670983,49.82781476974345],[-97.0835041540756,49.827603163229384],[-97.08373645191288,49.826956631661666],[-97.083464338608,49.82635130037723],[-97.08268712278866,49.82590956992183],[-97.08379409602388,49.82456403918988],[-97.08406778093816,49.82396688527435],[-97.08373329011752,49.82312028287138],[-97.08273362880249,49.82259924143885],[-97.08285300536848,49.822035483651405],[-97.08251863720976,49.82143466524049],[-97.08217949763036,49.8211138126484],[-97.08166528137124,49.820891924429645],[-97.08088900012604,49.82077383196723],[-97.07936215174132,49.82095516278022],[-97.0797534725226,49.82044416887627],[-97.07992823510108,49.82000468049852],[-97.07989250833576,49.819261608329235],[-97.07948919905104,49.8187406164072],[-97.07840575648392,49.81819467455044],[-97.07802771113673,49.81769672891035],[-97.07820139095868,49.81729835367982],[-97.07823186676995,49.81655467106347],[-97.07773649997472,49.81582481161656],[-97.07723492825846,49.81557981163206],[-97.07650915818668,49.815457328355166],[-97.07581652231346,49.81550140459983],[-97.07512624908011,49.81521046058829],[-97.07358501522368,49.81495316188521],[-97.0742103147581,49.81403278825602],[-97.07425422399972,49.813637345449365],[-97.07388018920496,49.81265056798891],[-97.07340834534484,49.81231216122925],[-97.07245891011284,49.812110828403526],[-97.07146303906814,49.812196375617134],[-97.07087629617529,49.8123924960066],[-97.0708710768468,49.81205376692764],[-97.07042451430206,49.81148152926934],[-97.07028160393702,49.81075166446996],[-97.06978356283368,49.81031582483553],[-97.06900236620328,49.81009512915277],[-97.06842922759591,49.8100911730032],[-97.06826961461194,49.80973183579],[-97.06785772675109,49.809348367030374],[-97.0677523530042,49.80887008740695],[-97.06695894679866,49.80779058530514],[-97.06759635454247,49.80723550463861],[-97.06767185843552,49.80694089194548],[-97.06741369223911,49.80623767298],[-97.0670125494146,49.80593858503026],[-97.0660602217024,49.80572931957243],[-97.06601236302691,49.80503889835596],[-97.0652923962202,49.80416856448876],[-97.06458265878976,49.803731338447015],[-97.063981774431,49.80355577140273],[-97.0642596307227,49.80328850145986],[-97.06447318122883,49.80268752326594],[-97.06435358110234,49.80234833589332],[-97.06377696792438,49.80182589811072],[-97.06306801746736,49.80157211453528],[-97.06182419175369,49.801466331390664],[-97.06148380547852,49.80121893371541],[-97.061460410698,49.800333583298425],[-97.06113531976784,49.79990437807928],[-97.0606086841246,49.799553347188954],[-97.06012418160336,49.79941009824116],[-97.05951701571648,49.79939295629276],[-97.0589042357914,49.79951493832545],[-97.05800539144607,49.799535744319584],[-97.0578114121397,49.798922504279105],[-97.0574632097776,49.7986013815446],[-97.05664827186972,49.79833158061862],[-97.05520189243396,49.79820842339986],[-97.05464774406096,49.79797118693056],[-97.05473307775084,49.79754257814205],[-97.05443767578345,49.79670443299048]]],[[[-97.17075992002704,49.73133982586306],[-97.17035992838578,49.731024780567274],[-97.16722075307196,49.732114139942894],[-97.16677061390403,49.73238707846728],[-97.16595367461136,49.73263843033313],[-97.16508584911384,49.733117242542264],[-97.16369219648936,49.73402298209597],[-97.1626292001057,49.73442293428836],[-97.1608262539566,49.734770370238],[-97.15896931682796,49.735289872768895],[-97.15808430286138,49.735714158805855],[-97.1575133740643,49.73626964372077],[-97.15712960349774,49.73718213224638],[-97.15622812035728,49.73829626731906],[-97.15589847066389,49.739009415967104],[-97.1557458492745,49.73962521334878],[-97.15578886248495,49.74022198990629],[-97.15458358440958,49.73983973987257],[-97.15314047586648,49.739639143110914],[-97.15183541814108,49.739623177636425],[-97.15042688941377,49.73981534189111],[-97.1493223992454,49.7402114641608],[-97.14830233810812,49.740951185680075],[-97.14793183400543,49.741739536395855],[-97.14789472658836,49.74235622156389],[-97.1480143070915,49.74286641954953],[-97.14844506206695,49.74342968595068],[-97.1490296923672,49.74385826957557],[-97.14988373031062,49.744351606836865],[-97.15013555853837,49.744625852284095],[-97.14938792852952,49.74547928002631],[-97.14904430697791,49.74617667433861],[-97.14880421078888,49.7470278684636],[-97.14880111668283,49.74800153656697],[-97.14856898867072,49.74914640010771],[-97.14836439996496,49.74975924013523],[-97.14831296268072,49.75034333021708],[-97.14856923085568,49.75116522579656],[-97.14927250832804,49.75169427684794],[-97.14972436811992,49.75186887269441],[-97.15148834207218,49.752235541983694],[-97.1521369422355,49.7526313581619],[-97.1523635629962,49.75291756992388],[-97.1525165640318,49.75462346070643],[-97.15235713555712,49.7549627541722],[-97.15161916367948,49.75579825948493],[-97.1508869147072,49.75641418347942],[-97.15022350285275,49.757081273789865],[-97.14965591303388,49.758009689961554],[-97.14962685766376,49.7585614955477],[-97.14983878006814,49.758993357074345],[-97.15026566085554,49.75938523345763],[-97.15105939371952,49.75969757347551],[-97.15203763592594,49.75980480820258],[-97.1527037427174,49.7597926565602],[-97.1542232050938,49.75963162717746],[-97.1554609375235,49.759647413984816],[-97.15591989483134,49.75993994471304],[-97.15592106353736,49.76039159110324],[-97.15567559214352,49.760667320186606],[-97.15450621620283,49.76133613544605],[-97.153382366156,49.76243980438858],[-97.15279000723508,49.7626951565408],[-97.1520656631794,49.76271574985272],[-97.1513373079029,49.761891767124375],[-97.15064822405296,49.760926009622885],[-97.14981013969783,49.76031149804005],[-97.14907664169417,49.76006237262786],[-97.14779586721788,49.75983774123458],[-97.1476194898134,49.759159219078626],[-97.14709944307975,49.758652945363266],[-97.14643025001628,49.75842302747008],[-97.14572835071677,49.75835970455865],[-97.1466203056343,49.75792113568834],[-97.14710183022652,49.75747888976714],[-97.14730485842608,49.756983560748886],[-97.14727532615233,49.75628991054501],[-97.14669988274838,49.75558752980207],[-97.14592874290162,49.75510027095661],[-97.14529090377452,49.75489739931379],[-97.14433152896676,49.754743739828065],[-97.14332793435184,49.754696512032],[-97.14225640204565,49.75487970262517],[-97.14109627908094,49.755466037608755],[-97.1400519742172,49.75407477795872],[-97.13871514978504,49.752719097532285],[-97.1371420720768,49.75150040156911],[-97.13550868950844,49.75053099126133],[-97.13264544551495,49.74892261884565],[-97.13141880623962,49.74787872950343],[-97.13023727914724,49.74648255902381],[-97.12946879990504,49.74515875693909],[-97.1282,49.7456],[-97.1277,49.7448],[-97.1274,49.7437],[-97.1274,49.7423],[-97.1275,49.7417],[-97.1278,49.7408],[-97.1288,49.7384],[-97.1288,49.7374],[-97.12734932856918,49.7378892166339],[-97.1272551514012,49.73844134620309],[-97.12631939944984,49.740587865332955],[-97.12603102000556,49.74154076139732],[-97.12587965482886,49.74270665091208],[-97.1259925420666,49.74402784796762],[-97.12628238469271,49.74501478936605],[-97.12659800218168,49.74569665765784],[-97.1275752097929,49.7473498314632],[-97.12886127612585,49.74886965105753],[-97.1305801460916,49.75031626829403],[-97.13354487054316,49.75198156196063],[-97.13493199159826,49.75279530790299],[-97.13625896535322,49.753812194924066],[-97.13749386479378,49.755064594461466],[-97.13840989598278,49.75629921547625],[-97.1389189580172,49.75716008910821],[-97.1392613944286,49.75825676723157],[-97.13935278224184,49.759438427034816],[-97.13912742195107,49.7615175367567],[-97.137956916011,49.76581546080692],[-97.13793368914712,49.76802804928239],[-97.13784934095834,49.770289711785246],[-97.13784003167972,49.77246441430566],[-97.13810911413752,49.77323402070659],[-97.13874019469456,49.77399442024178],[-97.13926335429876,49.774387868466526],[-97.14014210923462,49.77484392708967],[-97.14135772347186,49.775133223794256],[-97.14281738742004,49.77524270801995],[-97.14405424130882,49.77514279918253],[-97.1454697858716,49.77469711602203],[-97.1466975895533,49.77418126061647],[-97.14851639269249,49.77306473887953],[-97.14973678497584,49.77222309423119],[-97.15039921532365,49.77183705450671],[-97.1513409394198,49.77143438404863],[-97.15200041054251,49.7713075912809],[-97.152692469436,49.77149723591694],[-97.15318056033809,49.77224539085882],[-97.15285644472904,49.77288560366665],[-97.1519567104378,49.77388014532213],[-97.15098505791195,49.77447200320154],[-97.14863592334322,49.77540075444887],[-97.14529579133408,49.77625597475628],[-97.1440011536385,49.776431804600485],[-97.14132701767544,49.776916794101055],[-97.13871511370547,49.77713451409766],[-97.13620703067669,49.77724694885384],[-97.1342043718396,49.77741324232008],[-97.13315661730626,49.7776358485207],[-97.13207883381338,49.7779949399547],[-97.1312908616391,49.778401373278086],[-97.13075010568784,49.778850862334245],[-97.13013183217012,49.77962321946119],[-97.12994926944896,49.780119422171914],[-97.12988494420404,49.78082092105666],[-97.13021602448016,49.7817436007233],[-97.13067343564842,49.78241374610128],[-97.1312592530292,49.78300143273934],[-97.13225667649166,49.78371146065916],[-97.13301230049792,49.78432678986274],[-97.1340232225276,49.78530589375616],[-97.13445152320462,49.7859937447233],[-97.13472964486208,49.78699093381066],[-97.134653057333,49.7878970593064],[-97.1343811535522,49.788414113464334],[-97.13367464691218,49.78940764955117],[-97.13275206091328,49.79037614052197],[-97.13143744385494,49.79207826927352],[-97.1297978775446,49.79501314842913],[-97.1293083395362,49.795696223259355],[-97.12873067803474,49.79626772930782],[-97.1277425408948,49.79660672468514],[-97.12703569999312,49.79654887114493],[-97.12649618676112,49.79615530707593],[-97.12594730561536,49.79558727995685],[-97.12535956796675,49.79469996107237],[-97.12467611488638,49.79387703507463],[-97.12362158248176,49.793116658359054],[-97.1226233169878,49.792620693541465],[-97.12134715161002,49.79224412564709],[-97.11957557240748,49.79209120244345],[-97.11849099169544,49.79217030176476],[-97.11741890400926,49.792466389674495],[-97.1162518901159,49.793121227745274],[-97.11553527626155,49.793776863277905],[-97.1150750494919,49.794782402147185],[-97.1149237443798,49.795657531522494],[-97.11500476492436,49.79669227891798],[-97.11559756131597,49.79784976844588],[-97.11733494217304,49.79959135911312],[-97.11852386604528,49.80035230967086],[-97.11989925808784,49.80106698244988],[-97.12144965270016,49.801721898335146],[-97.12581803702666,49.80326727375535],[-97.12789818029869,49.80428006660867],[-97.12845743404532,49.80500198640691],[-97.12850474698362,49.80567436533118],[-97.127474374331,49.80657945698742],[-97.12315333444228,49.80806322863099],[-97.11827715824916,49.80940396070342],[-97.115172566017,49.81069380907681],[-97.1145741467462,49.811191871301865],[-97.11392940954184,49.81241846070104],[-97.11385138415,49.81277120783481],[-97.11393713812949,49.81404500932311],[-97.1141119819364,49.814458100586464],[-97.11514195351111,49.81570421636016],[-97.11546929641408,49.81597210571347],[-97.11735760366808,49.81705212743272],[-97.11777877119977,49.81722175067696],[-97.11996741066592,49.81780326511512],[-97.12049012780106,49.81787517254365],[-97.12340849614012,49.81793057403003],[-97.12424325338716,49.81778405971787],[-97.126557120676,49.8168413050823],[-97.12961909989662,49.81529856765644],[-97.1322921156221,49.81425855433449],[-97.1346450531675,49.81382142748581],[-97.13738211436002,49.81405321916887],[-97.13861409887986,49.814471145419866],[-97.13953671046526,49.81497924522402],[-97.14024408560256,49.815975324143125],[-97.14037408222204,49.81661521971714],[-97.14033484425232,49.81755093789998],[-97.14041133599304,49.81838647500223],[-97.14085010454691,49.821035917691816],[-97.14135579941988,49.82203117531904],[-97.14271504193694,49.8239977551168],[-97.1457709723316,49.826946396774495],[-97.14675010246792,49.828257012465286],[-97.14700059738688,49.82890361296381],[-97.14698135598464,49.82981866336454],[-97.14657749227504,49.83054747945935],[-97.14568406760677,49.83106452736152],[-97.14465373167332,49.83122149942496],[-97.14355368329278,49.831235349073246],[-97.13964737407191,49.83054700468726],[-97.13719162144557,49.83025399682225],[-97.13551796264628,49.83028259746489],[-97.13368058278546,49.83053092454729],[-97.13207092912069,49.831114869854915],[-97.1309158314822,49.8318159561296],[-97.13055377619298,49.832157584747094],[-97.12998155049674,49.83307187553665],[-97.12964974907656,49.83421960553112],[-97.12986373923933,49.83547866779566],[-97.13007762278107,49.835852751798974],[-97.1316082548205,49.83742363435943],[-97.13335409193238,49.83893039225333],[-97.13543483543484,49.840182949095286],[-97.13597013245708,49.840766841340645],[-97.136169168422,49.84131248164787],[-97.13599505725008,49.84202644402986],[-97.1353725095279,49.84238257551097],[-97.1342266294299,49.84264976033707],[-97.13336815250382,49.842716977430975],[-97.13190381601932,49.84259905430198],[-97.13055127598965,49.842323641674746],[-97.12837486235682,49.841609885033186],[-97.1263377982768,49.84098163742093],[-97.12394325542203,49.84061676193435],[-97.12344711168404,49.84060124327864],[-97.12164885297808,49.84074013957561],[-97.12100621004346,49.84089191661338],[-97.11988912248522,49.841366705960105],[-97.11950699046122,49.84160101571658],[-97.11858312888266,49.84246856082132],[-97.11797903609344,49.8435890201147],[-97.11785239584832,49.84470721792198],[-97.11793150886544,49.84509525554758],[-97.11844997990006,49.84605746404894],[-97.11891172543466,49.84666030655415],[-97.12016777552876,49.84787770596591],[-97.12513030381898,49.850700613829346],[-97.12697001907613,49.851687946886535],[-97.12832436428558,49.852468561659],[-97.12966910733276,49.852931651774455],[-97.13139856643876,49.85331783820059],[-97.13314150488752,49.85354584420175],[-97.133593281151,49.85355973907495],[-97.13551502550902,49.853429335592274],[-97.1359841623163,49.85334594643142],[-97.1372855655217,49.852953222739586],[-97.1388354466508,49.85236975828274],[-97.14074071546946,49.85160297444091],[-97.1421516604304,49.8511657049891],[-97.14315397708695,49.85106761383366],[-97.1438239203692,49.8513342818678],[-97.14402101314184,49.851661437323365],[-97.14395516713034,49.85207063566882],[-97.143441709725,49.85249472795956],[-97.14265402434935,49.85284802609083],[-97.14069062958156,49.85345826604033],[-97.13958039173774,49.853629667769546],[-97.13759094287492,49.853838775352656],[-97.13545816199802,49.85387398348012],[-97.13264241130642,49.85385389396375],[-97.12992027363757,49.85407908796513],[-97.12812174116996,49.85436022410906],[-97.12618356953357,49.85471475099835],[-97.1237327612738,49.85533323628826],[-97.12122060701532,49.856158535594055],[-97.11887323063377,49.85720851240544],[-97.11696777663435,49.85844103178484],[-97.1153238084928,49.85976338294843],[-97.1140479763823,49.86123796361663],[-97.11276621393004,49.86285062527886],[-97.11191566557332,49.864448111316534],[-97.11130555923285,49.86584377126847],[-97.11114607240478,49.86748971456745],[-97.11118663434948,49.86776358077918],[-97.1116571927996,49.869014788717536],[-97.11261719941704,49.870190929884885],[-97.11303770747575,49.87049695466787],[-97.11462188622248,49.87120965560969],[-97.1164026285303,49.87167211558434],[-97.11838064856671,49.87200754727442],[-97.1211538131439,49.87213995082114],[-97.12391066685552,49.87203655507578],[-97.12682350199,49.87164258608869],[-97.1294935488249,49.87122247301437],[-97.13165007848976,49.87103356824245],[-97.1329875966273,49.87109986097246],[-97.13428076836912,49.87141328344652],[-97.13495414913729,49.8717530930144],[-97.13572512144889,49.87272624842074],[-97.13594292182168,49.87388534980078],[-97.13592359313768,49.87500902275375],[-97.13569530263844,49.87553406245802],[-97.13505490290176,49.87665814264576],[-97.13459593095968,49.87723811574659],[-97.13159455379204,49.88022112941075],[-97.13055786239563,49.88097929590563],[-97.1291588035416,49.88218761359985],[-97.12731944053094,49.88366737412744],[-97.1257475190288,49.88510513392874],[-97.12510909616609,49.88559832730464],[-97.12461208729756,49.88609592005585],[-97.12412357764458,49.88703866924038],[-97.12411671370803,49.8888968488148],[-97.12429968592072,49.889775523611895],[-97.12446475317644,49.890098134081654],[-97.12532301041183,49.8910225867745],[-97.12716701227124,49.89342522432746],[-97.12930931608784,49.895737460996976],[-97.12967733162569,49.89626259470355],[-97.12982799392604,49.89726199991583],[-97.12940795494298,49.89813952882755],[-97.1283507345586,49.89873306250999],[-97.12544546586504,49.89967015568116],[-97.12406030039492,49.8998873753168],[-97.12353556845083,49.89990636420731],[-97.12053030656212,49.89971466972321],[-97.11584981545488,49.89947017627168],[-97.11410095582453,49.89941303993737],[-97.1120812029082,49.89950723741273],[-97.11157383155157,49.89957957070518],[-97.1114611652565,49.898716856953094],[-97.11282850236375,49.89809880456944],[-97.11484588953552,49.89675372117669],[-97.11513372829629,49.89598595003199],[-97.11496454415878,49.89553558363885],[-97.1146196686834,49.89517171414463],[-97.11390324256662,49.89481693307965],[-97.11335680058792,49.89469314183991],[-97.11242825532938,49.89468693533185],[-97.11131354730206,49.8947776545806],[-97.11131472817767,49.89419143232351],[-97.11114100042572,49.893786917680366],[-97.11078938769823,49.893422479239995],[-97.11081257534924,49.893067657376385],[-97.1110927101482,49.89244550855251],[-97.1110102868498,49.89204734470151],[-97.1106351773516,49.8916033430786],[-97.10962803389808,49.89124071559396],[-97.1089781064772,49.89124682867396],[-97.10775362301804,49.89144564873611],[-97.10715715979438,49.891631610342],[-97.106776841957,49.891133666135474],[-97.106013095998,49.89069423805427],[-97.1066130756734,49.89027164817104],[-97.10682390727082,49.88981530073152],[-97.10772872538902,49.889685629388985],[-97.10863952351217,49.88916927843681],[-97.10887940016627,49.88884266710705],[-97.10890212486284,49.888216809885584],[-97.10845016757683,49.88747368255377],[-97.1088355683151,49.88700973083045],[-97.10887217746092,49.88644551919021],[-97.10870670852356,49.88611421281846],[-97.1080996063545,49.8856411065569],[-97.1075230625664,49.88547524720454],[-97.1081338698692,49.88483951112129],[-97.10825712812782,49.88421530141085],[-97.10800808349518,49.88356512501599],[-97.10751176066408,49.88316572102496],[-97.1064179078094,49.88294051803483],[-97.10617978377924,49.88278397912941],[-97.10642083711905,49.88198366776776],[-97.10608557688244,49.88137678989206],[-97.1051570662194,49.88103240188971],[-97.10438830655396,49.881085871969006],[-97.10367232203704,49.88146243505221],[-97.10346054364636,49.88180435762024],[-97.10228892825153,49.88238485388858],[-97.10200333645204,49.88266394860787],[-97.1018091859783,49.88311864599821],[-97.10203498298948,49.88378507929216],[-97.10240058312394,49.88408726843466],[-97.10349550551372,49.88445075531869],[-97.10428283687936,49.884909631889784],[-97.10420259716469,49.88512149703467],[-97.10354032988953,49.885625810460425],[-97.10334504061326,49.88635360604575],[-97.10362976391754,49.886853286171835],[-97.10417102469684,49.8871867478293],[-97.10408183384128,49.88758893721502],[-97.10429043518236,49.888094391014995],[-97.10407357513118,49.888316165302754],[-97.10383293142584,49.88901306808255],[-97.10328542668807,49.889178951180504],[-97.10269800118978,49.889633387749086],[-97.10248936716208,49.89021624893594],[-97.10292045174924,49.89134843958905],[-97.10322883774722,49.89169067094881],[-97.1043425829765,49.89229871242072],[-97.104771730284,49.89298944755822],[-97.10511210494492,49.8932592342703],[-97.10583238762489,49.89352713145696],[-97.1068284747769,49.89364386134549],[-97.10779494697574,49.89354667210121],[-97.10801052918994,49.894216171529415],[-97.10830318873492,49.89452378123508],[-97.10813119490282,49.894837456156935],[-97.10813271379102,49.8953307857449],[-97.1084572872058,49.89587931780202],[-97.1090534657237,49.89630448101427],[-97.10967343304732,49.89649147051226],[-97.11079626623616,49.89668076357117],[-97.10955706339344,49.89719313046087],[-97.10888330309932,49.89765281423384],[-97.10851484342328,49.8983317271553],[-97.1084705745524,49.898898435855855],[-97.10858655745427,49.899712885657834],[-97.10877995064212,49.90036801917352],[-97.10838985309988,49.90062331449853],[-97.10734370343329,49.90169674528593],[-97.10703865820172,49.90252917917891],[-97.10701991721074,49.90283266066731],[-97.107228561724,49.903798329609515],[-97.1078676990968,49.904548070200434],[-97.10858866521409,49.905028928558394],[-97.1092739535387,49.905355641080504],[-97.11034958168511,49.905746716516745],[-97.1126163578019,49.9062599968443],[-97.11487855186958,49.90691573785999],[-97.11581950323765,49.907297505541926],[-97.1198465159287,49.9092854864095],[-97.12285999049108,49.910859297677426],[-97.12379413566778,49.91146087962609],[-97.1247530692859,49.91225865912897],[-97.12500416637408,49.91269205630661],[-97.12503908917142,49.91323444094326],[-97.12545298823808,49.91394824372291],[-97.1255607694342,49.914948462123945],[-97.12544792851888,49.91529170241397],[-97.12498952996508,49.915987987159035],[-97.12409785281034,49.91699359469143],[-97.12343320532564,49.917606572995034],[-97.12267241547008,49.91796132687602],[-97.1218274447259,49.91825890910721],[-97.11806273863864,49.9189328089465],[-97.11673794145686,49.91907318389036],[-97.11533967798051,49.91941134095462],[-97.11388919746042,49.91995652829038],[-97.11248680802896,49.920712521117935],[-97.11113770765978,49.92177101590333],[-97.11018706509758,49.92276091501455],[-97.10926069852252,49.924135806027586],[-97.10869217342535,49.925503426060224],[-97.10838930648148,49.92709818242084],[-97.10876922286906,49.929432388978185],[-97.10955548062982,49.93160584943165],[-97.1098294954243,49.933034930470384],[-97.1099344011802,49.93445361771211],[-97.10965833351634,49.935362345382934],[-97.10889805736372,49.93637497855433],[-97.10821882882404,49.93685007393213],[-97.1064297669014,49.937655258642344],[-97.10412225682424,49.93821110137823],[-97.10028789441618,49.939023669697434],[-97.09967271613358,49.93917615366444],[-97.09742294711732,49.94000483431435],[-97.09709081772098,49.94017103507189],[-97.0957550163605,49.94105951843723],[-97.0948108037173,49.942147064742336],[-97.09464370806988,49.94256718626532],[-97.09462066568176,49.94345253387031],[-97.09483669238917,49.94457962887324],[-97.0955659541654,49.94586804075883],[-97.09658806284716,49.94718455334994],[-97.09675661645215,49.94840481973469],[-97.09674266492718,49.949074228956974],[-97.09646838703648,49.94972072859529],[-97.09582510960394,49.95025875742195],[-97.09510555594422,49.95051217787163],[-97.0942762223356,49.95058503274523],[-97.09226694167307,49.95040409762613],[-97.08976621576105,49.94997062514067],[-97.0893884747851,49.94993758580645],[-97.08687203397668,49.949926186112975],[-97.08641447863552,49.94997025667625],[-97.08440551931588,49.95037604626299],[-97.08281438350971,49.95092280111711],[-97.0810439951884,49.952011622332634],[-97.07927203410712,49.95338947553307],[-97.0770793064818,49.95517269107019],[-97.07484268718108,49.956930882758904],[-97.07266991623952,49.958522227770494],[-97.07174458943226,49.95938474271108],[-97.06904252097829,49.96221667056893],[-97.0703,49.9627],[-97.073,49.9599],[-97.0742329677112,49.96046044112198],[-97.07497663819848,49.959754089904656],[-97.07713969381524,49.95816889862021],[-97.07940067745724,49.95639146829748],[-97.08160631777848,49.95459787471729],[-97.083288899391,49.95328981086227],[-97.08470956368896,49.95242385217664],[-97.0854152137338,49.952195382871366],[-97.08708509785882,49.951858080492734],[-97.08917535715564,49.95186754916609],[-97.09158012120083,49.95228438802141],[-97.09406690429324,49.95251577849672],[-97.09578237476306,49.95240141576272],[-97.09629738384822,49.95229222261756],[-97.09790127937949,49.951674802064346],[-97.098946263583,49.95080928320731],[-97.09940335959928,49.95021349437103],[-97.09969898624038,49.949388363620024],[-97.09974962390903,49.94838464814197],[-97.09951487185072,49.946718333751626],[-97.09938948621092,49.94648362657305],[-97.0983427080142,49.94514598300946],[-97.09771276484936,49.9440331794422],[-97.09762619903071,49.94283728217299],[-97.09805567630016,49.94230200075938],[-97.09909022127977,49.9416138652009],[-97.10102872044492,49.94089982320528],[-97.10508400343998,49.94003951011819],[-97.10765318032796,49.9394214471937],[-97.10798568038943,49.93930888333451],[-97.11006340097828,49.93837376271292],[-97.11124679607376,49.93757925920965],[-97.11149354712131,49.937345573959824],[-97.1125565567204,49.9358565318182],[-97.11293094946603,49.93447843997122],[-97.11281459239544,49.93290644198751],[-97.11248472469364,49.93121169757688],[-97.11173372954934,49.929168931843776],[-97.11138289704787,49.92701437992205],[-97.11164029084765,49.92583376629916],[-97.11211637683928,49.92471328025774],[-97.11279297950884,49.92371038039822],[-97.11352967980442,49.92293140061398],[-97.11453953802956,49.92211932184803],[-97.11551157215982,49.92158073946283],[-97.11672356011373,49.92112518464106],[-97.1175784491555,49.92092924979723],[-97.11882501054532,49.92079985402826],[-97.12279199349555,49.920089735635585],[-97.1243465412149,49.91956218554374],[-97.12553785295415,49.91899985685536],[-97.12660308176966,49.91806547011052],[-97.12691687991996,49.91763975777886],[-97.12760656367271,49.91693804386677],[-97.12826713892922,49.915950112624664],[-97.12852337208172,49.915234119146774],[-97.12851286698566,49.91419171253861],[-97.1283908594696,49.91356965898072],[-97.12799981578311,49.912867034859985],[-97.12789374792918,49.91216991260596],[-97.12725419653196,49.91119087473908],[-97.12609758553916,49.91022869059552],[-97.12480027156316,49.90938969892499],[-97.12167816117712,49.90775966672713],[-97.11758039298238,49.90573680991695],[-97.11619745672192,49.9051819351063],[-97.11378259806295,49.904481952267865],[-97.11147975484032,49.903956848788894],[-97.11049541376757,49.903539676344906],[-97.11009850840668,49.90320594127925],[-97.11010580367557,49.902468866981025],[-97.11072988100568,49.90183364191323],[-97.1110111883578,49.90169100020663],[-97.1124505111094,49.901425579783094],[-97.11421955149574,49.90134307397186],[-97.11562612422442,49.90139533330336],[-97.1202761727238,49.901638238146205],[-97.12335675064992,49.90183489457796],[-97.12463277286552,49.90178422452951],[-97.1263067088314,49.90152171767483],[-97.12805357426878,49.90099778830569],[-97.12982090164948,49.900415874374794],[-97.13096310531412,49.899869505357366],[-97.1317365050086,49.899363995809495],[-97.13205110551743,49.8990596871273],[-97.13249998648855,49.8983701799452],[-97.13278817318016,49.89754619002303],[-97.13278762695042,49.89655479245945],[-97.13247872938508,49.895578985783715],[-97.131908601002,49.89478303064398],[-97.1297733857478,49.8924800528624],[-97.1279393449133,49.890088166325235],[-97.12721960123312,49.88933081647465],[-97.1271027184666,49.888803989737795],[-97.1271068148734,49.88723559002894],[-97.1275710571867,49.886695439942066],[-97.13055804832769,49.88676578661211],[-97.13214539000856,49.886750494978486],[-97.13458872560376,49.88643657623087],[-97.13672281621508,49.88590686190988],[-97.13784951755936,49.88549715058298],[-97.13991633889056,49.88458393033158],[-97.14107900261716,49.884012974027456],[-97.14213698799652,49.883591154908366],[-97.14317184749224,49.883261767898446],[-97.14450144429443,49.883024722199096],[-97.14622510808466,49.882806962999936],[-97.14956070571584,49.88267152982218],[-97.15097915261374,49.882702265910936],[-97.15208875209386,49.88263291991889],[-97.15330342233584,49.88231125527285],[-97.15482691110948,49.88179704504768],[-97.15572826353043,49.88126587252095],[-97.15620887195205,49.88070023867473],[-97.1564941470104,49.88000300575482],[-97.15658626858314,49.879241116859475],[-97.15617544609177,49.87855109649895],[-97.15470731174868,49.87720338510706],[-97.15445406665542,49.87687530407395],[-97.15382826315526,49.87526379334561],[-97.15448078345985,49.87485003813411],[-97.15553645806452,49.87473247977679],[-97.15692000147553,49.87507423845545],[-97.15743446902395,49.87547381207202],[-97.15823671771184,49.87640824159895],[-97.15883271017758,49.87736639832621],[-97.15953982178968,49.87818230343402],[-97.16028199191246,49.878716388949464],[-97.16090066372432,49.879049198427325],[-97.16219322280544,49.879408911672186],[-97.16346432842062,49.87957479906142],[-97.1640344806848,49.87956841415091],[-97.16549142331014,49.87932714342265],[-97.16716757939672,49.87873186820621],[-97.1699168426042,49.87756945937818],[-97.17077661401692,49.87730545189137],[-97.1718483257588,49.87716049047883],[-97.17348035199568,49.87716049047404],[-97.1746753166467,49.87732150553271],[-97.17562535259827,49.877619333656725],[-97.17683580749777,49.87826389895102],[-97.1778694187854,49.87902293644456],[-97.17899306612118,49.879675196361376],[-97.18031237639153,49.880166943775066],[-97.18183079346552,49.88045716467209],[-97.18346226068896,49.88047870525338],[-97.18512940540198,49.88030326335462],[-97.18682046854988,49.87992285365328],[-97.18967832013098,49.87918962692286],[-97.19071348228336,49.879105765845715],[-97.19204689484047,49.87918254974465],[-97.19410940460718,49.87939379912826],[-97.19568472545186,49.87943099902371],[-97.1977763281985,49.87923140268868],[-97.19968716166451,49.87869698951381],[-97.2008968955325,49.878254413192096],[-97.20379789679244,49.87783896588106],[-97.20580930986615,49.87803021365685],[-97.20698210411337,49.878015758800025],[-97.20814252801824,49.8777579057865],[-97.20912008170416,49.87720701550912],[-97.20961090200456,49.876658528339526],[-97.20977395357026,49.87577588067399],[-97.20963237362386,49.87487033856015],[-97.2102379174403,49.87470418180784],[-97.21234569774788,49.87522101567554],[-97.21407310669366,49.875348366797944],[-97.21517841513504,49.87527375864797],[-97.21647989415408,49.87509694577077],[-97.22010944028304,49.87429399877889],[-97.22101748729813,49.87413360109235],[-97.22190480050337,49.87409943935483],[-97.22285350619782,49.8742629794796],[-97.22550996798276,49.87530979290987],[-97.22879632589613,49.876219615374616],[-97.22985123210783,49.87646634811419],[-97.23106322234686,49.87658418571572],[-97.23312996264332,49.87655077710112],[-97.23537928352546,49.87665797475983],[-97.23700756498992,49.87664816507971],[-97.23837916066871,49.87644993567507],[-97.2406967083,49.87600742427558],[-97.2411821155723,49.87586710199425],[-97.2432830600195,49.876082740560015],[-97.24384565441686,49.87607106999067],[-97.24482385084248,49.8758292317937],[-97.24529840302544,49.87563066684982],[-97.24634767578156,49.87497965995777],[-97.24688470163892,49.874855412289655],[-97.24915436688914,49.87495410541781],[-97.25144075962072,49.87482071074823],[-97.25638985571403,49.87369678226565],[-97.259769297622,49.872802657446826],[-97.260942500663,49.87274668785972],[-97.26228105247708,49.87292166107399],[-97.26564133136812,49.872933161382896],[-97.26609047044518,49.8728900781808],[-97.26822351371187,49.87246366723869],[-97.2686877258105,49.87230909512192],[-97.27078758298504,49.87127416922845],[-97.27217219825332,49.870782792292495],[-97.27327213452016,49.87057166619651],[-97.2745634895836,49.87057819327769],[-97.27743983671547,49.87101516723306],[-97.27827339077967,49.87098690511232],[-97.27951341492182,49.870707298021294],[-97.28017091501329,49.87041215703035],[-97.28094790972932,49.869806646647696],[-97.2812263974053,49.86947297279002],[-97.28166057513418,49.868507454777806],[-97.28183794280612,49.86759595172238],[-97.28178587343352,49.86719652751879],[-97.2805993537737,49.864656407720894],[-97.27958739929156,49.861771494500175],[-97.28003312117076,49.860909398961184],[-97.28104016570408,49.86024213017465],[-97.2822416409056,49.8600528116468],[-97.28398722576496,49.86026621658996],[-97.28542171141852,49.861134441446545],[-97.28575793389224,49.86223982081209],[-97.28601528881968,49.86262113904086],[-97.28725977349904,49.86372765651637],[-97.28795063933404,49.86406559482597],[-97.29108349894128,49.86481261364917],[-97.2915843501976,49.864872193130466],[-97.29558160667648,49.864899541902105],[-97.29876462667237,49.86502313630126],[-97.30058990062116,49.8656836249209],[-97.303107397085,49.86648370320703],[-97.3068840722157,49.86728592367639],[-97.30729700119242,49.86733354309777],[-97.3102124466222,49.86740068127414],[-97.31081007765312,49.867888637069534],[-97.31123190914867,49.87016289959548],[-97.31154978182322,49.87065195858023],[-97.31335392892096,49.872060069438035],[-97.31554264602082,49.87313879247823],[-97.3161817375023,49.87332098833382],[-97.31901420078728,49.87365289710611],[-97.31963535158457,49.87364075101869],[-97.32190990035689,49.87328124163845],[-97.3224576993868,49.87311264447821],[-97.32281736032408,49.87285949936247],[-97.32402848566402,49.87162138146105],[-97.32569259627329,49.870199552980786],[-97.32720696388375,49.86951894862526],[-97.3327237465655,49.86813391666506],[-97.33370591512389,49.86782670097225],[-97.33767442932422,49.866776600277966],[-97.33888573238904,49.866534841852165],[-97.339,49.8654],[-97.3375,49.8657],[-97.3334,49.8669],[-97.331,49.8675],[-97.3296,49.8679],[-97.3265,49.8686],[-97.32628736979952,49.867678637792174],[-97.3256462115538,49.86786928231396],[-97.32379253000896,49.86870236394228],[-97.32345408655397,49.86891251946344],[-97.3216087670192,49.870489093915054],[-97.32061493830052,49.87149868816259],[-97.31923442716268,49.87171688404759],[-97.31706808594896,49.8714630341825],[-97.31531011882863,49.87059662985184],[-97.31414645981708,49.869659191532755],[-97.31372509210748,49.86738828625074],[-97.3134132229357,49.86690410942792],[-97.3118545659385,49.86568166125537],[-97.31100811185053,49.86548745790696],[-97.3076150766054,49.86540933768447],[-97.30414279448593,49.86467178091113],[-97.30195495164124,49.86396664206219],[-97.2999266355662,49.86323123618256],[-97.29928567970242,49.86310958995102],[-97.29565005438036,49.86296960939131],[-97.2918744388979,49.86294378290415],[-97.28940880562884,49.862355871857744],[-97.28862426026136,49.86165834138451],[-97.2882586045148,49.86045646481035],[-97.28781403118344,49.85993813802789],[-97.28571123563292,49.85866546297908],[-97.28496827071038,49.858421675000535],[-97.28247922606114,49.858117383030375],[-97.28184825655812,49.85812802604084],[-97.27991709797942,49.85843231810114],[-97.27920202871393,49.85869601029721],[-97.27765702743577,49.8597196910979],[-97.27730965435336,49.860087736948955],[-97.27662301373466,49.86141562564309],[-97.27658293779122,49.86193498402496],[-97.27769863091672,49.86511630291628],[-97.278835295329,49.867558309238845],[-97.27871349342423,49.86818402249136],[-97.27845817160647,49.868723145605145],[-97.27813734659566,49.86897315234921],[-97.27770002606457,49.86907176054384],[-97.27508411328591,49.86867434674665],[-97.2730724975288,49.868640266088605],[-97.27263567544226,49.86868017600203],[-97.27087497916594,49.86904097982182],[-97.2690653908992,49.869695421650334],[-97.26708757465244,49.87067017887126],[-97.26542738277809,49.87100205945754],[-97.262462469331,49.87099191136003],[-97.26094755053828,49.87081084867753],[-97.25931258861188,49.87088884658812],[-97.25885595941284,49.8709583815619],[-97.25536354779732,49.87188379885913],[-97.25063765015872,49.87295703121531],[-97.24924950890278,49.873023519261565],[-97.24677468858516,49.87291590073641],[-97.24617103922266,49.87297019761548],[-97.24504036101408,49.8732317909998],[-97.24450943031358,49.87344423936331],[-97.2433420137404,49.87413423388359],[-97.24147078067244,49.87394216827643],[-97.24040290523222,49.87397271975797],[-97.23953039351004,49.874217264884074],[-97.2375828856087,49.87458911410385],[-97.23653223636876,49.874739112374485],[-97.23555401937595,49.874730689435154],[-97.2332761654275,49.87462213132921],[-97.2311369944196,49.87465201988477],[-97.23051349676426,49.874581534283834],[-97.2267879944578,49.87356358792534],[-97.22423487090568,49.8725455874387],[-97.22244158696716,49.87219412971077],[-97.22196787858528,49.87216323317021],[-97.22037986153984,49.87224507418972],[-97.2191630019667,49.87246276493128],[-97.2156542090636,49.87324110716345],[-97.21392764221537,49.873418055680126],[-97.21325067956384,49.87337626258128],[-97.21195940555567,49.87304479359685],[-97.21075863552193,49.87280082715397],[-97.20977395060896,49.8727344671991],[-97.20849619033136,49.87294747765571],[-97.20747248553124,49.873453534236745],[-97.2069617950589,49.87391633307664],[-97.20666797128804,49.874583237165034],[-97.20663527759731,49.87490279404401],[-97.20678686136084,49.87587277523379],[-97.20649984393978,49.8760996177814],[-97.20611170970103,49.87610780452477],[-97.20398293142574,49.87590539477113],[-97.20348507864088,49.87591227717251],[-97.20006574258085,49.87639364113265],[-97.19842272888614,49.876947206835574],[-97.19678368770096,49.87740560114167],[-97.19565361802948,49.8774992356921],[-97.19448211690649,49.87747748789632],[-97.19246423231776,49.87727080924104],[-97.19081895106603,49.87717381031795],[-97.18912933105403,49.87728860200072],[-97.18729862697144,49.87770915650417],[-97.1857244070662,49.87812688990297],[-97.18427630580014,49.87845127279495],[-97.18331373022832,49.87854946478249],[-97.18240237600706,49.8785577245522],[-97.181583750187,49.8784163242305],[-97.18084520834176,49.87815667629156],[-97.18005020631152,49.87770231610656],[-97.17882776913072,49.876823298243394],[-97.17738737751114,49.876056314144186],[-97.1754658270646,49.87545613049301],[-97.17363437721582,49.875230114187936],[-97.1716937227842,49.875230114187936],[-97.16999045099236,49.87543958202031],[-97.1683900620542,49.875909211893294],[-97.1655631522,49.877102975070834],[-97.16425242890028,49.87756498288742],[-97.16369763597136,49.877641173210144],[-97.16252541945676,49.877415114243455],[-97.16190370712506,49.87699703866672],[-97.16157415965075,49.876597988842626],[-97.16089374069382,49.875524198609504],[-97.15997821724775,49.87445791250653],[-97.15902688772093,49.873692639438936],[-97.15857630661029,49.873456521469706],[-97.15750718305564,49.87310948894597],[-97.15620850926533,49.87284549571052],[-97.15470435618792,49.872806048776106],[-97.1532684595352,49.873080022748255],[-97.1521053809561,49.873584815527735],[-97.15126420965444,49.874252064112625],[-97.15081575184696,49.875076674724895],[-97.15083236599678,49.87546010384455],[-97.15160969903894,49.8774727003536],[-97.1521997419862,49.87825496766618],[-97.15357994122684,49.87952203808366],[-97.15323102927351,49.88015852260116],[-97.15139915291344,49.88074311195693],[-97.14958867998256,49.880740638189714],[-97.1457546651651,49.880899432624304],[-97.14387240688885,49.881137226354795],[-97.14224106426543,49.88142516701067],[-97.14062870674536,49.88192417775818],[-97.13932653535127,49.88244882704626],[-97.13819819116344,49.88300447268642],[-97.1362117790711,49.88388214381035],[-97.13552187985132,49.88413788650368],[-97.13387284386658,49.88456032360008],[-97.13170968553024,49.88483824313894],[-97.12971820273133,49.88482037372915],[-97.13150417871006,49.883383488261074],[-97.13291201909512,49.88216847158575],[-97.13403768631376,49.88133442844846],[-97.1371426320326,49.8782482832596],[-97.13782710658276,49.87737944895816],[-97.1385187707918,49.87616523769018],[-97.13890820189545,49.87515799517631],[-97.13893025512706,49.87387049479307],[-97.1388462208951,49.873066238757325],[-97.13848754464628,49.87197758396583],[-97.13746231377694,49.87068359980759],[-97.1370520911744,49.870362736213465],[-97.1355437008238,49.86965777751157],[-97.1334274566061,49.86918565898777],[-97.13140582196208,49.86910698115386],[-97.12886265520577,49.86933502699984],[-97.12613679030324,49.86976392014022],[-97.12361161314465,49.87011457281554],[-97.12127182686024,49.870209985944385],[-97.11874786760109,49.87008948202691],[-97.11728534802154,49.86982715254331],[-97.11591928704912,49.869466958637126],[-97.11506107538904,49.86906176216811],[-97.11451054136938,49.86842945900228],[-97.11413934559634,49.86744264187124],[-97.11422630294304,49.866260825942234],[-97.11475325107932,49.86505016881601],[-97.1155535914494,49.863546786887326],[-97.11666488533557,49.86216770019064],[-97.11786559390968,49.86077984177879],[-97.11923514531222,49.85969773698817],[-97.12068765561474,49.858744152140375],[-97.12283313041266,49.85778446182651],[-97.12500776610212,49.857079221155686],[-97.1271942138297,49.85653164001274],[-97.13038433573438,49.85598666763162],[-97.13291474194888,49.85577733369713],[-97.1354402929299,49.85580428568652],[-97.13776853088324,49.855766701781704],[-97.14011346450948,49.85552920652101],[-97.14152192083324,49.85531442085756],[-97.142946921876,49.85491774318686],[-97.14410207699672,49.85453723037686],[-97.1452925645293,49.85401376986758],[-97.14627043002832,49.85333616760716],[-97.1468059794067,49.85267568564615],[-97.14695663591073,49.85220713588553],[-97.14699474011285,49.85139693800587],[-97.14677846637088,49.85085975410914],[-97.14610389160286,49.85008145694229],[-97.14529568288356,49.84957934047233],[-97.1446349755756,49.8493593240859],[-97.14336323179316,49.84913585772657],[-97.14217444031414,49.84917104516678],[-97.14099597340449,49.84938340714147],[-97.13923286067468,49.84993625586851],[-97.13727689335806,49.850723428380135],[-97.13584570536314,49.85126174039813],[-97.13495817203923,49.85152630855974],[-97.133509250541,49.851624626935696],[-97.13209391102338,49.85143947708967],[-97.13078031489135,49.85113843938997],[-97.12992683944223,49.85083543982214],[-97.12891175122236,49.85022155807724],[-97.12706484692076,49.84923039800067],[-97.1223095380111,49.84652632967665],[-97.12147555048575,49.84567078708321],[-97.1208517686502,49.84464884309561],[-97.12093939938391,49.843874592227785],[-97.12129259491364,49.84328808495338],[-97.1217518509893,49.84288467867813],[-97.12235172699462,49.842629711427755],[-97.12355098789648,49.84253708001607],[-97.1252087010111,49.842771781654235],[-97.1270412589846,49.84333667515205],[-97.12931094492892,49.844081030888866],[-97.13113669582938,49.84446642540939],[-97.1331812014564,49.84464698362459],[-97.1350799825238,49.8445025696584],[-97.13658491142122,49.84415166079502],[-97.13785562096623,49.84357505900502],[-97.1386857722783,49.842914206246846],[-97.13905567167524,49.84213526435277],[-97.1391601629058,49.84126697327569],[-97.13882245081878,49.84017998691423],[-97.1386536455184,49.83990938765999],[-97.13761205223132,49.83885507891496],[-97.13565571389243,49.837698517181195],[-97.13410007597687,49.83636085158246],[-97.13277017227476,49.83499606118663],[-97.13263167496125,49.83438731396957],[-97.13280921205188,49.833697452532064],[-97.133196651745,49.83307834253811],[-97.13396367567782,49.8326127802697],[-97.13485247134578,49.83231248370558],[-97.1359212746556,49.832195923331355],[-97.13681985919744,49.832172027528834],[-97.13892480536202,49.83242008777436],[-97.14297629435636,49.83313401556867],[-97.14479544913937,49.8331501571264],[-97.14586605407644,49.833063203326454],[-97.14691830740644,49.83282750492505],[-97.14808332529957,49.83231251298641],[-97.14892045189914,49.83175183449145],[-97.14965234465956,49.83082154984792],[-97.14994336563088,49.83006702703387],[-97.15002294354348,49.82945142565658],[-97.1499289442026,49.8285227790879],[-97.14950301559963,49.82750635250302],[-97.1483037759718,49.825924068387465],[-97.14527010605374,49.82299796058203],[-97.1441085218249,49.82128665705752],[-97.14380069011216,49.82072828613177],[-97.14338023746294,49.818198629396306],[-97.14331836945712,49.81755995875359],[-97.14335892101018,49.81659123875672],[-97.14317720883564,49.81560510271034],[-97.14256160177,49.81452121996067],[-97.1416482588644,49.81360618936597],[-97.14014836712158,49.8128125371775],[-97.13854799122048,49.812269650082584],[-97.138084815325,49.81217079547284],[-97.13470387951796,49.811881951459185],[-97.13411277193046,49.81191240169939],[-97.13128043049554,49.812438588125175],[-97.13092344436716,49.81253911673604],[-97.12785749040496,49.813740121843296],[-97.1247850390135,49.815288096873616],[-97.12304423951272,49.81599286072611],[-97.12084913541597,49.81595118775457],[-97.11914448909538,49.81549827467756],[-97.11764555756515,49.814640985433506],[-97.11690207095006,49.81374154815354],[-97.11684321859444,49.81286828568257],[-97.11723159338707,49.81212932107116],[-97.11956382017888,49.81114709524199],[-97.12449435861868,49.80978751338306],[-97.12917222821304,49.808181175302096],[-97.12967372964894,49.80790116089978],[-97.13121861155356,49.80654403929723],[-97.13150763700864,49.805927766098385],[-97.1314217930066,49.80470906758743],[-97.13126517030342,49.804320481518154],[-97.13040684345368,49.80321259484452],[-97.12997031439124,49.802873965912696],[-97.12734285351634,49.80160736180728],[-97.1229324514045,49.80004715564396],[-97.12159754001642,49.79948005080708],[-97.12046035430735,49.79888406297163],[-97.11957701366916,49.79831325150504],[-97.11820002239445,49.79689615339088],[-97.11792322402476,49.79627795586955],[-97.11790640001897,49.79568985996554],[-97.11801801211074,49.79510179775571],[-97.11825481495195,49.7946013986091],[-97.11888638469108,49.79415308550857],[-97.11971609508184,49.79402199443605],[-97.12038430794608,49.79407535162454],[-97.12099285817575,49.794240500855],[-97.12215238675633,49.79491241144452],[-97.12264684197494,49.79550154301287],[-97.12325258077652,49.7964161304408],[-97.12403469243364,49.79724708406791],[-97.12499789088676,49.79796993265875],[-97.1258715175139,49.79833365654677],[-97.1267099984655,49.79848675884275],[-97.12827365267354,49.79851143175093],[-97.12933809007912,49.798308116276345],[-97.13080851751582,49.79766122869485],[-97.13135476043944,49.79722809970558],[-97.13188914955236,49.796663491790774],[-97.13258306630205,49.79570223818866],[-97.13421024925051,49.792789170053034],[-97.13538358746275,49.79128365412875],[-97.13630787972764,49.79032049494785],[-97.13717175414818,49.789095153325775],[-97.1375648131945,49.78832638720392],[-97.13771300996358,49.786991005252816],[-97.13756909105524,49.7861617981301],[-97.13725742843684,49.78533898914807],[-97.13674990553169,49.78452399732448],[-97.13622346539438,49.78391818877059],[-97.1345586643634,49.78248538822361],[-97.133550616697,49.781764676674506],[-97.13304229276712,49.78112776766514],[-97.13287542114487,49.78076542175688],[-97.13294929622928,49.78026152014921],[-97.13358647083444,49.779662788748496],[-97.1347364512545,49.779314442251945],[-97.13645720897703,49.77917006288502],[-97.1390519987335,49.779052063047054],[-97.14181486186015,49.77882175691935],[-97.1446510032071,49.77831790409586],[-97.14629860906108,49.77807427225748],[-97.14985077434224,49.77716474956794],[-97.15260657685955,49.77609179370258],[-97.15359584560174,49.77560553270131],[-97.1544768855064,49.77491172546774],[-97.15546536311048,49.7738190106508],[-97.15584734529244,49.77326297825648],[-97.15608862764728,49.77271157422348],[-97.15617105751448,49.772144646316576],[-97.15586362551252,49.77128079040326],[-97.15544490415095,49.770694223903135],[-97.15500517834688,49.770274073979365],[-97.15417753913286,49.76978898595097],[-97.15309641203612,49.769469730411366],[-97.15235512990904,49.7693719702195],[-97.15163588330276,49.76938785496146],[-97.15072016555588,49.76952836211118],[-97.1498898587434,49.76974661667467],[-97.1484722688286,49.77036417132963],[-97.14760544950587,49.77087405472993],[-97.14643440565814,49.771684041481386],[-97.14475612622536,49.77271426409698],[-97.14319899897158,49.77328232732478],[-97.14196533850526,49.77323906892849],[-97.14138403336212,49.773026787671775],[-97.140943100536,49.77262651424494],[-97.14081617586872,49.77231537661024],[-97.14082809768176,49.77032989998608],[-97.14091247859484,49.76806296416263],[-97.14091284006716,49.76607026623391],[-97.14207509986764,49.76179992373027],[-97.142199739129,49.76072143107832],[-97.14325084257744,49.76128000368795],[-97.14392965117294,49.76140965888095],[-97.14485142766917,49.76134764571853],[-97.1455205906466,49.761155575227406],[-97.14618388591396,49.76149622397307],[-97.1480602469768,49.76189336858844],[-97.1486598983272,49.76273932355322],[-97.14969641879271,49.76395178869138],[-97.15010350288296,49.76422881412672],[-97.15105639178098,49.76456847903379],[-97.15188759573302,49.76465227983593],[-97.1532031264496,49.76461487883377],[-97.15431968113047,49.76436481466097],[-97.15528678003608,49.76392972712225],[-97.15615175178344,49.763267819461895],[-97.15679240377388,49.76258862246556],[-97.15780801290435,49.76201960003943],[-97.15840695898932,49.761482277076205],[-97.15879988314568,49.76095209694268],[-97.1589312334537,49.760036133878046],[-97.15881629403086,49.759454528324575],[-97.15850596984788,49.75895516214486],[-97.15797145743112,49.758474496174045],[-97.15749278321168,49.758194671261855],[-97.1566989119398,49.75788163981238],[-97.1553164120795,49.75769832622786],[-97.1541336397718,49.75770232612057],[-97.15307386092655,49.75777783822686],[-97.15404577857372,49.756919921622845],[-97.15497711032964,49.75588275599213],[-97.15527872595942,49.755436147760584],[-97.15547263113852,49.75487948198533],[-97.15547514302423,49.75412347079575],[-97.1553735585303,49.752928754560976],[-97.15522630374718,49.75234867269208],[-97.15470804259851,49.751651310474855],[-97.15387311603514,49.75100196944859],[-97.1531900204443,49.75064617688499],[-97.15209947415416,49.75030970700443],[-97.15129940182156,49.75018284309625],[-97.15166182513885,49.74880507571706],[-97.1517799241353,49.748032267950194],[-97.1517623448723,49.747266178382645],[-97.1521668943064,49.74618301421287],[-97.15290008331957,49.74535916187539],[-97.15316760555277,49.744615860444824],[-97.15307321976236,49.74421182642742],[-97.15275524707477,49.74370554187964],[-97.15202235219118,49.74300041844482],[-97.15088655104668,49.74231094247612],[-97.15095217740608,49.74187104966572],[-97.15134257933823,49.74165694531795],[-97.1520071194425,49.741552915465675],[-97.15347287487856,49.74163502678052],[-97.15507578536634,49.7421933435337],[-97.1557319327347,49.742370955910445],[-97.15629678309286,49.742410115461325],[-97.15735391033856,49.742247081558375],[-97.15821203879632,49.741857057844726],[-97.15862722777872,49.741418740890225],[-97.15882347717972,49.74101825612017],[-97.1587162666466,49.739806434432985],[-97.15893877047624,49.739100777781005],[-97.15983228056923,49.73799640079197],[-97.16027658632058,49.73703964730495],[-97.1610332403682,49.73680070732874],[-97.16266508531066,49.73639448562978],[-97.16377327952571,49.73620774245178],[-97.16464050693192,49.735926118681405],[-97.16566417883804,49.73547886687473],[-97.16753255669376,49.73428535490046],[-97.16788714819091,49.73417839080844],[-97.16868354921117,49.73418244950393],[-97.169339869689,49.73404466564171],[-97.17036845243533,49.73360641547835],[-97.1707799901956,49.73323765988099],[-97.17114849527286,49.73261409449989],[-97.171202809397,49.73214681966895],[-97.17075992002704,49.73133982586306]]]]}},{"type":"Feature","properties":{"code":"WWCC"},"geometry":{"type":"MultiPolygon","coordinates":[[[[-97.23291066390816,49.895091099407885],[-97.23233898461956,49.894654102573305],[-97.2314207760704,49.89400604040412],[-97.23097976924213,49.89366173528321],[-97.2302073181608,49.89308875273392],[-97.23016694155316,49.89299067423648],[-97.23021195865412,49.892538510115024],[-97.23019275274017,49.89222859713525],[-97.23014368245356,49.89209144825472],[-97.23002060968868,49.89190179409315],[-97.22965992001922,49.891554226839595],[-97.22944219561889,49.891317107184896],[-97.22890625592436,49.89077319049129],[-97.22804597782648,49.88992332350022],[-97.22813542233143,49.88962060825251],[-97.22825303358935,49.88947776453321],[-97.22932873465732,49.888855452638985],[-97.2299632751664,49.88860422631394],[-97.230319685324,49.888400697179634],[-97.23069703182854,49.88804046683277],[-97.2307789248988,49.88790252055201],[-97.23084705191744,49.887638578327945],[-97.2308266292903,49.88736781052683],[-97.23072201671178,49.887101740832115],[-97.23015830009818,49.88581967631154],[-97.22985429637896,49.88521799276111],[-97.22971046831871,49.88503385861356],[-97.22956999752282,49.88493017791402],[-97.22920367845884,49.88471998913463],[-97.22896529324248,49.88464121298068],[-97.22826767262768,49.884534815497794],[-97.22817133391908,49.88449597896066],[-97.22775899161974,49.88388963872382],[-97.22770185586307,49.883647505709654],[-97.22760614330208,49.88349330556642],[-97.2273885925389,49.88328781546624],[-97.22717020794217,49.88317878974092],[-97.22693483388456,49.8831041946002],[-97.2265134771712,49.88304622987318],[-97.22610565983436,49.8830600348236],[-97.22597509319434,49.88267222052979],[-97.22567206048726,49.88216895565438],[-97.22566636953094,49.88189001385711],[-97.22559259604112,49.881610615785725],[-97.22546431028086,49.88133313460731],[-97.22545056135444,49.88072114228882],[-97.22546754017762,49.88036421088134],[-97.22558932830076,49.87929049429902],[-97.22582317202163,49.8790424435819],[-97.22592140624717,49.87883756190714],[-97.22601444321818,49.878421108031795],[-97.22642959912928,49.87807896407096],[-97.22652280624588,49.877914496681065],[-97.22654738062712,49.87771873459869],[-97.22652193493263,49.87759168874576],[-97.22653459051988,49.877304578242615],[-97.2264874708975,49.87716649905532],[-97.22631423688486,49.87689461259957],[-97.22646194111846,49.876735105193255],[-97.22666628743455,49.87656711754478],[-97.2268312113582,49.87637287663114],[-97.22690300325144,49.87623895382637],[-97.22696667513016,49.8758841642053],[-97.22700010159495,49.87582027446128],[-97.22729291276464,49.87563700038125],[-97.22745483290218,49.875442344464666],[-97.22752481337672,49.875232290048345],[-97.22751671403242,49.87506920845287],[-97.22744563465716,49.8748700986247],[-97.22729045688884,49.87468661559687],[-97.22713511843814,49.87458111732726],[-97.22715060592785,49.874337145971445],[-97.22700582825674,49.874067871395],[-97.22683283608998,49.87392812595473],[-97.22656044269308,49.87380559450517],[-97.226132157768,49.87373740481651],[-97.22585659313847,49.87375505514563],[-97.22554922703296,49.873835957387854],[-97.22526038067788,49.87400204149227],[-97.22506812042852,49.874258604542405],[-97.22494441116412,49.87473429450445],[-97.22491880061264,49.87496476652411],[-97.22499720099763,49.87523730774692],[-97.22485727922886,49.87563279310079],[-97.22484597132352,49.875838435556986],[-97.22440822746236,49.87606355278707],[-97.22424731181069,49.87620163534821],[-97.22415510903242,49.87632699519419],[-97.22399759620625,49.87675279620153],[-97.22399411846826,49.87691668468373],[-97.22406684825349,49.8771235072148],[-97.22417324214624,49.87726092711656],[-97.22438409320402,49.877466038966254],[-97.22425633893825,49.877642567376185],[-97.22403349161604,49.87788919391559],[-97.22394495351983,49.87810442870405],[-97.2238533987146,49.878498421848306],[-97.2235515109728,49.878840035819074],[-97.22349244047616,49.87902066945467],[-97.22334970827126,49.88027846769971],[-97.22332875909068,49.88069831957652],[-97.22333875682818,49.88091858998108],[-97.2233040771448,49.88137621671182],[-97.22335873383211,49.88158778149614],[-97.22350231195358,49.88186542335333],[-97.2235126321003,49.882132064774794],[-97.22364618701786,49.88260601686208],[-97.2238155106034,49.8828620958119],[-97.22395256658037,49.88312516182575],[-97.22404151537846,49.88341734969312],[-97.2241972352189,49.88371487887297],[-97.22457679348734,49.88406965964466],[-97.22478550074555,49.8842143788644],[-97.22516066289845,49.884347074204584],[-97.22580434807928,49.88442403189775],[-97.22611958672248,49.884878188294614],[-97.22630775132022,49.88517224878301],[-97.22646025656542,49.8853389809718],[-97.22668323332606,49.885484987733555],[-97.22700550351136,49.88564239974177],[-97.22748743732848,49.885818452252536],[-97.22797464751172,49.88591530060741],[-97.22812263694112,49.88620738555622],[-97.22869028247048,49.887502438692145],[-97.228305368849,49.88762877930255],[-97.22807721177888,49.88773408347038],[-97.227743634499,49.88793599325586],[-97.2267604085384,49.88850037428889],[-97.22649273000684,49.88870965780767],[-97.22627404895438,49.88895541104308],[-97.22607566112708,49.88927913093301],[-97.22591344771163,49.88982802896864],[-97.22589535706776,49.88998217731939],[-97.22597260892904,49.89025312541058],[-97.22618574854984,49.89058964000007],[-97.22712841272646,49.89152216124235],[-97.22808900339872,49.89249907022947],[-97.22804583124334,49.89293247790939],[-97.22805041419248,49.893175404664944],[-97.22809202302103,49.89335041930863],[-97.22824496846316,49.89363916571141],[-97.22854434786105,49.893942969237585],[-97.22935603769074,49.894544934403534],[-97.22983709978412,49.89491918343826],[-97.23076112648774,49.89557137210686],[-97.23134764358709,49.89600142302425],[-97.23158010698184,49.89609880467347],[-97.23200931012067,49.89616517743935],[-97.23239133601234,49.8961259255057],[-97.23259153894465,49.89606413507769],[-97.23280674295296,49.89595140842301],[-97.23301720677192,49.89574174932747],[-97.23306856510374,49.89563940942265],[-97.23309439629246,49.89542555647185],[-97.23303661090276,49.895250515075254],[-97.23291066390816,49.895091099407885]]],[[[-97.2847240025992,49.884258832143296],[-97.2846368443907,49.88413536316548],[-97.284437832048,49.88396014846309],[-97.28423255725704,49.88366541636089],[-97.28422130291716,49.88353511642504],[-97.2843028022068,49.88320566497287],[-97.2842905789234,49.88303078118749],[-97.2842391850138,49.88286543068191],[-97.28409939815484,49.882644856537375],[-97.28391177530185,49.88247599915542],[-97.28373265783972,49.88237574159889],[-97.2836878534611,49.8822330477566],[-97.28352387590704,49.88200112447867],[-97.2833413358728,49.88184081098132],[-97.28284364275098,49.881521878199685],[-97.28271153163298,49.88145811640974],[-97.28182463913994,49.88109582225302],[-97.28142798159848,49.880984329427626],[-97.28109858151927,49.880937593355746],[-97.28068077309214,49.88092614697036],[-97.28051954565724,49.8809401328079],[-97.2803243456862,49.88088825737204],[-97.28005085781216,49.88085999679307],[-97.27982971751018,49.88087102792329],[-97.2794685085784,49.88096022263059],[-97.2791807555572,49.881127137622656],[-97.27906458012836,49.88124922678777],[-97.27896393345218,49.88149048373543],[-97.27897801074371,49.8816692212208],[-97.27908834334964,49.881871518801226],[-97.27921369860276,49.881989757066215],[-97.27945292261744,49.882139273500776],[-97.2796393527046,49.88221845861442],[-97.27989097381864,49.88228702451874],[-97.2803895285436,49.88233269118836],[-97.28080579297573,49.882301774128386],[-97.28148430246377,49.88257894828115],[-97.28165572952854,49.88268811188393],[-97.28169000133558,49.88284024510148],[-97.28187427325082,49.88313725601915],[-97.2821203276982,49.8833315786975],[-97.28210655823922,49.883684337421094],[-97.28213381030346,49.88388671280664],[-97.28223462831676,49.88412955251496],[-97.28254518417278,49.88458333413863],[-97.28262795141896,49.88467958158013],[-97.28253382095228,49.88508500601441],[-97.2825333074046,49.88528152038801],[-97.282578765953,49.88543019941969],[-97.28272207934072,49.88564181803274],[-97.28293669775724,49.88583808515723],[-97.28318747684106,49.88599835711061],[-97.283969839365,49.88637313287133],[-97.28427154641956,49.88658391554646],[-97.28464745575236,49.88692133723031],[-97.2851086554705,49.88722704130218],[-97.2853654486867,49.88737038845811],[-97.28552577405397,49.88743154464804],[-97.28564895449291,49.88754257333486],[-97.28608839317216,49.88779770991744],[-97.28605767254832,49.88794829785909],[-97.28587582370264,49.88839966316128],[-97.28584725672206,49.888643542265406],[-97.2859004227526,49.888906243533675],[-97.28685515529,49.89135370116258],[-97.28688812451618,49.89150657250856],[-97.2870626040988,49.89195777584202],[-97.28719637496413,49.89252379756701],[-97.28721404321138,49.89265691450989],[-97.28731290258492,49.89287957345468],[-97.28792922166954,49.893584334201115],[-97.28789913959984,49.89384090144709],[-97.28793627931763,49.8940174817952],[-97.28805708838892,49.894251336897966],[-97.28821660540792,49.89445528263365],[-97.28884943496004,49.89514736957685],[-97.28914497643996,49.895395038773074],[-97.28931447141784,49.89550361866248],[-97.28972419568817,49.89570776641556],[-97.29009333829228,49.89584218584607],[-97.29043880615144,49.89618451642534],[-97.2906167215974,49.896338135669666],[-97.29089627310456,49.89652431668542],[-97.2913635896702,49.89675196541446],[-97.29158280050576,49.896883681092085],[-97.29181001694978,49.89729374808166],[-97.29199096716548,49.89756329934224],[-97.29229947668476,49.897909386806006],[-97.29257464063254,49.89816257725988],[-97.29329953991096,49.89865058370826],[-97.29384649043676,49.89899605487879],[-97.29414344745348,49.899143253482215],[-97.29448030135518,49.8992683229176],[-97.29493500829012,49.89938984598963],[-97.29514726236198,49.89969615293101],[-97.29557810976948,49.900123614658305],[-97.29597314310988,49.90040801894255],[-97.29633310154831,49.90072363403118],[-97.29645023953977,49.9009238950986],[-97.29660625536675,49.90106899177814],[-97.29677356780653,49.90117544327549],[-97.29733747460855,49.90148693741567],[-97.29768297796116,49.901659474532984],[-97.29830218513769,49.90186274599058],[-97.2986369976234,49.90193364438436],[-97.29890639018164,49.901963213092145],[-97.29895234042688,49.902126210579254],[-97.29912280292363,49.90239162181049],[-97.29938062981148,49.90261492864778],[-97.29988191712135,49.903125553912105],[-97.3004398914439,49.90354942747575],[-97.30064025812383,49.9036771609427],[-97.30077785812432,49.90389320648936],[-97.30112383481736,49.90420473616744],[-97.30141030717505,49.90439772356011],[-97.3018108706142,49.90472941657083],[-97.3020398789564,49.90484957428284],[-97.30227519795348,49.904934811453096],[-97.30266721840634,49.90501310619818],[-97.30303718053236,49.90502954931707],[-97.3035812383168,49.905087652387785],[-97.30378461620528,49.90521648485037],[-97.30408828692194,49.905331781306515],[-97.30433293192188,49.90539762453404],[-97.30470902778194,49.90544742337392],[-97.30526051839466,49.90546699223354],[-97.30539968085328,49.905703544233674],[-97.3056952812026,49.906039018597056],[-97.3058482235392,49.90614651543123],[-97.30613464003916,49.90626274122977],[-97.30635096372606,49.906305089833694],[-97.30657626633877,49.906316898967525],[-97.30692351310336,49.90630435449522],[-97.30769908631734,49.90694446655783],[-97.30817437465564,49.90721341075259],[-97.30841075203313,49.90810805562146],[-97.3085290160157,49.90836664251909],[-97.30862866531923,49.908486872631144],[-97.3089071641446,49.90867910748509],[-97.30913558398092,49.90877003995143],[-97.30940730561647,49.90884118554913],[-97.30961560127376,49.9088651328807],[-97.31014205240724,49.90887385572139],[-97.3107108860074,49.908823971736325],[-97.31112829394422,49.90881316848664],[-97.31119014312,49.90884185733777],[-97.31126314917655,49.90909209014638],[-97.31144162272057,49.90930655295739],[-97.31203321914164,49.90978715866611],[-97.31222790901596,49.90990930859205],[-97.31251512695682,49.91000799248072],[-97.31305611898924,49.91014300736025],[-97.31400858709124,49.910698817187374],[-97.31443465683785,49.910905649319126],[-97.3146660859034,49.91098913581446],[-97.31506819110844,49.91109413767263],[-97.31565774753828,49.91118588418677],[-97.315863648307,49.91120086518239],[-97.31629011784176,49.911181160556936],[-97.3166674983873,49.911146082111024],[-97.31704368354542,49.91121518414043],[-97.31719682479772,49.91129183468465],[-97.31732618857416,49.911402224645016],[-97.31750672246656,49.91164019880935],[-97.31759056361018,49.91259452497591],[-97.31761011916564,49.91347968642647],[-97.31768369521608,49.91380022667887],[-97.3177717715185,49.91394016171197],[-97.31798670769128,49.91415040289773],[-97.3184006822098,49.91437240871218],[-97.31881685285862,49.91449048815907],[-97.31915624530149,49.914555426419824],[-97.32078930817696,49.91478518327733],[-97.32117567166128,49.91291760221781],[-97.32093196592902,49.913132410322554],[-97.3208248838877,49.913386731815855],[-97.31972843952072,49.91323247139053],[-97.31971195898964,49.91253134668961],[-97.31961463050725,49.91142414788726],[-97.31950805221852,49.91116134337561],[-97.3191110148896,49.91065419124193],[-97.31880510251747,49.91039184458845],[-97.31860889861116,49.91026367458666],[-97.3182221006488,49.91007007750758],[-97.3179553036058,49.9099726816723],[-97.31733793787753,49.909831255416904],[-97.31675997946692,49.90976719060562],[-97.31652712934164,49.90977305804227],[-97.31594691701385,49.90982361968401],[-97.31558594671844,49.90975020357816],[-97.31539269769566,49.909658330889464],[-97.31442729756156,49.90909498687824],[-97.31403238986404,49.90891365302891],[-97.31350394712064,49.908778337658966],[-97.31340490865765,49.90869788312291],[-97.31337990840996,49.908516569746475],[-97.31321705849146,49.9082437005636],[-97.31297588555552,49.90802762304708],[-97.31277372225944,49.90788197476655],[-97.3122708090884,49.90764118232548],[-97.311988713514,49.90753842444145],[-97.31132544542947,49.907433299804254],[-97.31039217082936,49.9074681461853],[-97.31025697469045,49.90692061006117],[-97.3101311190064,49.90666379474486],[-97.30996801816354,49.90645299536732],[-97.30968507891886,49.90624341130447],[-97.30924526739156,49.90600073908577],[-97.30826794680443,49.905179162211795],[-97.30788279799852,49.9049896150912],[-97.30757496745156,49.90491400669442],[-97.3071939763716,49.90490026995618],[-97.3070749417934,49.90471149235795],[-97.30682825634696,49.904473672996374],[-97.30655836452948,49.904332862899],[-97.3062517172424,49.90422527792408],[-97.30581901906972,49.90412188895243],[-97.3056610065607,49.90410028489653],[-97.3051080656114,49.90408904099513],[-97.30489051884231,49.903948795257826],[-97.3047091605518,49.903866903558935],[-97.30438034054436,49.90377202162717],[-97.3032048365045,49.903661312297416],[-97.30299442880242,49.903478199994424],[-97.30266519078776,49.90325796238139],[-97.30247388743456,49.90295847785589],[-97.30220373144348,49.90273771039138],[-97.30204020616368,49.90264511408829],[-97.30163428840233,49.90234990652935],[-97.30107381627268,49.90178322629801],[-97.30105838743437,49.90157637208317],[-97.30089123906504,49.90126330147984],[-97.300714596153,49.90107788390993],[-97.30049299576008,49.90091054562234],[-97.3003220526225,49.90082457358168],[-97.30002161617335,49.900722952152854],[-97.2995705160682,49.900621893841794],[-97.29913742006497,49.900598620387825],[-97.29884336402873,49.90050870639135],[-97.2983117124476,49.900221749608534],[-97.2981449124038,49.900000917960774],[-97.2976403616874,49.89955808833307],[-97.2973037543222,49.899322450348826],[-97.29698500129656,49.89900616443876],[-97.29674676029346,49.89865312541496],[-97.29654514932253,49.89846560468031],[-97.29633171205036,49.89833407715837],[-97.29595117770484,49.898177473706774],[-97.29536737188236,49.89802145081581],[-97.29527192198734,49.89797863233572],[-97.29481926739628,49.89769314984551],[-97.29417694563983,49.897260747934446],[-97.29390778958526,49.89697272763455],[-97.29379579974469,49.89680859395874],[-97.2935213608213,49.896313345297735],[-97.2934467583905,49.896207833154726],[-97.29318124430245,49.89597437163747],[-97.29273741398752,49.895704872043574],[-97.2924268698224,49.895563598399214],[-97.29219537256108,49.89541426831936],[-97.29183247290466,49.89505468000814],[-97.29145005841237,49.894776714416295],[-97.29127059429176,49.89469043091006],[-97.29085938373792,49.8945445571235],[-97.2906315893304,49.894401081930134],[-97.29008394496567,49.89380219404811],[-97.29013715642216,49.89353397783983],[-97.29011053870056,49.89338527036434],[-97.28997447147717,49.89313921142158],[-97.28944186180462,49.892519717161925],[-97.28930932140132,49.892382786117935],[-97.28912787812698,49.891641214661355],[-97.28896942263182,49.89123150380707],[-97.28893582760752,49.8910765341248],[-97.28797603421052,49.888616427633025],[-97.28812447783784,49.88826309820725],[-97.28821703065022,49.88785637087188],[-97.28823059443236,49.88763417278327],[-97.28820967476835,49.887387222540795],[-97.28816910580304,49.88727791917512],[-97.28797929722256,49.88702143811871],[-97.28764749983316,49.88680210144043],[-97.28736628335714,49.886702822072955],[-97.2871118126604,49.88649281876371],[-97.28690660458668,49.88636916391932],[-97.28658531935068,49.88624144739034],[-97.286216935919,49.885997272999674],[-97.28590661083852,49.8857074632212],[-97.2854677834982,49.885400677563766],[-97.28511127346064,49.88520661548632],[-97.28468695219982,49.885016367791295],[-97.28480414892732,49.88468650707355],[-97.2848029923216,49.884499095883015],[-97.2847240025992,49.884258832143296]]],[[[-97.05748132125424,49.9400897468004],[-97.05731110471788,49.93991699578555],[-97.05667999667077,49.939554885142535],[-97.05626184274496,49.93946285923545],[-97.05592967009038,49.93947098429586],[-97.05571745429616,49.93951330330077],[-97.05543607684405,49.93962752936342],[-97.05517124197172,49.93985575377906],[-97.05508862119189,49.940026632767],[-97.0550737827719,49.94016966430613],[-97.05512037033668,49.94034612665722],[-97.05520033520094,49.94047396788925],[-97.05535015861108,49.9406202964227],[-97.05563386594064,49.940786644253784],[-97.05514285189604,49.9411694450699],[-97.0543502471464,49.94181153742963],[-97.05423570911212,49.941926067080416],[-97.05410156451951,49.94212266585259],[-97.05384944056162,49.94268547803576],[-97.05369846563885,49.94297260287598],[-97.05357105570047,49.94338080133672],[-97.05355443781056,49.94357786143878],[-97.05363334950542,49.94409568360074],[-97.0537931136748,49.94460371766803],[-97.0537095605302,49.94473672246929],[-97.05366870732009,49.94494963641864],[-97.05369019674748,49.9453587366834],[-97.05375625931204,49.94568911315558],[-97.05380361381648,49.94581645499426],[-97.0542353963212,49.94662686002648],[-97.05436245269496,49.94679032495235],[-97.05450964193308,49.946901807220094],[-97.05473956371952,49.947008719914606],[-97.05513598369454,49.94711621249908],[-97.0557627767915,49.94731681986195],[-97.05554968029236,49.947388640986475],[-97.0553124511876,49.94751487881203],[-97.05516675057136,49.94762510653052],[-97.0550402641898,49.94778655516226],[-97.05498909111714,49.94792761985049],[-97.05500008284788,49.94814182290657],[-97.05488852575144,49.94877368594211],[-97.05488652305334,49.9489165915531],[-97.0549484536238,49.949090516558535],[-97.0550469234592,49.9492185264557],[-97.05535483942327,49.94942182865992],[-97.0558301590396,49.949588512674715],[-97.05613448405369,49.949628094453864],[-97.05676073694715,49.94976123955359],[-97.05726491040156,49.94984262707363],[-97.0572503779216,49.9501626335656],[-97.05737295842648,49.95042585040386],[-97.05762283381482,49.9506705160134],[-97.05793844526757,49.95086729391426],[-97.05815107107856,49.95093319928134],[-97.05812246548145,49.95123121660074],[-97.0581273042395,49.95152253226771],[-97.05815467020454,49.951665110647085],[-97.05834252956674,49.95192388330188],[-97.05865402007552,49.952175809197264],[-97.05882628081372,49.952262951335335],[-97.0591271297905,49.95234663138155],[-97.05950894082876,49.95240284154058],[-97.05957834689146,49.95267040703734],[-97.05976962394286,49.95292792765555],[-97.05996656485875,49.95305439855312],[-97.06040757534318,49.95326600547561],[-97.0608268792119,49.9534276081254],[-97.06119091320642,49.9535217502476],[-97.06141498935403,49.95354523702767],[-97.06175277439762,49.95352194695865],[-97.06205708951852,49.95344114496988],[-97.06224294220472,49.9533617079855],[-97.06241983109848,49.95324113085453],[-97.0630085806464,49.95301703715839],[-97.06328247000984,49.95335229541994],[-97.06312454578054,49.95363000442104],[-97.0630720958726,49.953900818682385],[-97.06311476668655,49.95407460805353],[-97.06319753084716,49.95420500300354],[-97.06335604776191,49.95434818391669],[-97.06363646846393,49.95452200754392],[-97.06411697169683,49.95474251097597],[-97.06440206904917,49.95483517309906],[-97.06460256837302,49.955077521863224],[-97.06480305235593,49.95519781650731],[-97.06531128543772,49.95537787710178],[-97.06573214146138,49.95541968638409],[-97.06586870956365,49.955592917670835],[-97.0661285740612,49.955763727994615],[-97.06598799806147,49.95594591357015],[-97.06593521551208,49.9560814614259],[-97.06590008547042,49.95635591892146],[-97.06607492713076,49.95687567947783],[-97.06617755391837,49.95700004307282],[-97.06639950990343,49.957154835854645],[-97.06662779847856,49.957251852537695],[-97.06698602777642,49.957332635653515],[-97.06728374766006,49.95733773818892],[-97.06745658300942,49.95746527555117],[-97.06789079681934,49.9577272715715],[-97.06784378580592,49.95790815201131],[-97.06790234973018,49.95815515965028],[-97.06803330686702,49.95836473876831],[-97.0682074549583,49.95854971748365],[-97.06836980599653,49.95864944009003],[-97.06875318939254,49.958769686385835],[-97.06880932295076,49.958915095864405],[-97.0690030167287,49.95912615929304],[-97.06918563698385,49.95924755708855],[-97.06967639844228,49.9595336773164],[-97.06995304790146,49.95964106532185],[-97.07036940371026,49.95969550473058],[-97.07054204534651,49.95983527617415],[-97.07087085763553,49.95997983945173],[-97.0711146089476,49.96003203332337],[-97.07144929909136,49.96005166575414],[-97.0719171443128,49.95997394564482],[-97.07236217826396,49.959952945682154],[-97.07266282176732,49.95986121009349],[-97.0728696439288,49.959741857175935],[-97.07299610766826,49.95962397366388],[-97.07310814062912,49.95942196275085],[-97.07312629520943,49.95927908056553],[-97.07308377614837,49.95910217723631],[-97.07296304727836,49.95884687633718],[-97.07287338025914,49.95871964312452],[-97.07266899993836,49.9585572333604],[-97.07243766028849,49.95844928330211],[-97.07214107440412,49.95836184854197],[-97.07187191556328,49.95833625959673],[-97.07165482830584,49.95834814716048],[-97.07139797709316,49.958395108437855],[-97.07112750728288,49.95833640341779],[-97.0711052991377,49.95816892585457],[-97.07102170373574,49.95799729509882],[-97.07078045587195,49.95775031183408],[-97.07057202942896,49.95763765009365],[-97.07040400452112,49.95758147007688],[-97.07049193174872,49.957404559092],[-97.07053092223872,49.95722546462796],[-97.07051006467434,49.957050712805376],[-97.07036781355902,49.9568238404226],[-97.07012125268272,49.95657953364412],[-97.0699178555099,49.95645303210382],[-97.06950711511058,49.95633452832309],[-97.06919785924023,49.956316320569805],[-97.06882062778456,49.95634886940835],[-97.0686875510728,49.95623336275752],[-97.0684806707231,49.95611960378497],[-97.0682956906024,49.95605770403033],[-97.06846485852316,49.95577597378555],[-97.06851848772769,49.955603750303936],[-97.06849101175538,49.95539395553694],[-97.06833660685882,49.95516981534339],[-97.06811961976646,49.9550036717585],[-97.0676778811047,49.95479155865542],[-97.06757473156772,49.95451512981707],[-97.06739748390127,49.95428539211533],[-97.06725199049212,49.95416621094834],[-97.06694365193646,49.953969438393536],[-97.06656069973994,49.9538391797],[-97.06618319822677,49.953814589301],[-97.06594752453056,49.953842297268295],[-97.06567382347586,49.953670819383085],[-97.0654428706048,49.95359338611262],[-97.06551934762608,49.95342583861332],[-97.06549712151956,49.9531420571499],[-97.06536316212504,49.952881777924816],[-97.06511658560471,49.95265498794608],[-97.06469185779927,49.95215776882707],[-97.06459215745866,49.95199279881479],[-97.064275200869,49.95160757436207],[-97.0640848362101,49.95148605195512],[-97.06373794335572,49.95134852956041],[-97.06341064303936,49.95128685032199],[-97.062852509503,49.951305067736506],[-97.06264148397555,49.95133919167167],[-97.06240004351866,49.951419553813906],[-97.06223462690949,49.95151072665395],[-97.06204535020848,49.951685336774226],[-97.06182070952602,49.95183847126262],[-97.06185120545406,49.95156636370502],[-97.061795522834,49.951223370233826],[-97.06169960836934,49.95106174324737],[-97.06146623381674,49.950866359343316],[-97.06129492672346,49.95076974901766],[-97.06104254486176,49.95068559347598],[-97.06071463155352,49.95063857548775],[-97.0603502051852,49.950648718651905],[-97.0603786518903,49.95054074227784],[-97.0603426591574,49.950294043382925],[-97.06013910733137,49.9500436947192],[-97.05990077037006,49.94987153428377],[-97.0597147050208,49.94978724643451],[-97.0594800731693,49.94972559035196],[-97.05952569300544,49.949521725613465],[-97.05950446333873,49.94938023530857],[-97.05938951748682,49.949180834166846],[-97.0592292745859,49.94902827781517],[-97.05888672995316,49.94880479322593],[-97.0585625995578,49.948685245498275],[-97.05779421011016,49.94850834868032],[-97.0574844480834,49.94846037605178],[-97.05763167154464,49.94837496971206],[-97.057787058705,49.94823364091813],[-97.0579842566596,49.94788308971684],[-97.05801156160396,49.947732072337544],[-97.05801694381768,49.9470450722711],[-97.057921948958,49.94671594165562],[-97.057826379363,49.94658486658196],[-97.0576505884924,49.9464439748484],[-97.05730574505284,49.946279780061445],[-97.0560906451998,49.9458908930241],[-97.05584652021052,49.94543273940665],[-97.05581229047556,49.94527589682766],[-97.05579270894772,49.94490348440716],[-97.05587372774376,49.944786084704646],[-97.0559287485482,49.94457450342433],[-97.0559075583856,49.944431803149065],[-97.0557276995727,49.94385996475911],[-97.05568485717328,49.94355383670481],[-97.05576537092988,49.94329584268711],[-97.05588015832616,49.943090426815125],[-97.05610320472417,49.94259246937803],[-97.05680048061552,49.942027581905045],[-97.0576834487893,49.941346973424686],[-97.05778010643252,49.941260531451725],[-97.05790583243136,49.94106407414641],[-97.05793501009248,49.94088772969547],[-97.057835431086,49.94060624280948],[-97.05748132125424,49.9400897468004]]]]}}]}